country_name,country_qid,entity,label,type,latitude,longitude
Czech Republic,Q213,http://www.wikidata.org/entity/Q109933501,CTPark Pilsen,Industrial park,49.7263472,13.3251197
Czech Republic,Q213,http://www.wikidata.org/entity/Q110856874,Areál Pekařka,Industrial park,50.1132958,14.4797144
Czech Republic,Q213,http://www.wikidata.org/entity/Q113116036,Pražírny Vysočany,Industrial park,50.100775,14.4965156
Czech Republic,Q213,http://www.wikidata.org/entity/Q112770092,Centrum Jarov,Industrial park,50.0887292,14.4909853
Czech Republic,Q213,http://www.wikidata.org/entity/Q113757852,Areál Tellus,Industrial park,50.0629578,14.3607817
Czech Republic,Q213,http://www.wikidata.org/entity/Q46206233,CTPark Humpolec,Industrial park,49.527672651,15.353005404
Australia,Q408,http://www.wikidata.org/entity/Q117842816,"13 Childs Road, Chipping Norton",Industrial park,-33.917746627,150.966960033
Australia,Q408,http://www.wikidata.org/entity/Q117843777,"26 Barry Road, Chipping Norton",Industrial park,-33.915528387,150.963225433
Australia,Q408,http://www.wikidata.org/entity/Q117357020,Childs Industrial Estate,Industrial park,-33.919760372,150.965552172
Australia,Q408,http://www.wikidata.org/entity/Q117356994,"19 Childs Road, Chipping Norton",Industrial park,-33.918259994,150.965319445
Australia,Q408,http://www.wikidata.org/entity/Q117357058,"8 Childs Rd, Chipping Norton",Industrial park,-33.919634649,150.966788734
Australia,Q408,http://www.wikidata.org/entity/Q117356858,"28 Barry Road, Chipping Norton",Industrial park,-33.915728636,150.96273736
Australia,Q408,http://www.wikidata.org/entity/Q117842493,"27 Childs Road, Chipping Norton",Industrial park,-33.918485698,150.962449969
Australia,Q408,http://www.wikidata.org/entity/Q117356609,Barrymoore Industrial Estate,Industrial park,-33.915574495,150.967974605
Australia,Q408,http://www.wikidata.org/entity/Q117356737,"4-6 Barry Rd, Chipping Norton",Industrial park,-33.915655874,150.967263608
Australia,Q408,http://www.wikidata.org/entity/Q117844350,"64 Riverside Road, Chipping Norton",Industrial park,-33.919401935,150.967999208
Australia,Q408,http://www.wikidata.org/entity/Q119040279,The Continental Industrial Estate,Industrial park,-33.928380197,150.890730645
Australia,Q408,http://www.wikidata.org/entity/Q119040179,"264-272 Hoxton Park Road, Lurnea",Industrial park,-33.928653276,150.891586349
Australia,Q408,http://www.wikidata.org/entity/Q118877292,"17-19 Governor Macquarie Drive, Chipping Norton",Industrial park,-33.926529077,150.963242038
Australia,Q408,http://www.wikidata.org/entity/Q117357093,18 Alfred Industrial Zone,Industrial park,-33.923823055,150.966822587
Australia,Q408,http://www.wikidata.org/entity/Q117842460,"25 Childs Road, Chipping Norton",Industrial park,-33.918537346,150.963562597
Australia,Q408,http://www.wikidata.org/entity/Q117842635,"23 Childs Road, Chipping Norton",Industrial park,-33.918498482,150.963607642
Australia,Q408,http://www.wikidata.org/entity/Q117356830,Barry Road Units,Industrial park,-33.915503045,150.964114029
Australia,Q408,http://www.wikidata.org/entity/Q117356869,"30 Barry Road, Chipping Norton",Industrial park,-33.915853284,150.961849549
Australia,Q408,http://www.wikidata.org/entity/Q117357038,"10 Childs Rd, Chipping Norton",Industrial park,-33.919452215,150.966424504
Australia,Q408,http://www.wikidata.org/entity/Q117357087,The Enterprise Zone,Industrial park,-33.922029354,150.96536413
Australia,Q408,http://www.wikidata.org/entity/Q118517458,20 Alfred Industrial Estate,Industrial park,-33.92372943,150.96619741
Australia,Q408,http://www.wikidata.org/entity/Q117843950,"17 Childs Road, Chipping Norton",Industrial park,-33.918274339,150.965227002
Australia,Q408,http://www.wikidata.org/entity/Q117842678,"15 Childs Road, Chipping Norton",Industrial park,-33.918288392,150.965843486
Australia,Q408,http://www.wikidata.org/entity/Q117356751,"8-10 Barry Rd, Chipping Norton",Industrial park,-33.915595088,150.966719838
Australia,Q408,http://www.wikidata.org/entity/Q117842654,"21 Childs Road, Chipping Norton",Industrial park,-33.918335995,150.964677284
Australia,Q408,http://www.wikidata.org/entity/Q117356593,Riverside Industrial Estate,Industrial park,-33.926544512,150.96669503
Australia,Q408,http://www.wikidata.org/entity/Q117356756,Young Estate,Industrial park,-33.915438217,150.964537216
Australia,Q408,http://www.wikidata.org/entity/Q118366469,81 Governor Macquarie Drive,Industrial park,-33.916899356,150.962282091
Australia,Q408,http://www.wikidata.org/entity/Q117842387,"73 Governor Macquarie Drive, Chipping Norton",Industrial park,-33.91841127,150.962312779
Canada,Q16,http://www.wikidata.org/entity/Q115099350,Parc industriel Caouette,Industrial park,46.1,-71.3
Canada,Q16,http://www.wikidata.org/entity/Q115099354,Parc industriel de Joliette,Industrial park,46.006944444,-73.443333333
Canada,Q16,http://www.wikidata.org/entity/Q115099382,Parc industriel Lavoisier,Industrial park,45.5777778,-73.3222222
Canada,Q16,http://www.wikidata.org/entity/Q7055699,Riel Industrial Sector,Industrial park,52.1661,-106.654
Canada,Q16,http://www.wikidata.org/entity/Q112072445,Country Road Industrial Park,Industrial park,48.926388888,-57.985277777
Canada,Q16,http://www.wikidata.org/entity/Q115099351,Parc industriel Cardinal,Industrial park,46.817222222,-71.276111111
Canada,Q16,http://www.wikidata.org/entity/Q115099371,Parc industriel et portuaire Perron,Industrial park,45.227777777,-74.096388888
Canada,Q16,http://www.wikidata.org/entity/Q112072446,Maple Valley Industrial Park,Industrial park,48.95,-57.916944444
Canada,Q16,http://www.wikidata.org/entity/Q115099373,Parc industriel Frontenac,Industrial park,46.804166666,-71.298333333
Canada,Q16,http://www.wikidata.org/entity/Q115099367,Parc industriel des Pionniers,Industrial park,46.8861111,-71.8305556
Canada,Q16,http://www.wikidata.org/entity/Q115099361,Parc industriel de Marieville,Industrial park,45.436111111,-73.153055555
Canada,Q16,http://www.wikidata.org/entity/Q115099353,Parc industriel Coulombe,Industrial park,45.604166666,-73.323611111
Canada,Q16,http://www.wikidata.org/entity/Q115099369,Parc industriel du Docteur-Oscar-Gendron,Industrial park,45.485,-74.314444444
Canada,Q16,http://www.wikidata.org/entity/Q115099364,Parc industriel de Saint-Augustin,Industrial park,45.638888888,-73.984722222
Canada,Q16,http://www.wikidata.org/entity/Q115099357,Parc industriel de la 640-Côté-Sud,Industrial park,45.704722222,-73.723055555
Canada,Q16,http://www.wikidata.org/entity/Q115099377,Parc industriel J.-Marc-Séguin,Industrial park,45.485,-74.314444
Canada,Q16,http://www.wikidata.org/entity/Q115099383,Parc industriel Léo-Beauchesne,Industrial park,45.954444444,-71.989166666
Canada,Q16,http://www.wikidata.org/entity/Q112574993,Grandview Industrial Park,Industrial park,45.270308,-66.005783
Canada,Q16,http://www.wikidata.org/entity/Q7985545,West Industrial,Industrial park,52.122,-106.693
Canada,Q16,http://www.wikidata.org/entity/Q115099379,Parc industriel James-Russel,Industrial park,49.092222222,-66.694722222
Canada,Q16,http://www.wikidata.org/entity/Q115099366,Parc industriel des Augustines,Industrial park,48.8097222,-64.4916667
Canada,Q16,http://www.wikidata.org/entity/Q115099365,Parc industriel de Saint-Pie,Industrial park,45.5,-72.9025
Canada,Q16,http://www.wikidata.org/entity/Q115099374,Parc industriel Germain-Bombardier,Industrial park,45.35,-72.466667
Canada,Q16,http://www.wikidata.org/entity/Q115099340,Parc Colbert,Industrial park,46.788888888,-71.303055555
Canada,Q16,http://www.wikidata.org/entity/Q115099370,Parc industriel Edison,Industrial park,45.5780556,-73.4122222
Canada,Q16,http://www.wikidata.org/entity/Q115099341,Parc Daniel-Johnson,Industrial park,45.6147222,-72.965
Canada,Q16,http://www.wikidata.org/entity/Q115099348,Parc industriel Armand-Bombardier,Industrial park,45.7,-73.633333
Canada,Q16,http://www.wikidata.org/entity/Q115099355,Parc industriel de la 640-Côté-Est,Industrial park,45.7,-73.633333
Canada,Q16,http://www.wikidata.org/entity/Q115099359,Parc industriel de La Plaine,Industrial park,45.7,-73.633333
Canada,Q16,http://www.wikidata.org/entity/Q115099356,Parc industriel de la 640-Côté-Ouest,Industrial park,45.7,-73.633333
Canada,Q16,http://www.wikidata.org/entity/Q115099360,Parc industriel de Lachenaie,Industrial park,45.7,-73.633333
Canada,Q16,http://www.wikidata.org/entity/Q7568855,South West Industrial,Industrial park,52.111,-106.71
Canada,Q16,http://www.wikidata.org/entity/Q115099342,Parc du Relais-du-Routier,Industrial park,45.368055555,-74.047222222
Canada,Q16,http://www.wikidata.org/entity/Q115099380,Parc industriel Jean-Noël-Tessier,Industrial park,49.211666666,-68.235277777
Canada,Q16,http://www.wikidata.org/entity/Q115099339,L'Industriel,Industrial park,45.4058333,-73.4866667
Canada,Q16,http://www.wikidata.org/entity/Q115099375,Parc industriel Henri-Girard,Industrial park,48.398333,-71.116111
Canada,Q16,http://www.wikidata.org/entity/Q115099349,Parc industriel Babin,Industrial park,49.222222222,-68.190833333
Canada,Q16,http://www.wikidata.org/entity/Q115099346,Parc industriel Amédée-Dion,Industrial park,45.629166666,-73.969444444
Canada,Q16,http://www.wikidata.org/entity/Q115099363,Parc industriel de Port-Alfred,Industrial park,48.328888888,-70.9
Canada,Q16,http://www.wikidata.org/entity/Q112072447,Saint Annes Industrial Park,Industrial park,47.53,-52.828611111
Canada,Q16,http://www.wikidata.org/entity/Q115099352,Parc industriel Casavant,Industrial park,45.582777777,-73.306944444
Canada,Q16,http://www.wikidata.org/entity/Q115099378,Parc industriel Jacques-Marchand,Industrial park,46.6175,-72.733611
Canada,Q16,http://www.wikidata.org/entity/Q112072448,Watsons Pond Industrial Park,Industrial park,48.908888888,-57.901666666
Canada,Q16,http://www.wikidata.org/entity/Q115099362,Parc industriel de Matane,Industrial park,48.8413889,-67.5527778
Canada,Q16,http://www.wikidata.org/entity/Q115099358,Parc industriel de la Coopérative,Industrial park,45.483611111,-74.298333333
Canada,Q16,http://www.wikidata.org/entity/Q115099381,Parc industriel Jean-Paul-Paquette,Industrial park,45.569722222,-73.918055555
Canada,Q16,http://www.wikidata.org/entity/Q115099372,Parc industriel Fidèle-Édouard-Alain,Industrial park,46.09,-71.946388888
Canada,Q16,http://www.wikidata.org/entity/Q115099343,Parc E.-L.-Farrar,Industrial park,45.316667,-73.266667
Canada,Q16,http://www.wikidata.org/entity/Q115099344,Parc Edgar-Gaudette,Industrial park,45.316667,-73.266667
Canada,Q16,http://www.wikidata.org/entity/Q115099376,Parc industriel J.-Armand-Foucher,Industrial park,46.566389,-72.727222
Canada,Q16,http://www.wikidata.org/entity/Q115099347,Parc industriel Arcand,Industrial park,48.561666666,-78.156388888
Canada,Q16,http://www.wikidata.org/entity/Q115099384,Parc industriel Léonard-Roberge,Industrial park,45.463611111,-71.963888888
Canada,Q16,http://www.wikidata.org/entity/Q115099345,Parc industriel Albert-Thibeault,Industrial park,46.630555555,-72.704166666
Canada,Q16,http://www.wikidata.org/entity/Q115099368,Parc industriel du Curé-Labelle,Industrial park,45.713888888,-73.941666666
Canada,Q16,http://www.wikidata.org/entity/Q115099391,Parc industriel Paul-Yvon-Hamel,Industrial park,45.426944444,-73.155555555
Canada,Q16,http://www.wikidata.org/entity/Q115099400,Parc Olivier-Chalifoux,Industrial park,45.6288889,-72.9886111
Canada,Q16,http://www.wikidata.org/entity/Q115099390,Parc industriel Pascal,Industrial park,45.575,-73.3388889
Canada,Q16,http://www.wikidata.org/entity/Q115099393,Parc industriel Saint-Malo,Industrial park,46.803055555,-71.255833333
Canada,Q16,http://www.wikidata.org/entity/Q115099396,Parc industriel Théo-Ayotte,Industrial park,48.563055555,-78.128055555
Canada,Q16,http://www.wikidata.org/entity/Q115791387,St. James Industrial Area,Industrial park,49.908611111,-97.204166666
Canada,Q16,http://www.wikidata.org/entity/Q115791379,Assiniboine Gardens,Industrial park,49.852222222,-99.950555555
Canada,Q16,http://www.wikidata.org/entity/Q115099402,Zone industrielle Albert-Gigaire,Industrial park,46.553055555,-72.75
Canada,Q16,http://www.wikidata.org/entity/Q115791381,Fort Garry Industrial Park,Industrial park,49.826666666,-97.164166666
Canada,Q16,http://www.wikidata.org/entity/Q115099387,Parc industriel Métrobec,Industrial park,46.825,-71.315555555
Canada,Q16,http://www.wikidata.org/entity/Q115925448,Industrial Centre,Industrial park,50.383333333,-105.600555555
Canada,Q16,http://www.wikidata.org/entity/Q115791382,Gimli Industrial Park,Industrial park,50.627222222,-97.044722222
Canada,Q16,http://www.wikidata.org/entity/Q115791383,Inkster Industrial Park,Industrial park,49.936666666,-97.175555555
Canada,Q16,http://www.wikidata.org/entity/Q115925449,The Highlands,Industrial park,50.4,-105.600555555
Canada,Q16,http://www.wikidata.org/entity/Q115099392,Parc industriel Richelieu,Industrial park,45.464166666,-75.733611111
Canada,Q16,http://www.wikidata.org/entity/Q115791385,St. Boniface Industrial Area,Industrial park,49.886111111,-97.087222222
Canada,Q16,http://www.wikidata.org/entity/Q115099389,Parc industriel P.-A.-Poirier,Industrial park,46.075556,-71.950833
Canada,Q16,http://www.wikidata.org/entity/Q115925445,Britannia Park,Industrial park,50.383333333,-105.617222222
Canada,Q16,http://www.wikidata.org/entity/Q115099386,Parc industriel Marcel-Beaudet,Industrial park,45.9475,-71.983611111
Canada,Q16,http://www.wikidata.org/entity/Q115099385,Parc industriel Léveillé,Industrial park,45.7,-73.633333
Canada,Q16,http://www.wikidata.org/entity/Q115099398,Parc industriel Yvon-Jolicoeur,Industrial park,45.893888888,-71.363055555
Canada,Q16,http://www.wikidata.org/entity/Q115099397,Parc industriel William-Dobell,Industrial park,49.215833333,-68.183333333
Canada,Q16,http://www.wikidata.org/entity/Q115791388,Transcona Industrial Area,Industrial park,49.898055555,-97.031944444
Canada,Q16,http://www.wikidata.org/entity/Q124960590,Parc industriel Germain-Massicotte,Industrial park,46.233055555,-71.778333333
Canada,Q16,http://www.wikidata.org/entity/Q115791386,St. Boniface Industrial Park,Industrial park,49.879166666,-97.049444444
Canada,Q16,http://www.wikidata.org/entity/Q115099401,Parc Théo-Phénix,Industrial park,45.6475,-72.970277777
Canada,Q16,http://www.wikidata.org/entity/Q115791389,Tuxedo Industrial Area,Industrial park,49.836388888,-97.212222222
Canada,Q16,http://www.wikidata.org/entity/Q125564552,Q125564552,Industrial park,46.85981512,-71.30140592
Canada,Q16,http://www.wikidata.org/entity/Q115099395,Parc industriel Siméon-Lévesque,Industrial park,49.197222222,-68.283333333
Canada,Q16,http://www.wikidata.org/entity/Q115925447,Highland Park,Industrial park,50.4,-105.600555555
Canada,Q16,http://www.wikidata.org/entity/Q115099394,Parc industriel Saranac,Industrial park,45.268333,-74.104444
Canada,Q16,http://www.wikidata.org/entity/Q115099399,Parc Jean-Talon,Industrial park,46.796944444,-71.278888888
Canada,Q16,http://www.wikidata.org/entity/Q115925446,Greyson Industrial Park,Industrial park,50.416666666,-105.517222222
Canada,Q16,http://www.wikidata.org/entity/Q115791384,Murray Industrial Park,Industrial park,49.895833333,-97.2675
Canada,Q16,http://www.wikidata.org/entity/Q115099388,Parc industriel Nazaire-Laurin,Industrial park,46.016111111,-73.408333333
Canada,Q16,http://www.wikidata.org/entity/Q115791380,East End Industrial Park,Industrial park,49.834444444,-99.923333333
Philippines,Q928,http://www.wikidata.org/entity/Q5018400,Calamba Premiere International Park,Industrial park,14.1971,121.1332
Philippines,Q928,http://www.wikidata.org/entity/Q30590822,Carmelray Industrial Park 2,Industrial park,14.1750265,121.127104
Philippines,Q928,http://www.wikidata.org/entity/Q23048142,Carmelray Industrial Park 1,Industrial park,14.19194444,121.07111111
United Kingdom,Q145,http://www.wikidata.org/entity/Q3784216,Marlbrook,Industrial park,52.1875,-2.71816
United Kingdom,Q145,http://www.wikidata.org/entity/Q72076556,Waterglade Industrial Park,Industrial park,51.476726,0.269944
United Kingdom,Q145,http://www.wikidata.org/entity/Q5411723,Eurocentral,Industrial park,55.8315,-3.97937
United Kingdom,Q145,http://www.wikidata.org/entity/Q7969195,Wardpark,Industrial park,55.9725,-3.96556
United Kingdom,Q145,http://www.wikidata.org/entity/Q5646388,Hams Hall,Industrial park,52.525,-1.708
United Kingdom,Q145,http://www.wikidata.org/entity/Q55739736,Deeside Industrial Park,Industrial park,53.235833333,-3.016944444
United Kingdom,Q145,http://www.wikidata.org/entity/Q116913766,Saltend Chemicals Park,Industrial park,53.73632,-0.23626
United Kingdom,Q145,http://www.wikidata.org/entity/Q4966537,Bridgend Industrial Estate,Industrial park,51.4997,-3.55278
United Kingdom,Q145,http://www.wikidata.org/entity/Q123520761,Treforest Industrial Estate,Industrial park,51.56674,-3.2840001
United Kingdom,Q145,http://www.wikidata.org/entity/Q7440539,Seal Sands,Industrial park,54.6267,-1.17972
United Kingdom,Q145,http://www.wikidata.org/entity/Q126183734,Potters Industrial Park,Industrial park,51.26523,-0.82453
United Kingdom,Q145,http://www.wikidata.org/entity/Q6731254,Magna Park,Industrial park,52.0378,-0.659444
United Kingdom,Q145,http://www.wikidata.org/entity/Q48816804,Lenziemill,Industrial park,55.9369,-3.9859
Germany,Q183,http://www.wikidata.org/entity/Q76872986,Q76872986,Industrial park,49.85771,6.784289
Germany,Q183,http://www.wikidata.org/entity/Q1069242,Chemiepark Knapsack,Industrial park,50.85888889,6.84444444
Germany,Q183,http://www.wikidata.org/entity/Q121360345,Hoftex Industrial Park,Industrial park,50.293821563,11.931047835
Germany,Q183,http://www.wikidata.org/entity/Q1662105,Industriepark Schwarze Pumpe,Industrial park,51.5239,14.3569
Germany,Q183,http://www.wikidata.org/entity/Q1069643,Chempark Dormagen,Industrial park,51.07611111,6.83861111
Germany,Q183,http://www.wikidata.org/entity/Q1661990,Industrie Center Obernburg,Industrial park,49.83027778,9.15
Germany,Q183,http://www.wikidata.org/entity/Q1662108,Q1662108,Industrial park,50.11972222,8.96777778
Germany,Q183,http://www.wikidata.org/entity/Q106299120,Görzhausen,Industrial park,50.83077,8.71596
United States,Q30,http://www.wikidata.org/entity/Q65718353,Swan Island Industrial Park,Industrial park,45.561,-122.711
United States,Q30,http://www.wikidata.org/entity/Q5327592,"EastPark, Kentucky",Industrial park,38.404166666,-82.79
United States,Q30,http://www.wikidata.org/entity/Q16950811,Starbase,Industrial park,25.9875,-97.185833333
United States,Q30,http://www.wikidata.org/entity/Q29468939,Bathgate Industrial Park,Industrial park,40.841211,-73.899581
Russia,Q159,http://www.wikidata.org/entity/Q123668167,Noginsk Lenina square 1,Industrial park,55.875735161,38.469759821
Russia,Q159,http://www.wikidata.org/entity/Q123689929,Foundry plant of Glukhovo factory,Industrial park,55.877682182,38.462491035
Poland,Q36,http://www.wikidata.org/entity/Q9182600,Bydgoszcz Industrial and Technological Park,Industrial park,53.0756,18.0689
Austria,Q40,http://www.wikidata.org/entity/Q1396626,Industriezentrum Niederösterreich Süd,Industrial park,48.0735,16.3251
Belgium,Q31,http://www.wikidata.org/entity/Q1884733,Unal,Industrial park,50.763184,3.87508392
India,Q668,http://www.wikidata.org/entity/Q22906581,Autonagar,Industrial park,16.49261,80.67154
Thailand,Q869,http://www.wikidata.org/entity/Q133539790,Bangchan Industrial Estate,Industrial park,13.804068961,100.704189823
Thailand,Q869,http://www.wikidata.org/entity/Q133539696,Lat Krabung Industrial Estate,Industrial park,13.758205622,100.790048408
United Arab Emirates,Q878,http://www.wikidata.org/entity/Q5310557,Dubai Industrial City,Industrial park,24.853611111,55.064722222
Egypt,Q79,http://www.wikidata.org/entity/Q111416513,Q111416513,Industrial park,31.032611111,29.771833333
Ethiopia,Q115,http://www.wikidata.org/entity/Q114434343,Hawassa Industrial Park,Industrial park,7.066947,38.492878
Taiwan,Q865,http://www.wikidata.org/entity/Q128624974,Fengtian Industry Park,Industrial park,23.639361111,120.466916666
Malaysia,Q833,http://www.wikidata.org/entity/Q120081354,Nusajaya Tech Park,Industrial park,1.431777777,103.596611111
France,Q142,http://www.wikidata.org/entity/Q118351666,Q118351666,Industrial park,50.519983342,2.854198421
Bangladesh,Q902,http://www.wikidata.org/entity/Q117791880,BSCIC Jamdani Village,Industrial park,23.728398,90.514594
Mexico,Q96,http://www.wikidata.org/entity/Q124611460,Pajaritos Petrochemical Complex,Industrial park,18.109664026,-94.388663812
