country_name,country_qid,entity,label,type,latitude,longitude
Germany,Q183,http://www.wikidata.org/entity/Q2215894,Salzbergwerk Stetten,Mine,,
Germany,Q183,http://www.wikidata.org/entity/Q1771809,Q1771809,Mine,,
Germany,Q183,http://www.wikidata.org/entity/Q1581137,Stolberger Zink,Mine,,
Germany,Q183,http://www.wikidata.org/entity/Q183764,Q183764,Mine,,
Germany,Q183,http://www.wikidata.org/entity/Q183782,Q183782,Mine,,
Germany,Q183,http://www.wikidata.org/entity/Q183807,Q183807,Mine,,
Germany,Q183,http://www.wikidata.org/entity/Q183823,Q183823,Mine,,
Germany,Q183,http://www.wikidata.org/entity/Q183820,Q183820,Mine,,
Germany,Q183,http://www.wikidata.org/entity/Q183842,Q183842,Mine,,
Germany,Q183,http://www.wikidata.org/entity/Q183852,Q183852,Mine,,
Germany,Q183,http://www.wikidata.org/entity/Q183868,Q183868,Mine,,
Germany,Q183,http://www.wikidata.org/entity/Q183872,Q183872,Mine,,
Germany,Q183,http://www.wikidata.org/entity/Q183876,Q183876,Mine,,
Germany,Q183,http://www.wikidata.org/entity/Q183909,Q183909,Mine,,
Germany,Q183,http://www.wikidata.org/entity/Q183927,Q183927,Mine,,
Germany,Q183,http://www.wikidata.org/entity/Q183939,Q183939,Mine,,
Germany,Q183,http://www.wikidata.org/entity/Q183941,Q183941,Mine,,
Germany,Q183,http://www.wikidata.org/entity/Q183844,Zeche Leibzucht,Mine,,
Germany,Q183,http://www.wikidata.org/entity/Q183999,Q183999,Mine,,
Germany,Q183,http://www.wikidata.org/entity/Q184056,Q184056,Mine,,
Germany,Q183,http://www.wikidata.org/entity/Q184062,Q184062,Mine,,
Germany,Q183,http://www.wikidata.org/entity/Q184069,Q184069,Mine,,
Germany,Q183,http://www.wikidata.org/entity/Q184073,Q184073,Mine,,
Germany,Q183,http://www.wikidata.org/entity/Q184086,Q184086,Mine,,
Germany,Q183,http://www.wikidata.org/entity/Q184092,Q184092,Mine,,
Germany,Q183,http://www.wikidata.org/entity/Q818156,Q818156,Mine,,
Germany,Q183,http://www.wikidata.org/entity/Q901511,Q901511,Mine,,
Germany,Q183,http://www.wikidata.org/entity/Q1229416,Q1229416,Mine,,
Germany,Q183,http://www.wikidata.org/entity/Q816796,Foundries in Germany,Mine,,
Germany,Q183,http://www.wikidata.org/entity/Q1531119,Q1531119,Mine,,
Germany,Q183,http://www.wikidata.org/entity/Q114426408,Clay pit Halberstadt,Mine,,
Germany,Q183,http://www.wikidata.org/entity/Q183957,Q183957,Mine,,
Germany,Q183,http://www.wikidata.org/entity/Q1741072,Q1741072,Mine,,
Germany,Q183,http://www.wikidata.org/entity/Q117448553,Q117448553,Mine,,
Germany,Q183,http://www.wikidata.org/entity/Q116839170,Q116839170,Mine,,
Germany,Q183,http://www.wikidata.org/entity/Q117011224,Q117011224,Mine,,
Germany,Q183,http://www.wikidata.org/entity/Q117378231,Q117378231,Mine,,
Germany,Q183,http://www.wikidata.org/entity/Q1549912,Grube Eid (Hunsrück),Mine,,
Germany,Q183,http://www.wikidata.org/entity/Q59287518,Sandsteinbruch zwischen Koppenwind und Untersteinbach,Mine,,
Germany,Q183,http://www.wikidata.org/entity/Q63524673,Aufgelassener Steinbruch an der Friedrich-Ebert-Straße,Mine,,
Germany,Q183,http://www.wikidata.org/entity/Q14550992,Q14550992,Mine,,
Germany,Q183,http://www.wikidata.org/entity/Q15787796,Q15787796,Mine,,
Germany,Q183,http://www.wikidata.org/entity/Q15788095,Q15788095,Mine,,
Germany,Q183,http://www.wikidata.org/entity/Q15790387,Q15790387,Mine,,
Germany,Q183,http://www.wikidata.org/entity/Q15814718,Q15814718,Mine,,
Germany,Q183,http://www.wikidata.org/entity/Q15823934,Q15823934,Mine,,
Germany,Q183,http://www.wikidata.org/entity/Q15843850,Q15843850,Mine,,
Germany,Q183,http://www.wikidata.org/entity/Q15844391,Q15844391,Mine,,
Germany,Q183,http://www.wikidata.org/entity/Q15851083,Q15851083,Mine,,
Germany,Q183,http://www.wikidata.org/entity/Q15853896,Q15853896,Mine,,
Germany,Q183,http://www.wikidata.org/entity/Q15855475,Q15855475,Mine,,
Germany,Q183,http://www.wikidata.org/entity/Q15855478,Q15855478,Mine,,
Germany,Q183,http://www.wikidata.org/entity/Q15855489,Q15855489,Mine,,
Germany,Q183,http://www.wikidata.org/entity/Q15855493,Q15855493,Mine,,
Germany,Q183,http://www.wikidata.org/entity/Q15855500,Q15855500,Mine,,
Germany,Q183,http://www.wikidata.org/entity/Q15855510,Q15855510,Mine,,
Germany,Q183,http://www.wikidata.org/entity/Q15855508,Q15855508,Mine,,
Germany,Q183,http://www.wikidata.org/entity/Q14545193,Norddeutscher Kali-Bezirk,Mine,,
Germany,Q183,http://www.wikidata.org/entity/Q15811497,Gegenglück Stolln,Mine,,
Germany,Q183,http://www.wikidata.org/entity/Q15855518,Q15855518,Mine,,
Germany,Q183,http://www.wikidata.org/entity/Q15855524,Q15855524,Mine,,
Germany,Q183,http://www.wikidata.org/entity/Q15855535,Q15855535,Mine,,
Germany,Q183,http://www.wikidata.org/entity/Q15855533,Q15855533,Mine,,
Germany,Q183,http://www.wikidata.org/entity/Q15855540,Q15855540,Mine,,
Germany,Q183,http://www.wikidata.org/entity/Q15855547,Q15855547,Mine,,
Germany,Q183,http://www.wikidata.org/entity/Q15855550,Q15855550,Mine,,
Germany,Q183,http://www.wikidata.org/entity/Q15855551,Q15855551,Mine,,
Germany,Q183,http://www.wikidata.org/entity/Q15855555,Q15855555,Mine,,
Germany,Q183,http://www.wikidata.org/entity/Q15855556,Q15855556,Mine,,
Germany,Q183,http://www.wikidata.org/entity/Q15855557,Q15855557,Mine,,
Germany,Q183,http://www.wikidata.org/entity/Q15855562,Q15855562,Mine,,
Germany,Q183,http://www.wikidata.org/entity/Q15855563,Q15855563,Mine,,
Germany,Q183,http://www.wikidata.org/entity/Q15855570,Q15855570,Mine,,
Germany,Q183,http://www.wikidata.org/entity/Q15855568,Q15855568,Mine,,
Germany,Q183,http://www.wikidata.org/entity/Q15855569,Q15855569,Mine,,
Germany,Q183,http://www.wikidata.org/entity/Q15855574,Q15855574,Mine,,
Germany,Q183,http://www.wikidata.org/entity/Q15855572,Q15855572,Mine,,
Germany,Q183,http://www.wikidata.org/entity/Q15855573,Q15855573,Mine,,
Germany,Q183,http://www.wikidata.org/entity/Q15855594,Q15855594,Mine,,
Germany,Q183,http://www.wikidata.org/entity/Q15855599,Q15855599,Mine,,
Germany,Q183,http://www.wikidata.org/entity/Q15855600,Q15855600,Mine,,
Germany,Q183,http://www.wikidata.org/entity/Q15855601,Q15855601,Mine,,
Germany,Q183,http://www.wikidata.org/entity/Q16218278,Q16218278,Mine,,
Germany,Q183,http://www.wikidata.org/entity/Q16218279,Q16218279,Mine,,
Germany,Q183,http://www.wikidata.org/entity/Q16218280,Q16218280,Mine,,
Germany,Q183,http://www.wikidata.org/entity/Q15855523,Zeche Schmierfuß,Mine,,
Germany,Q183,http://www.wikidata.org/entity/Q15855554,Zeche Theodor,Mine,,
Germany,Q183,http://www.wikidata.org/entity/Q21821382,Grube König Ludwig,Mine,,
Germany,Q183,http://www.wikidata.org/entity/Q2514885,Q2514885,Mine,,
Germany,Q183,http://www.wikidata.org/entity/Q2603190,Q2603190,Mine,,
Germany,Q183,http://www.wikidata.org/entity/Q2603199,Q2603199,Mine,,
Germany,Q183,http://www.wikidata.org/entity/Q2603236,Q2603236,Mine,,
Germany,Q183,http://www.wikidata.org/entity/Q2603253,Q2603253,Mine,,
Germany,Q183,http://www.wikidata.org/entity/Q2603297,Q2603297,Mine,,
Germany,Q183,http://www.wikidata.org/entity/Q2809442,Q2809442,Mine,,
Germany,Q183,http://www.wikidata.org/entity/Q23900599,Daniel mine,Mine,,
Germany,Q183,http://www.wikidata.org/entity/Q23900588,Gueldener Falk mine,Mine,,
Germany,Q183,http://www.wikidata.org/entity/Q23900525,Weisser Hirsch mine,Mine,,
Germany,Q183,http://www.wikidata.org/entity/Q23900618,Rappold mine,Mine,,
Germany,Q183,http://www.wikidata.org/entity/Q24013173,"Glücksstern mine, Gottlob hill",Mine,,
Germany,Q183,http://www.wikidata.org/entity/Q24067141,Wolfgang Maassen mine field,Mine,,
Germany,Q183,http://www.wikidata.org/entity/Q26885346,Graf Jost-Christian mine,Mine,,
Germany,Q183,http://www.wikidata.org/entity/Q27089348,Tilkerode,Mine,,
Germany,Q183,http://www.wikidata.org/entity/Q28122646,Willi Agatz mine,Mine,,
Germany,Q183,http://www.wikidata.org/entity/Q29035967,Walpurgis Flacher vein,Mine,,
Germany,Q183,http://www.wikidata.org/entity/Q29052222,"Michael mine, Weiler",Mine,,
Germany,Q183,http://www.wikidata.org/entity/Q29480010,Christbescherung mine,Mine,,
Germany,Q183,http://www.wikidata.org/entity/Q29562278,Heilige Dreifaltigkeit mine,Mine,,
Germany,Q183,http://www.wikidata.org/entity/Q56631372,Q56631372,Mine,,
Germany,Q183,http://www.wikidata.org/entity/Q56640628,Q56640628,Mine,,
Germany,Q183,http://www.wikidata.org/entity/Q56640633,Q56640633,Mine,,
Germany,Q183,http://www.wikidata.org/entity/Q56640636,Q56640636,Mine,,
Germany,Q183,http://www.wikidata.org/entity/Q56640642,Q56640642,Mine,,
Germany,Q183,http://www.wikidata.org/entity/Q56640668,Q56640668,Mine,,
Germany,Q183,http://www.wikidata.org/entity/Q59530231,Q59530231,Mine,,
Germany,Q183,http://www.wikidata.org/entity/Q60578666,Q60578666,Mine,,
Germany,Q183,http://www.wikidata.org/entity/Q60578697,Q60578697,Mine,,
Germany,Q183,http://www.wikidata.org/entity/Q60578719,Q60578719,Mine,,
Germany,Q183,http://www.wikidata.org/entity/Q60578742,Q60578742,Mine,,
Germany,Q183,http://www.wikidata.org/entity/Q60578744,Q60578744,Mine,,
Germany,Q183,http://www.wikidata.org/entity/Q60578787,Q60578787,Mine,,
Germany,Q183,http://www.wikidata.org/entity/Q60578790,Q60578790,Mine,,
Germany,Q183,http://www.wikidata.org/entity/Q50204480,Brandholz-Goldkronach,Mine,,
Germany,Q183,http://www.wikidata.org/entity/Q59423674,Grube Sadisdorf,Mine,,
Germany,Q183,http://www.wikidata.org/entity/Q124490355,Grube Auguste,Mine,,
Germany,Q183,http://www.wikidata.org/entity/Q183849,Zeche Lieselotte,Mine,,
Germany,Q183,http://www.wikidata.org/entity/Q113990072,Zeche Vereinigte Crone,Mine,,
Germany,Q183,http://www.wikidata.org/entity/Q49440955,Vereinigt Zwitterfeld zu Zinnwald,Mine,,
Germany,Q183,http://www.wikidata.org/entity/Q97467489,Q97467489,Mine,,
Germany,Q183,http://www.wikidata.org/entity/Q98703716,Q98703716,Mine,,
Germany,Q183,http://www.wikidata.org/entity/Q47087002,Q47087002,Mine,,
Germany,Q183,http://www.wikidata.org/entity/Q65088444,Q65088444,Mine,,
Germany,Q183,http://www.wikidata.org/entity/Q47004544,Bergwerkswohlfahrt,Mine,,
Germany,Q183,http://www.wikidata.org/entity/Q92275698,Q92275698,Mine,,
Germany,Q183,http://www.wikidata.org/entity/Q92292028,Q92292028,Mine,,
Germany,Q183,http://www.wikidata.org/entity/Q97797466,Grüne Au Mine,Mine,,
Germany,Q183,http://www.wikidata.org/entity/Q41423996,Q41423996,Mine,,
Germany,Q183,http://www.wikidata.org/entity/Q60578877,Q60578877,Mine,,
Germany,Q183,http://www.wikidata.org/entity/Q60578884,Q60578884,Mine,,
Germany,Q183,http://www.wikidata.org/entity/Q60579011,Q60579011,Mine,,
Germany,Q183,http://www.wikidata.org/entity/Q60579042,Q60579042,Mine,,
Germany,Q183,http://www.wikidata.org/entity/Q60579045,Q60579045,Mine,,
Germany,Q183,http://www.wikidata.org/entity/Q60579087,Q60579087,Mine,,
Germany,Q183,http://www.wikidata.org/entity/Q60579085,Q60579085,Mine,,
Germany,Q183,http://www.wikidata.org/entity/Q60579089,Q60579089,Mine,,
Germany,Q183,http://www.wikidata.org/entity/Q60579122,Q60579122,Mine,,
Germany,Q183,http://www.wikidata.org/entity/Q60579130,Q60579130,Mine,,
Germany,Q183,http://www.wikidata.org/entity/Q60579132,Q60579132,Mine,,
Germany,Q183,http://www.wikidata.org/entity/Q47086825,Grube Verlegte Silberburg,Mine,,
Germany,Q183,http://www.wikidata.org/entity/Q47087006,Grube Reicher Trost,Mine,,
Germany,Q183,http://www.wikidata.org/entity/Q47087307,Grube Gottes Segen,Mine,,
Germany,Q183,http://www.wikidata.org/entity/Q47087312,Grube Tiefer Claus Friedrich,Mine,,
Germany,Q183,http://www.wikidata.org/entity/Q47088372,Grube Drei Ringe,Mine,,
Germany,Q183,http://www.wikidata.org/entity/Q47091718,Grube Kupferblume (Neuer Prinz Maximilian),Mine,,
Germany,Q183,http://www.wikidata.org/entity/Q47091722,Grube St. Moritz,Mine,,
Germany,Q183,http://www.wikidata.org/entity/Q47091727,Grube Abendröthe,Mine,,
Germany,Q183,http://www.wikidata.org/entity/Q47091733,Grube Neues Glückauf,Mine,,
Germany,Q183,http://www.wikidata.org/entity/Q47091738,Grube Weinstock,Mine,,
Germany,Q183,http://www.wikidata.org/entity/Q47091744,Grube Weinblüthe,Mine,,
Germany,Q183,http://www.wikidata.org/entity/Q47091750,Grube Redensglück,Mine,,
Germany,Q183,http://www.wikidata.org/entity/Q47091751,Grube Neuer Gottes Segen,Mine,,
Germany,Q183,http://www.wikidata.org/entity/Q47091748,Grube St. Moritz & Casselsches Glück,Mine,,
Germany,Q183,http://www.wikidata.org/entity/Q47081821,Grube Hilfe Gottes,Mine,,
Germany,Q183,http://www.wikidata.org/entity/Q110257539,Q110257539,Mine,,
Germany,Q183,http://www.wikidata.org/entity/Q110257561,Q110257561,Mine,,
Germany,Q183,http://www.wikidata.org/entity/Q110257578,Q110257578,Mine,,
Germany,Q183,http://www.wikidata.org/entity/Q110473919,Q110473919,Mine,,
Germany,Q183,http://www.wikidata.org/entity/Q107009710,Q107009710,Mine,,
Germany,Q183,http://www.wikidata.org/entity/Q107013488,Grube Claus Friedrich,Mine,,
Germany,Q183,http://www.wikidata.org/entity/Q108546782,Q108546782,Mine,,
Germany,Q183,http://www.wikidata.org/entity/Q108546783,Q108546783,Mine,,
Germany,Q183,http://www.wikidata.org/entity/Q108555988,Q108555988,Mine,,
Germany,Q183,http://www.wikidata.org/entity/Q117240959,Q117240959,Mine,,
Germany,Q183,http://www.wikidata.org/entity/Q117345482,Q117345482,Mine,,
Germany,Q183,http://www.wikidata.org/entity/Q117377619,Q117377619,Mine,,
Germany,Q183,http://www.wikidata.org/entity/Q117378225,Q117378225,Mine,,
Germany,Q183,http://www.wikidata.org/entity/Q117378232,Q117378232,Mine,,
Germany,Q183,http://www.wikidata.org/entity/Q117720686,Q117720686,Mine,,
Germany,Q183,http://www.wikidata.org/entity/Q117721451,Q117721451,Mine,,
Germany,Q183,http://www.wikidata.org/entity/Q118288284,Q118288284,Mine,,
Germany,Q183,http://www.wikidata.org/entity/Q121170878,Q121170878,Mine,,
Germany,Q183,http://www.wikidata.org/entity/Q113989648,Graphitbergwerk Kropfmühl,Mine,,
Germany,Q183,http://www.wikidata.org/entity/Q112177962,Ahlemer Asphalt-Gruben,Mine,,
Germany,Q183,http://www.wikidata.org/entity/Q124651268,Q124651268,Mine,,
Germany,Q183,http://www.wikidata.org/entity/Q124651269,Q124651269,Mine,,
Germany,Q183,http://www.wikidata.org/entity/Q127328852,Q127328852,Mine,,
Germany,Q183,http://www.wikidata.org/entity/Q63399937,Q63399937,Mine,,
Germany,Q183,http://www.wikidata.org/entity/Q68557515,Hubertus Braunkohlen-Aktiengesellschaft,Mine,,
Germany,Q183,http://www.wikidata.org/entity/Q116478524,Q116478524,Mine,,
Germany,Q183,http://www.wikidata.org/entity/Q134576798,Eisenerzgrube Karl,Mine,,
Germany,Q183,http://www.wikidata.org/entity/Q90421926,Q90421926,Mine,,
Germany,Q183,http://www.wikidata.org/entity/Q126029527,Q126029527,Mine,,
Germany,Q183,http://www.wikidata.org/entity/Q2209122,Q2209122,Mine,,
Germany,Q183,http://www.wikidata.org/entity/Q133260944,Category:Klettergarten Gimmeldinger Steinbruch,Mine,,
Germany,Q183,http://www.wikidata.org/entity/Q123094830,Q123094830,Mine,,
Australia,Q408,http://www.wikidata.org/entity/Q16255580,Broken Hill mine,Mine,,
Australia,Q408,http://www.wikidata.org/entity/Q5764659,Hilton Mine,Mine,,
Australia,Q408,http://www.wikidata.org/entity/Q5168749,Copper Mines of Tasmania,Mine,,
Australia,Q408,http://www.wikidata.org/entity/Q6921543,Mount Jukes Mine sites,Mine,,
Australia,Q408,http://www.wikidata.org/entity/Q7056144,North Mount Lyell,Mine,,
Australia,Q408,http://www.wikidata.org/entity/Q7962974,Wallarah 2 Coal Project,Mine,,
Australia,Q408,http://www.wikidata.org/entity/Q17003731,English and Australian Copper Company,Mine,,
Australia,Q408,http://www.wikidata.org/entity/Q17005836,Gregory coal mine,Mine,,
Australia,Q408,http://www.wikidata.org/entity/Q17018912,Oaky Creek coal mine,Mine,,
Australia,Q408,http://www.wikidata.org/entity/Q17034153,Watershed mine,Mine,,
Australia,Q408,http://www.wikidata.org/entity/Q17060466,Wilcherry Hill,Mine,,
Australia,Q408,http://www.wikidata.org/entity/Q124472967,Penrice quarry,Mine,,
Australia,Q408,http://www.wikidata.org/entity/Q24090263,Boogardie quarry,Mine,,
Australia,Q408,http://www.wikidata.org/entity/Q30752927,Q30752927,Mine,,
Australia,Q408,http://www.wikidata.org/entity/Q65933733,Bohle quarry,Mine,,
Australia,Q408,http://www.wikidata.org/entity/Q24090110,Red Hill Mine,Mine,,
Australia,Q408,http://www.wikidata.org/entity/Q24257072,Golden Mile mines,Mine,,
Australia,Q408,http://www.wikidata.org/entity/Q24556491,Tom's phosphate quarry,Mine,,
Australia,Q408,http://www.wikidata.org/entity/Q29051510,Wodgina mines,Mine,,
Australia,Q408,http://www.wikidata.org/entity/Q43887429,Indooroopilly Silver Mine,Mine,,
Australia,Q408,http://www.wikidata.org/entity/Q55623926,Mount Magnet silver mine,Mine,,
Australia,Q408,http://www.wikidata.org/entity/Q114034173,New Guinea Goldfields,Mine,,
Australia,Q408,http://www.wikidata.org/entity/Q115804838,Stawell Gold Mine,Mine,,
Australia,Q408,http://www.wikidata.org/entity/Q23581800,Maules Creek coal mine,Mine,,
Australia,Q408,http://www.wikidata.org/entity/Q6921923,Mount Lyell Mining and Railway Company,Mine,,
Australia,Q408,http://www.wikidata.org/entity/Q131701979,Home of Bullion Copper Mine,Mine,,
United Kingdom,Q145,http://www.wikidata.org/entity/Q5134889,Clogau Quarry,Mine,,
United Kingdom,Q145,http://www.wikidata.org/entity/Q5197165,Cwar Glas Quarry and Sawdde Gorge,Mine,,
United Kingdom,Q145,http://www.wikidata.org/entity/Q5641961,Halfway Quarry,Mine,,
United Kingdom,Q145,http://www.wikidata.org/entity/Q5897903,Hook Norton ironstone quarries,Mine,,
United Kingdom,Q145,http://www.wikidata.org/entity/Q6661114,Llanbradach Quarry,Mine,,
United Kingdom,Q145,http://www.wikidata.org/entity/Q6708844,Lynford Quarry,Mine,,
United Kingdom,Q145,http://www.wikidata.org/entity/Q6759046,Marford Quarry,Mine,,
United Kingdom,Q145,http://www.wikidata.org/entity/Q6890089,Moel Hiraddug Quarries,Mine,,
United Kingdom,Q145,http://www.wikidata.org/entity/Q7228027,Pont y Fenni Quarry and Road Cutting,Mine,,
United Kingdom,Q145,http://www.wikidata.org/entity/Q7678904,Talar Wen Quarry,Mine,,
United Kingdom,Q145,http://www.wikidata.org/entity/Q7983321,Wernbongam Stream Section and Quarry,Mine,,
United Kingdom,Q145,http://www.wikidata.org/entity/Q88777903,Penrhiw quarry,Mine,,
United Kingdom,Q145,http://www.wikidata.org/entity/Q60128081,Harlaxstone Ironstone Quarry,Mine,,
United Kingdom,Q145,http://www.wikidata.org/entity/Q20601620,Q20601620,Mine,,
United Kingdom,Q145,http://www.wikidata.org/entity/Q24895319,Stonehills Mine,Mine,,
United Kingdom,Q145,http://www.wikidata.org/entity/Q4966836,Bridgewater Collieries,Mine,,
United Kingdom,Q145,http://www.wikidata.org/entity/Q5032727,Cannock Chase Coalfield,Mine,,
United Kingdom,Q145,http://www.wikidata.org/entity/Q107360615,Auchlochan Collieries,Mine,,
United Kingdom,Q145,http://www.wikidata.org/entity/Q85785343,Middridge Colliery,Mine,,
United Kingdom,Q145,http://www.wikidata.org/entity/Q56173862,Argoed Colliery,Mine,,
United Kingdom,Q145,http://www.wikidata.org/entity/Q56178369,Hen Fferm Colliery,Mine,,
United Kingdom,Q145,http://www.wikidata.org/entity/Q56183759,Rowe's Colliery,Mine,,
United Kingdom,Q145,http://www.wikidata.org/entity/Q16931912,Lambton Collieries,Mine,,
United Kingdom,Q145,http://www.wikidata.org/entity/Q48799223,Hylton Colliery,Mine,,
United Kingdom,Q145,http://www.wikidata.org/entity/Q56175540,Cresswell Colliery (Wales),Mine,,
United Kingdom,Q145,http://www.wikidata.org/entity/Q85764679,Grove Colliery,Mine,,
United Kingdom,Q145,http://www.wikidata.org/entity/Q51220258,Philadelphia Colliery,Mine,,
United Kingdom,Q145,http://www.wikidata.org/entity/Q106928727,Cairngall quarry,Mine,,
United Kingdom,Q145,http://www.wikidata.org/entity/Q96743876,Penmon Parc quarry,Mine,,
United Kingdom,Q145,http://www.wikidata.org/entity/Q14995326,Llangammarch Wells Quarry,Mine,,
United Kingdom,Q145,http://www.wikidata.org/entity/Q14995533,Teffont Evias Quarry / Lane Cutting,Mine,,
United Kingdom,Q145,http://www.wikidata.org/entity/Q110064781,neolithic Craig Rhos-y-felin quarry,Mine,,
United Kingdom,Q145,http://www.wikidata.org/entity/Q42851371,Scotgate Ash Quarry,Mine,,
United Kingdom,Q145,http://www.wikidata.org/entity/Q42915646,Lecht Mine,Mine,,
United Kingdom,Q145,http://www.wikidata.org/entity/Q114863242,Warren Row,Mine,,
United Kingdom,Q145,http://www.wikidata.org/entity/Q3314816,Q3314816,Mine,,
United Kingdom,Q145,http://www.wikidata.org/entity/Q104419553,Chosen Corporation,Mine,,
United Kingdom,Q145,http://www.wikidata.org/entity/Q104438683,El Oro Mining and Railway,Mine,,
United Kingdom,Q145,http://www.wikidata.org/entity/Q56176374,Dylife Lead Mines,Mine,,
United Kingdom,Q145,http://www.wikidata.org/entity/Q56181856,Ochr y Fron Lead Mine,Mine,,
United Kingdom,Q145,http://www.wikidata.org/entity/Q56176400,East Darren Lead Mine,Mine,,
United Kingdom,Q145,http://www.wikidata.org/entity/Q56177539,Goginan lead mine,Mine,,
United Kingdom,Q145,http://www.wikidata.org/entity/Q56180123,Level Newydd lead mine,Mine,,
United Kingdom,Q145,http://www.wikidata.org/entity/Q56174659,Bwlch Cwmerfin Mine,Mine,,
United Kingdom,Q145,http://www.wikidata.org/entity/Q56177965,Grogwinion Mine,Mine,,
United Kingdom,Q145,http://www.wikidata.org/entity/Q17019890,Votty & Bowydd Quarry,Mine,,
Chile,Q298,http://www.wikidata.org/entity/Q23901268,Alcaparrosa mine,Mine,,
Chile,Q298,http://www.wikidata.org/entity/Q24339658,Tambo mine,Mine,,
Chile,Q298,http://www.wikidata.org/entity/Q24499320,Jote mine,Mine,,
Chile,Q298,http://www.wikidata.org/entity/Q126035838,Q126035838,Mine,,
Chile,Q298,http://www.wikidata.org/entity/Q16256963,Cerro Blanco mine,Mine,,
Chile,Q298,http://www.wikidata.org/entity/Q16256968,Cerro Casale mine,Mine,,
Chile,Q298,http://www.wikidata.org/entity/Q16964110,Lobo-Marte mine,Mine,,
Chile,Q298,http://www.wikidata.org/entity/Q16965114,Esperanza mine,Mine,,
Chile,Q298,http://www.wikidata.org/entity/Q16968833,Mantoverde mine,Mine,,
Chile,Q298,http://www.wikidata.org/entity/Q17011861,El Morro mine,Mine,,
Chile,Q298,http://www.wikidata.org/entity/Q28656584,Lolon mine,Mine,,
Chile,Q298,http://www.wikidata.org/entity/Q28777650,Haydee mine,Mine,,
Chile,Q298,http://www.wikidata.org/entity/Q51253157,Santa Ana mine,Mine,,
Mexico,Q96,http://www.wikidata.org/entity/Q7690309,Tayopa,Mine,,
Mexico,Q96,http://www.wikidata.org/entity/Q16963690,El Pilar mine,Mine,,
Mexico,Q96,http://www.wikidata.org/entity/Q16963831,El Creston mine,Mine,,
Mexico,Q96,http://www.wikidata.org/entity/Q16963769,La Colorada mine,Mine,,
Mexico,Q96,http://www.wikidata.org/entity/Q16965144,Morelos mine,Mine,,
Mexico,Q96,http://www.wikidata.org/entity/Q16976113,Pitarrilla mine,Mine,,
Mexico,Q96,http://www.wikidata.org/entity/Q16976592,Naranjal mine,Mine,,
Mexico,Q96,http://www.wikidata.org/entity/Q16978169,Los Filos mine,Mine,,
Mexico,Q96,http://www.wikidata.org/entity/Q16986044,Camino Rojo mine,Mine,,
Mexico,Q96,http://www.wikidata.org/entity/Q16999241,Molango mine,Mine,,
Mexico,Q96,http://www.wikidata.org/entity/Q7414563,San Juan Bautista de Sonora,Mine,,
Mexico,Q96,http://www.wikidata.org/entity/Q104438683,El Oro Mining and Railway,Mine,,
Mexico,Q96,http://www.wikidata.org/entity/Q86630103,San Carlos Mine,Mine,,
Zimbabwe,Q954,http://www.wikidata.org/entity/Q16970546,Mwanesi mine,Mine,,
Serbia,Q403,http://www.wikidata.org/entity/Q62621369,Q62621369,Mine,,
Serbia,Q403,http://www.wikidata.org/entity/Q62565458,Progorelica,Mine,,
Serbia,Q403,http://www.wikidata.org/entity/Q96107506,East Tamnava,Mine,,
Serbia,Q403,http://www.wikidata.org/entity/Q96107471,West Tamnava,Mine,,
Serbia,Q403,http://www.wikidata.org/entity/Q63184697,Q63184697,Mine,,
Serbia,Q403,http://www.wikidata.org/entity/Q90525664,Q90525664,Mine,,
Serbia,Q403,http://www.wikidata.org/entity/Q91013461,Q91013461,Mine,,
Serbia,Q403,http://www.wikidata.org/entity/Q96622163,Q96622163,Mine,,
Serbia,Q403,http://www.wikidata.org/entity/Q90908600,Manasija,Mine,,
Serbia,Q403,http://www.wikidata.org/entity/Q90525685,Q90525685,Mine,,
Serbia,Q403,http://www.wikidata.org/entity/Q124398287,Štavalj,Mine,,
Serbia,Q403,http://www.wikidata.org/entity/Q96633952,Q96633952,Mine,,
Serbia,Q403,http://www.wikidata.org/entity/Q96634059,Q96634059,Mine,,
Serbia,Q403,http://www.wikidata.org/entity/Q112324651,Štavalj,Mine,,
Serbia,Q403,http://www.wikidata.org/entity/Q112325711,Štavalj,Mine,,
Serbia,Q403,http://www.wikidata.org/entity/Q112326228,Štavalj,Mine,,
Serbia,Q403,http://www.wikidata.org/entity/Q112959245,Štavalj,Mine,,
Serbia,Q403,http://www.wikidata.org/entity/Q112979098,Štavalj,Mine,,
Serbia,Q403,http://www.wikidata.org/entity/Q115863334,"Lignite mine Kosovo, Obilic",Mine,,
Serbia,Q403,http://www.wikidata.org/entity/Q27866142,Q27866142,Mine,,
Serbia,Q403,http://www.wikidata.org/entity/Q3415728,RTB Bor,Mine,,
Serbia,Q403,http://www.wikidata.org/entity/Q16254053,Bela Stena mine,Mine,,
Serbia,Q403,http://www.wikidata.org/entity/Q16255254,Borska Reka mine,Mine,,
Serbia,Q403,http://www.wikidata.org/entity/Q16256959,Cerovo mine,Mine,,
Serbia,Q403,http://www.wikidata.org/entity/Q16964107,Dumitru Potok mine,Mine,,
Serbia,Q403,http://www.wikidata.org/entity/Q16964045,Veliki Krivelj mine,Mine,,
Serbia,Q403,http://www.wikidata.org/entity/Q16964981,Kiseljak mine,Mine,,
Serbia,Q403,http://www.wikidata.org/entity/Q16965623,Veluće mine,Mine,,
Serbia,Q403,http://www.wikidata.org/entity/Q16965803,Mali Krivelj mine,Mine,,
Serbia,Q403,http://www.wikidata.org/entity/Q16965802,Ruđinci mine,Mine,,
Serbia,Q403,http://www.wikidata.org/entity/Q16965985,Rajiceva Gora mine,Mine,,
Serbia,Q403,http://www.wikidata.org/entity/Q16968701,Donja Ljubata mine,Mine,,
Serbia,Q403,http://www.wikidata.org/entity/Q16976995,Jadar mine,Mine,,
Serbia,Q403,http://www.wikidata.org/entity/Q16979810,Mačkatica mine,Mine,,
Serbia,Q403,http://www.wikidata.org/entity/Q16989637,Surdulica mine,Mine,,
Serbia,Q403,http://www.wikidata.org/entity/Q16999319,Mokra Gora mine,Mine,,
Serbia,Q403,http://www.wikidata.org/entity/Q16999853,Majdanpek mine,Mine,,
Serbia,Q403,http://www.wikidata.org/entity/Q17098477,Kolubara Mining Basin,Mine,,
Serbia,Q403,http://www.wikidata.org/entity/Q20435179,Bor mine,Mine,,
Serbia,Q403,http://www.wikidata.org/entity/Q31184681,Rembas mine,Mine,,
Serbia,Q403,http://www.wikidata.org/entity/Q30114902,Crveni Breg,Mine,,
Serbia,Q403,http://www.wikidata.org/entity/Q27907536,Rudnik Brasina,Mine,,
Spain,Q29,http://www.wikidata.org/entity/Q97643200,San Benito I,Mine,,
Spain,Q29,http://www.wikidata.org/entity/Q97652637,La Alunada. Cantera,Mine,,
Spain,Q29,http://www.wikidata.org/entity/Q97623743,El Cortaero,Mine,,
Spain,Q29,http://www.wikidata.org/entity/Q97648090,Cantera La Algaira,Mine,,
Spain,Q29,http://www.wikidata.org/entity/Q98062573,Q98062573,Mine,,
Spain,Q29,http://www.wikidata.org/entity/Q97632418,Molinilla,Mine,,
Spain,Q29,http://www.wikidata.org/entity/Q97638802,El Gandul : Canteras,Mine,,
Spain,Q29,http://www.wikidata.org/entity/Q98057737,Q98057737,Mine,,
Spain,Q29,http://www.wikidata.org/entity/Q97633988,El Almendral II,Mine,,
Spain,Q29,http://www.wikidata.org/entity/Q97647560,Puerto Judío,Mine,,
Spain,Q29,http://www.wikidata.org/entity/Q97604849,El Puerto,Mine,,
Spain,Q29,http://www.wikidata.org/entity/Q97647674,Alcaudete,Mine,,
Spain,Q29,http://www.wikidata.org/entity/Q97602807,Chiscar 2,Mine,,
Spain,Q29,http://www.wikidata.org/entity/Q97616829,Cantera de Bolonia,Mine,,
Spain,Q29,http://www.wikidata.org/entity/Q97646914,Tajo de Pompeyo,Mine,,
Spain,Q29,http://www.wikidata.org/entity/Q97626056,Canteras en Posadas,Mine,,
Spain,Q29,http://www.wikidata.org/entity/Q97639121,La Cerea,Mine,,
Spain,Q29,http://www.wikidata.org/entity/Q97602063,Las Torrecillas II,Mine,,
Spain,Q29,http://www.wikidata.org/entity/Q97604848,La Umbría 1,Mine,,
Spain,Q29,http://www.wikidata.org/entity/Q97636023,Cañada del Carrascal,Mine,,
Spain,Q29,http://www.wikidata.org/entity/Q97617258,"Necrópolis de la Calle Marqués de Coprani nº 5,7",Mine,,
Spain,Q29,http://www.wikidata.org/entity/Q98059799,Q98059799,Mine,,
Spain,Q29,http://www.wikidata.org/entity/Q98061113,Q98061113,Mine,,
Spain,Q29,http://www.wikidata.org/entity/Q97602806,Cerro Gordo 1,Mine,,
Spain,Q29,http://www.wikidata.org/entity/Q97624474,Cuillas,Mine,,
Spain,Q29,http://www.wikidata.org/entity/Q97604857,Chiscar 5,Mine,,
Spain,Q29,http://www.wikidata.org/entity/Q97604855,Yunco 3,Mine,,
Spain,Q29,http://www.wikidata.org/entity/Q97598945,Hortichuelas Bajas,Mine,,
Spain,Q29,http://www.wikidata.org/entity/Q97604846,Cerro Gordo 2,Mine,,
Spain,Q29,http://www.wikidata.org/entity/Q97624902,Cantera del Pirulejo,Mine,,
Spain,Q29,http://www.wikidata.org/entity/Q97623943,La Canteruela,Mine,,
Spain,Q29,http://www.wikidata.org/entity/Q97626247,Cortijo de Las Cuevas,Mine,,
Spain,Q29,http://www.wikidata.org/entity/Q97619911,Cantera de Ranchiles,Mine,,
Spain,Q29,http://www.wikidata.org/entity/Q98060957,Piedra Horadada,Mine,,
Spain,Q29,http://www.wikidata.org/entity/Q97637428,Carmona. Canteras romanas,Mine,,
Spain,Q29,http://www.wikidata.org/entity/Q97633928,Cantera de Valdolosyesos,Mine,,
Spain,Q29,http://www.wikidata.org/entity/Q97638015,Esparragosa. Canteras,Mine,,
Spain,Q29,http://www.wikidata.org/entity/Q97616809,Cantera de Punta Paloma,Mine,,
Spain,Q29,http://www.wikidata.org/entity/Q97622075,Dehesa de la Fuente de las Pilas,Mine,,
Spain,Q29,http://www.wikidata.org/entity/Q97628800,Cantera de los Bermejales,Mine,,
Spain,Q29,http://www.wikidata.org/entity/Q97623567,La Llana,Mine,,
Spain,Q29,http://www.wikidata.org/entity/Q97604854,Las Pozas,Mine,,
Spain,Q29,http://www.wikidata.org/entity/Q97602805,El Yunco 2,Mine,,
Spain,Q29,http://www.wikidata.org/entity/Q97632348,Canteras de la Catedral de Málaga,Mine,,
Spain,Q29,http://www.wikidata.org/entity/Q97627458,Casa Gil,Mine,,
Spain,Q29,http://www.wikidata.org/entity/Q97627316,El Tesoro,Mine,,
Spain,Q29,http://www.wikidata.org/entity/Q98505008,Q98505008,Mine,,
Spain,Q29,http://www.wikidata.org/entity/Q97602808,Los Pedernales,Mine,,
Spain,Q29,http://www.wikidata.org/entity/Q97631005,Canteras de sílex del Cuchillejo,Mine,,
Spain,Q29,http://www.wikidata.org/entity/Q97634139,Las Canteras,Mine,,
Spain,Q29,http://www.wikidata.org/entity/Q98499634,Q98499634,Mine,,
Spain,Q29,http://www.wikidata.org/entity/Q97604851,Chiscar 3,Mine,,
Spain,Q29,http://www.wikidata.org/entity/Q97622041,Cantera de los Frailes,Mine,,
Spain,Q29,http://www.wikidata.org/entity/Q97619901,Cantera de Cabo Camarinal y Tumbas Antropomorfas del Anclón,Mine,,
Spain,Q29,http://www.wikidata.org/entity/Q97624908,Cañoscorrientes,Mine,,
Spain,Q29,http://www.wikidata.org/entity/Q101244258,Pedrereta de la Caseta de Xoca,Mine,,
Spain,Q29,http://www.wikidata.org/entity/Q97604853,Encarba,Mine,,
Spain,Q29,http://www.wikidata.org/entity/Q97636026,Canteras de Bencarrón,Mine,,
Spain,Q29,http://www.wikidata.org/entity/Q97648107,Cantera de los Covachos,Mine,,
Spain,Q29,http://www.wikidata.org/entity/Q97604845,Periate,Mine,,
Spain,Q29,http://www.wikidata.org/entity/Q97638798,El Gandul : Cantera de Bencarrón,Mine,,
Spain,Q29,http://www.wikidata.org/entity/Q97647562,Santa Marina,Mine,,
Spain,Q29,http://www.wikidata.org/entity/Q97604867,La Venta,Mine,,
Spain,Q29,http://www.wikidata.org/entity/Q97647716,La Batida,Mine,,
Spain,Q29,http://www.wikidata.org/entity/Q117757400,Q117757400,Mine,,
Spain,Q29,http://www.wikidata.org/entity/Q117762414,Q117762414,Mine,,
Spain,Q29,http://www.wikidata.org/entity/Q97466433,Q97466433,Mine,,
Spain,Q29,http://www.wikidata.org/entity/Q97466440,Q97466440,Mine,,
Spain,Q29,http://www.wikidata.org/entity/Q97466527,Q97466527,Mine,,
Spain,Q29,http://www.wikidata.org/entity/Q97466535,Q97466535,Mine,,
Spain,Q29,http://www.wikidata.org/entity/Q97466532,Q97466532,Mine,,
Spain,Q29,http://www.wikidata.org/entity/Q97466587,Q97466587,Mine,,
Spain,Q29,http://www.wikidata.org/entity/Q97466584,Q97466584,Mine,,
Spain,Q29,http://www.wikidata.org/entity/Q97466589,Q97466589,Mine,,
Spain,Q29,http://www.wikidata.org/entity/Q97466614,Q97466614,Mine,,
Spain,Q29,http://www.wikidata.org/entity/Q97466618,Q97466618,Mine,,
Spain,Q29,http://www.wikidata.org/entity/Q97466621,Q97466621,Mine,,
Spain,Q29,http://www.wikidata.org/entity/Q5408012,Q5408012,Mine,,
Spain,Q29,http://www.wikidata.org/entity/Q11936826,Q11936826,Mine,,
Spain,Q29,http://www.wikidata.org/entity/Q23038124,Q23038124,Mine,,
Spain,Q29,http://www.wikidata.org/entity/Q97286891,Laderas del Castillo. Guardias Viejas,Mine,,
Spain,Q29,http://www.wikidata.org/entity/Q16969482,Los Santos mine,Mine,,
Spain,Q29,http://www.wikidata.org/entity/Q16976216,Forcarey Sur mine,Mine,,
Spain,Q29,http://www.wikidata.org/entity/Q16991057,Laza mine,Mine,,
Spain,Q29,http://www.wikidata.org/entity/Q16999904,La Parrilla mine,Mine,,
Spain,Q29,http://www.wikidata.org/entity/Q573932,Museo de las Minas de Bellmunt del Priorat,Mine,,
Spain,Q29,http://www.wikidata.org/entity/Q43105711,Q43105711,Mine,,
Spain,Q29,http://www.wikidata.org/entity/Q43107872,Q43107872,Mine,,
Spain,Q29,http://www.wikidata.org/entity/Q43147518,Q43147518,Mine,,
Spain,Q29,http://www.wikidata.org/entity/Q21086066,Peña del Hierro Mine,Mine,,
Spain,Q29,http://www.wikidata.org/entity/Q6171692,Cerro Muriano Mines,Mine,,
Spain,Q29,http://www.wikidata.org/entity/Q9033251,Aguas Teñidas Mines,Mine,,
Spain,Q29,http://www.wikidata.org/entity/Q9033253,Las Herrerías Mine,Mine,,
Spain,Q29,http://www.wikidata.org/entity/Q97287151,Las Pedrizas,Mine,,
Spain,Q29,http://www.wikidata.org/entity/Q85866086,Q85866086,Mine,,
Spain,Q29,http://www.wikidata.org/entity/Q97623857,Cerro de la Coja,Mine,,
Spain,Q29,http://www.wikidata.org/entity/Q97628693,Minas Grupo Malagón,Mine,,
Spain,Q29,http://www.wikidata.org/entity/Q97628732,Juncal,Mine,,
Spain,Q29,http://www.wikidata.org/entity/Q97622597,Cerro del Castillo,Mine,,
Spain,Q29,http://www.wikidata.org/entity/Q97627062,Grupo de San José,Mine,,
Spain,Q29,http://www.wikidata.org/entity/Q97627091,Cueva del Niño,Mine,,
Spain,Q29,http://www.wikidata.org/entity/Q97628597,Prado de la Noria,Mine,,
Spain,Q29,http://www.wikidata.org/entity/Q97627406,Mina la Lapilla,Mine,,
Spain,Q29,http://www.wikidata.org/entity/Q97623196,Cerro Almadenejo,Mine,,
Spain,Q29,http://www.wikidata.org/entity/Q97627311,Mina de San Crispín,Mine,,
Spain,Q29,http://www.wikidata.org/entity/Q97627116,La Gloria,Mine,,
Spain,Q29,http://www.wikidata.org/entity/Q97627405,Portillo de Santo Domingo,Mine,,
Spain,Q29,http://www.wikidata.org/entity/Q97625190,Dehesa de Quebradilla,Mine,,
Spain,Q29,http://www.wikidata.org/entity/Q97628619,Mina cercana al Castillo,Mine,,
Spain,Q29,http://www.wikidata.org/entity/Q97627410,Cabezo la Hueca,Mine,,
Spain,Q29,http://www.wikidata.org/entity/Q97628714,Amoladeras,Mine,,
Spain,Q29,http://www.wikidata.org/entity/Q97623723,Respiradero de mina Suerte Alta,Mine,,
Spain,Q29,http://www.wikidata.org/entity/Q97622052,Las Minillas,Mine,,
Spain,Q29,http://www.wikidata.org/entity/Q97625208,La Atalayuela II,Mine,,
Spain,Q29,http://www.wikidata.org/entity/Q97628506,Cuenca y Cauce del Río Tinto a su paso por la Zona Minera de Riotinto-Nerva,Mine,,
Spain,Q29,http://www.wikidata.org/entity/Q97628531,Tharsis-La Zarza mining basin,Mine,,
Spain,Q29,http://www.wikidata.org/entity/Q97627379,Mina de Santa Teresa,Mine,,
Spain,Q29,http://www.wikidata.org/entity/Q97628755,La Nava,Mine,,
Spain,Q29,http://www.wikidata.org/entity/Q97627006,Corta del Lago II,Mine,,
Spain,Q29,http://www.wikidata.org/entity/Q97628713,Culeritos,Mine,,
Spain,Q29,http://www.wikidata.org/entity/Q97627287,El Madroñal,Mine,,
Spain,Q29,http://www.wikidata.org/entity/Q97627032,Chaparrita II,Mine,,
Spain,Q29,http://www.wikidata.org/entity/Q97616810,Las Mesas,Mine,,
Spain,Q29,http://www.wikidata.org/entity/Q97627449,Angostura,Mine,,
Spain,Q29,http://www.wikidata.org/entity/Q97628329,Alto de la Mesa,Mine,,
Spain,Q29,http://www.wikidata.org/entity/Q97625207,Vivanco,Mine,,
Spain,Q29,http://www.wikidata.org/entity/Q97628333,Corta Salomón,Mine,,
Spain,Q29,http://www.wikidata.org/entity/Q97628727,Los Guijarros,Mine,,
Spain,Q29,http://www.wikidata.org/entity/Q97627082,Mina Camilo,Mine,,
Spain,Q29,http://www.wikidata.org/entity/Q97623199,Cortijo Buenas Yerbas,Mine,,
Spain,Q29,http://www.wikidata.org/entity/Q97625203,Altillo de la Grañana,Mine,,
Spain,Q29,http://www.wikidata.org/entity/Q97628740,Mina Amparo,Mine,,
Spain,Q29,http://www.wikidata.org/entity/Q97628725,Casa del Guarda I,Mine,,
Spain,Q29,http://www.wikidata.org/entity/Q97623197,Cerro de Cabeza del Águila,Mine,,
Spain,Q29,http://www.wikidata.org/entity/Q97627411,Cabezo Gua,Mine,,
Spain,Q29,http://www.wikidata.org/entity/Q97627076,Cueva de San Pedro,Mine,,
Spain,Q29,http://www.wikidata.org/entity/Q60167019,Mina de la Caramella,Mine,,
Spain,Q29,http://www.wikidata.org/entity/Q60167017,Mina Solana de la Mina,Mine,,
Spain,Q29,http://www.wikidata.org/entity/Q97627354,Próximo a Sotiel Coronada,Mine,,
Spain,Q29,http://www.wikidata.org/entity/Q97623205,La Vacadilla,Mine,,
Spain,Q29,http://www.wikidata.org/entity/Q97628660,Los Silillos,Mine,,
Spain,Q29,http://www.wikidata.org/entity/Q97628557,Mina Las Chinas,Mine,,
Spain,Q29,http://www.wikidata.org/entity/Q97627050,Quinto Camilo (Cumbres de San Bartolomé),Mine,,
Spain,Q29,http://www.wikidata.org/entity/Q97626006,Mina de la Loba,Mine,,
Spain,Q29,http://www.wikidata.org/entity/Q97627089,Olivar del Niño,Mine,,
Spain,Q29,http://www.wikidata.org/entity/Q97628569,Las Molinillas,Mine,,
Spain,Q29,http://www.wikidata.org/entity/Q97627111,Mina Tinto - Santa Rosa,Mine,,
Spain,Q29,http://www.wikidata.org/entity/Q97628334,Corta Dehesa,Mine,,
Spain,Q29,http://www.wikidata.org/entity/Q97627204,La Sierrecilla,Mine,,
Spain,Q29,http://www.wikidata.org/entity/Q97627205,Minas de Vuelta Falsa,Mine,,
Spain,Q29,http://www.wikidata.org/entity/Q97627200,Cueva del Monje,Mine,,
Spain,Q29,http://www.wikidata.org/entity/Q97627088,Pico del Águila,Mine,,
Spain,Q29,http://www.wikidata.org/entity/Q80416349,Alcantarilla mine,Mine,,
Spain,Q29,http://www.wikidata.org/entity/Q97627313,Mina de Cuchillares,Mine,,
Spain,Q29,http://www.wikidata.org/entity/Q97627347,Mina Cala I,Mine,,
Spain,Q29,http://www.wikidata.org/entity/Q97622114,Loma de La Garranchosa Oeste,Mine,,
Spain,Q29,http://www.wikidata.org/entity/Q97652048,Lomera Poyatos,Mine,,
Spain,Q29,http://www.wikidata.org/entity/Q97628805,Mina de San Platón,Mine,,
Spain,Q29,http://www.wikidata.org/entity/Q98061006,Q98061006,Mine,,
Spain,Q29,http://www.wikidata.org/entity/Q97632747,Mina de oligisto ibérica,Mine,,
Spain,Q29,http://www.wikidata.org/entity/Q97652064,La Joya,Mine,,
Spain,Q29,http://www.wikidata.org/entity/Q97652579,Los Guindos I,Mine,,
Spain,Q29,http://www.wikidata.org/entity/Q97652782,Cortijo del Gadayo Este,Mine,,
Spain,Q29,http://www.wikidata.org/entity/Q98060981,Q98060981,Mine,,
Spain,Q29,http://www.wikidata.org/entity/Q97646498,El Ayta,Mine,,
Spain,Q29,http://www.wikidata.org/entity/Q97639304,Minas de la Caridad,Mine,,
Spain,Q29,http://www.wikidata.org/entity/Q97643026,Centro histórico de Villanueva del Río y Minas,Mine,,
Spain,Q29,http://www.wikidata.org/entity/Q97654354,Minas de Real de la Jara,Mine,,
Spain,Q29,http://www.wikidata.org/entity/Q97633793,Peñon de la Almona,Mine,,
Spain,Q29,http://www.wikidata.org/entity/Q97628792,Masa Planes,Mine,,
Spain,Q29,http://www.wikidata.org/entity/Q97652784,Las Mezquitas,Mine,,
Spain,Q29,http://www.wikidata.org/entity/Q97652583,Las Torrecillas de San Telmo,Mine,,
Spain,Q29,http://www.wikidata.org/entity/Q98061163,Q98061163,Mine,,
Spain,Q29,http://www.wikidata.org/entity/Q98504682,Q98504682,Mine,,
Spain,Q29,http://www.wikidata.org/entity/Q97652205,Mina Las Pernas,Mine,,
Spain,Q29,http://www.wikidata.org/entity/Q97628821,La Venta del Quico,Mine,,
Spain,Q29,http://www.wikidata.org/entity/Q97630024,Los Palazuelos,Mine,,
Spain,Q29,http://www.wikidata.org/entity/Q98061176,Q98061176,Mine,,
Spain,Q29,http://www.wikidata.org/entity/Q97628831,Dehesa Huerta de los Llanos,Mine,,
Spain,Q29,http://www.wikidata.org/entity/Q98061160,Q98061160,Mine,,
Spain,Q29,http://www.wikidata.org/entity/Q98061184,Q98061184,Mine,,
Spain,Q29,http://www.wikidata.org/entity/Q98498328,Q98498328,Mine,,
Spain,Q29,http://www.wikidata.org/entity/Q97652074,Tierra las Viejas,Mine,,
Spain,Q29,http://www.wikidata.org/entity/Q97644787,Tintillo,Mine,,
Spain,Q29,http://www.wikidata.org/entity/Q97628762,El Boquerón,Mine,,
Spain,Q29,http://www.wikidata.org/entity/Q97644785,Zarcita,Mine,,
Spain,Q29,http://www.wikidata.org/entity/Q97628819,El Buitrón,Mine,,
Spain,Q29,http://www.wikidata.org/entity/Q97652042,Mina Santa Catalina,Mine,,
Spain,Q29,http://www.wikidata.org/entity/Q98061004,Q98061004,Mine,,
Spain,Q29,http://www.wikidata.org/entity/Q98502393,Q98502393,Mine,,
Spain,Q29,http://www.wikidata.org/entity/Q97638516,Grupo Coral,Mine,,
Spain,Q29,http://www.wikidata.org/entity/Q97695049,sitio arqueológico de Peña del Hierro,Mine,,
Spain,Q29,http://www.wikidata.org/entity/Q97629743,Los Arrayanes,Mine,,
Spain,Q29,http://www.wikidata.org/entity/Q98061005,Q98061005,Mine,,
Spain,Q29,http://www.wikidata.org/entity/Q97644843,Zona de minería antigua,Mine,,
Spain,Q29,http://www.wikidata.org/entity/Q98044015,Q98044015,Mine,,
Spain,Q29,http://www.wikidata.org/entity/Q98059558,Q98059558,Mine,,
Spain,Q29,http://www.wikidata.org/entity/Q98059560,Q98059560,Mine,,
Spain,Q29,http://www.wikidata.org/entity/Q98060983,Q98060983,Mine,,
Spain,Q29,http://www.wikidata.org/entity/Q98502531,Q98502531,Mine,,
Spain,Q29,http://www.wikidata.org/entity/Q98502535,Q98502535,Mine,,
Spain,Q29,http://www.wikidata.org/entity/Q98502532,Q98502532,Mine,,
Spain,Q29,http://www.wikidata.org/entity/Q98502707,Q98502707,Mine,,
Spain,Q29,http://www.wikidata.org/entity/Q98502704,Q98502704,Mine,,
Spain,Q29,http://www.wikidata.org/entity/Q98502710,Q98502710,Mine,,
Spain,Q29,http://www.wikidata.org/entity/Q98060663,Q98060663,Mine,,
Spain,Q29,http://www.wikidata.org/entity/Q98502997,Masa San Dionisio,Mine,,
Spain,Q29,http://www.wikidata.org/entity/Q98061195,Q98061195,Mine,,
Spain,Q29,http://www.wikidata.org/entity/Q97628793,Filón Sur,Mine,,
Spain,Q29,http://www.wikidata.org/entity/Q97652416,Oeste de las Navas,Mine,,
Spain,Q29,http://www.wikidata.org/entity/Q97652413,Santana,Mine,,
Spain,Q29,http://www.wikidata.org/entity/Q97632836,Cueva la Rope,Mine,,
Spain,Q29,http://www.wikidata.org/entity/Q98060856,Q98060856,Mine,,
Spain,Q29,http://www.wikidata.org/entity/Q97633485,Cerro los Bravos,Mine,,
Spain,Q29,http://www.wikidata.org/entity/Q98060976,Q98060976,Mine,,
Spain,Q29,http://www.wikidata.org/entity/Q97652412,Fuente Spis,Mine,,
Spain,Q29,http://www.wikidata.org/entity/Q97645989,Castillo de Almenara,Mine,,
Spain,Q29,http://www.wikidata.org/entity/Q97652054,Mimbrera,Mine,,
Spain,Q29,http://www.wikidata.org/entity/Q130343797,Santa Isabel Mine,Mine,,
Spain,Q29,http://www.wikidata.org/entity/Q106773189,San Quintín Mines,Mine,,
Spain,Q29,http://www.wikidata.org/entity/Q107409835,Andorra Mines,Mine,,
Spain,Q29,http://www.wikidata.org/entity/Q108028666,Pozo Alfredo,Mine,,
Spain,Q29,http://www.wikidata.org/entity/Q108754355,Masa San Antonio,Mine,,
Spain,Q29,http://www.wikidata.org/entity/Q43159595,Sima de la Curra,Mine,,
Spain,Q29,http://www.wikidata.org/entity/Q43136665,Q43136665,Mine,,
Spain,Q29,http://www.wikidata.org/entity/Q28777672,La Reconquistada claim,Mine,,
Spain,Q29,http://www.wikidata.org/entity/Q67503005,Aljezar de Rafael de Sidra,Mine,,
France,Q142,http://www.wikidata.org/entity/Q2940314,Q2940314,Mine,,
France,Q142,http://www.wikidata.org/entity/Q2940317,Q2940317,Mine,,
France,Q142,http://www.wikidata.org/entity/Q2940323,Q2940323,Mine,,
France,Q142,http://www.wikidata.org/entity/Q2940324,Q2940324,Mine,,
France,Q142,http://www.wikidata.org/entity/Q3114818,Q3114818,Mine,,
France,Q142,http://www.wikidata.org/entity/Q16664572,Q16664572,Mine,,
France,Q142,http://www.wikidata.org/entity/Q19826277,Q19826277,Mine,,
France,Q142,http://www.wikidata.org/entity/Q19952901,Q19952901,Mine,,
France,Q142,http://www.wikidata.org/entity/Q30739185,Q30739185,Mine,,
France,Q142,http://www.wikidata.org/entity/Q30753471,Q30753471,Mine,,
France,Q142,http://www.wikidata.org/entity/Q2940316,Quarries in Paris 18e arrondissement,Mine,,
France,Q142,http://www.wikidata.org/entity/Q3469808,salt mine of Lons-le-Saunier,Mine,,
France,Q142,http://www.wikidata.org/entity/Q18752017,Cap Garonne mine,Mine,,
France,Q142,http://www.wikidata.org/entity/Q110994319,Q110994319,Mine,,
France,Q142,http://www.wikidata.org/entity/Q113253792,Q113253792,Mine,,
France,Q142,http://www.wikidata.org/entity/Q113253859,Q113253859,Mine,,
France,Q142,http://www.wikidata.org/entity/Q92311224,Montchanin coal mine,Mine,,
France,Q142,http://www.wikidata.org/entity/Q3209803,La Houve,Mine,,
France,Q142,http://www.wikidata.org/entity/Q91216688,Q91216688,Mine,,
France,Q142,http://www.wikidata.org/entity/Q91256719,Q91256719,Mine,,
France,Q142,http://www.wikidata.org/entity/Q91256721,Q91256721,Mine,,
France,Q142,http://www.wikidata.org/entity/Q91256727,Q91256727,Mine,,
France,Q142,http://www.wikidata.org/entity/Q91256725,Q91256725,Mine,,
France,Q142,http://www.wikidata.org/entity/Q91256731,Q91256731,Mine,,
France,Q142,http://www.wikidata.org/entity/Q91256732,Q91256732,Mine,,
France,Q142,http://www.wikidata.org/entity/Q91256736,Q91256736,Mine,,
France,Q142,http://www.wikidata.org/entity/Q91256737,Q91256737,Mine,,
France,Q142,http://www.wikidata.org/entity/Q91256742,Q91256742,Mine,,
France,Q142,http://www.wikidata.org/entity/Q91256740,Q91256740,Mine,,
France,Q142,http://www.wikidata.org/entity/Q91256748,Q91256748,Mine,,
France,Q142,http://www.wikidata.org/entity/Q91256754,Q91256754,Mine,,
France,Q142,http://www.wikidata.org/entity/Q91256753,Q91256753,Mine,,
France,Q142,http://www.wikidata.org/entity/Q91256954,Q91256954,Mine,,
France,Q142,http://www.wikidata.org/entity/Q91256953,Q91256953,Mine,,
France,Q142,http://www.wikidata.org/entity/Q91256956,Q91256956,Mine,,
France,Q142,http://www.wikidata.org/entity/Q91256960,Q91256960,Mine,,
France,Q142,http://www.wikidata.org/entity/Q91256961,Q91256961,Mine,,
France,Q142,http://www.wikidata.org/entity/Q54257361,Houillères d'Aubigny-la-Ronce,Mine,,
France,Q142,http://www.wikidata.org/entity/Q107104348,Q107104348,Mine,,
France,Q142,http://www.wikidata.org/entity/Q115769812,Emili,Mine,,
France,Q142,http://www.wikidata.org/entity/Q107241590,Sociètè des Mines d'Anderny-Chavillon,Mine,,
Norway,Q20,http://www.wikidata.org/entity/Q31885242,Q31885242,Mine,,
Norway,Q20,http://www.wikidata.org/entity/Q33124781,Kåfjord Copper Works,Mine,,
Norway,Q20,http://www.wikidata.org/entity/Q58213066,Åmdals kobberverk,Mine,,
Norway,Q20,http://www.wikidata.org/entity/Q84629623,Skutterud mines,Mine,,
Norway,Q20,http://www.wikidata.org/entity/Q26813695,Tuften quarry,Mine,,
Norway,Q20,http://www.wikidata.org/entity/Q11969739,Q11969739,Mine,,
Norway,Q20,http://www.wikidata.org/entity/Q23042794,Q23042794,Mine,,
Norway,Q20,http://www.wikidata.org/entity/Q16965007,Engebø mine,Mine,,
Norway,Q20,http://www.wikidata.org/entity/Q16965189,Selvåg mine,Mine,,
Norway,Q20,http://www.wikidata.org/entity/Q16965652,Engebøfjell mine,Mine,,
Norway,Q20,http://www.wikidata.org/entity/Q16965587,Ødegårdite mine,Mine,,
Norway,Q20,http://www.wikidata.org/entity/Q16965535,Storgangen mine,Mine,,
Norway,Q20,http://www.wikidata.org/entity/Q16965729,Kodal mine,Mine,,
Norway,Q20,http://www.wikidata.org/entity/Q16968896,Rødsand mine,Mine,,
Norway,Q20,http://www.wikidata.org/entity/Q16979201,Målviken mine,Mine,,
Norway,Q20,http://www.wikidata.org/entity/Q24029175,Tingelstadtjern quarry,Mine,,
Norway,Q20,http://www.wikidata.org/entity/Q6711407,Løkken Mine,Mine,,
Norway,Q20,http://www.wikidata.org/entity/Q24291948,Nedre Eivollen,Mine,,
Norway,Q20,http://www.wikidata.org/entity/Q26825001,Låven island,Mine,,
Norway,Q20,http://www.wikidata.org/entity/Q26883299,Øvre Lapplægeret quarry,Mine,,
Norway,Q20,http://www.wikidata.org/entity/Q27489823,Gjerdingselva outcrops,Mine,,
Norway,Q20,http://www.wikidata.org/entity/Q74682381,Q74682381,Mine,,
Norway,Q20,http://www.wikidata.org/entity/Q50399985,Gruve 6,Mine,,
Russia,Q159,http://www.wikidata.org/entity/Q16255984,Bystrinskoye mine,Mine,,
Russia,Q159,http://www.wikidata.org/entity/Q16256898,Central Zhdanovskoye mine,Mine,,
Russia,Q159,http://www.wikidata.org/entity/Q16257711,Chara mine,Mine,,
Russia,Q159,http://www.wikidata.org/entity/Q16258274,Chulmakansky coal mine,Mine,,
Russia,Q159,http://www.wikidata.org/entity/Q16956578,Pioneer mine,Mine,,
Russia,Q159,http://www.wikidata.org/entity/Q16956679,Talitsky mine,Mine,,
Russia,Q159,http://www.wikidata.org/entity/Q16957023,Prognoz mine,Mine,,
Russia,Q159,http://www.wikidata.org/entity/Q16957021,Taseevskoye mine,Mine,,
Russia,Q159,http://www.wikidata.org/entity/Q16963684,Kuranakh mine,Mine,,
Russia,Q159,http://www.wikidata.org/entity/Q16963685,Mangazeisky mine,Mine,,
Russia,Q159,http://www.wikidata.org/entity/Q16963828,Gross mine,Mine,,
Russia,Q159,http://www.wikidata.org/entity/Q16963770,Natalka mine,Mine,,
Russia,Q159,http://www.wikidata.org/entity/Q16963993,Khotoidokh mine,Mine,,
Russia,Q159,http://www.wikidata.org/entity/Q16964201,Kultumin mine,Mine,,
Russia,Q159,http://www.wikidata.org/entity/Q16964233,Oleniy Ruchey mine,Mine,,
Russia,Q159,http://www.wikidata.org/entity/Q16964406,Gora Rudnaya mine,Mine,,
Russia,Q159,http://www.wikidata.org/entity/Q16964229,Yaroslavsky mine,Mine,,
Russia,Q159,http://www.wikidata.org/entity/Q16964526,Gaysky mine,Mine,,
Russia,Q159,http://www.wikidata.org/entity/Q16964480,Nezhdaninka mine,Mine,,
Russia,Q159,http://www.wikidata.org/entity/Q16964928,Tash-Tau mine,Mine,,
Russia,Q159,http://www.wikidata.org/entity/Q16964960,Severny mine,Mine,,
Russia,Q159,http://www.wikidata.org/entity/Q16964927,Verninskoye mine,Mine,,
Russia,Q159,http://www.wikidata.org/entity/Q16965074,Lunnoye mine,Mine,,
Russia,Q159,http://www.wikidata.org/entity/Q16965072,Molodezhny mine,Mine,,
Russia,Q159,http://www.wikidata.org/entity/Q16965320,Degtyarsky mine,Mine,,
Russia,Q159,http://www.wikidata.org/entity/Q16965246,Komsomolsky mine,Mine,,
Russia,Q159,http://www.wikidata.org/entity/Q16965049,Zolotushinsky mine,Mine,,
Russia,Q159,http://www.wikidata.org/entity/Q16965117,Turyinsky mine,Mine,,
Russia,Q159,http://www.wikidata.org/entity/Q16965222,Urupsky mine,Mine,,
Russia,Q159,http://www.wikidata.org/entity/Q16965223,Uzelginskaya mine,Mine,,
Russia,Q159,http://www.wikidata.org/entity/Q16965345,Omolon mine,Mine,,
Russia,Q159,http://www.wikidata.org/entity/Q16965507,Gar mine,Mine,,
Russia,Q159,http://www.wikidata.org/entity/Q16965459,Kirovgradsky mine,Mine,,
Russia,Q159,http://www.wikidata.org/entity/Q16965626,Egitinskoye mine,Mine,,
Russia,Q159,http://www.wikidata.org/entity/Q16965536,Letneye mine,Mine,,
Russia,Q159,http://www.wikidata.org/entity/Q16965434,Verkhoyansk mine,Mine,,
Russia,Q159,http://www.wikidata.org/entity/Q16965462,Voznesenka mine,Mine,,
Russia,Q159,http://www.wikidata.org/entity/Q16965624,Medvezhy Ruchey mine,Mine,,
Russia,Q159,http://www.wikidata.org/entity/Q16965508,Tomtor mine,Mine,,
Russia,Q159,http://www.wikidata.org/entity/Q16965489,Yantau mine,Mine,,
Russia,Q159,http://www.wikidata.org/entity/Q16965556,Suranskoye mine,Mine,,
Russia,Q159,http://www.wikidata.org/entity/Q16965555,Timir mine,Mine,,
Russia,Q159,http://www.wikidata.org/entity/Q16965762,Khiagdinskoye mine,Mine,,
Russia,Q159,http://www.wikidata.org/entity/Q16965557,Yermakovsky mine,Mine,,
Russia,Q159,http://www.wikidata.org/entity/Q16965805,Kalanguyskoye mine,Mine,,
Russia,Q159,http://www.wikidata.org/entity/Q16965683,Solonechnoye mine,Mine,,
Russia,Q159,http://www.wikidata.org/entity/Q16965702,Sorsky mine,Mine,,
Russia,Q159,http://www.wikidata.org/entity/Q16965682,Usuglinskoye mine,Mine,,
Russia,Q159,http://www.wikidata.org/entity/Q16965954,Gornoye Ozero mine,Mine,,
Russia,Q159,http://www.wikidata.org/entity/Q16965703,Vostok mine,Mine,,
Russia,Q159,http://www.wikidata.org/entity/Q16966021,Dalmatovkoye mine,Mine,,
Russia,Q159,http://www.wikidata.org/entity/Q16965852,Olovskoye mine,Mine,,
Russia,Q159,http://www.wikidata.org/entity/Q16965830,Selgdarsky mine,Mine,,
Russia,Q159,http://www.wikidata.org/entity/Q16966023,Lavrovo-Nikolaevsky mine,Mine,,
Russia,Q159,http://www.wikidata.org/entity/Q16965951,Solnechny mine,Mine,,
Russia,Q159,http://www.wikidata.org/entity/Q16965950,Taymyrsky mine,Mine,,
Russia,Q159,http://www.wikidata.org/entity/Q16966166,Karasugskoye mine,Mine,,
Russia,Q159,http://www.wikidata.org/entity/Q16966049,Prioskolsky mine,Mine,,
Russia,Q159,http://www.wikidata.org/entity/Q16966051,Streltsovsk mine,Mine,,
Russia,Q159,http://www.wikidata.org/entity/Q16966052,Western Zhdanovskoye mine,Mine,,
Russia,Q159,http://www.wikidata.org/entity/Q16966215,Oktyabrskoye mine,Mine,,
Russia,Q159,http://www.wikidata.org/entity/Q16967597,Lebedinskiy mine,Mine,,
Russia,Q159,http://www.wikidata.org/entity/Q16967722,Preobrazhenovskoye mine,Mine,,
Russia,Q159,http://www.wikidata.org/entity/Q16968963,Mikhaylovskiy mine,Mine,,
Russia,Q159,http://www.wikidata.org/entity/Q16969032,Kavakta mine,Mine,,
Russia,Q159,http://www.wikidata.org/entity/Q16969071,Khangalassky coal mine,Mine,,
Russia,Q159,http://www.wikidata.org/entity/Q16969002,Padma mine,Mine,,
Russia,Q159,http://www.wikidata.org/entity/Q16969157,Inskoye mine,Mine,,
Russia,Q159,http://www.wikidata.org/entity/Q16969072,Taryno-Kurdatsky mine,Mine,,
Russia,Q159,http://www.wikidata.org/entity/Q16969070,Yuzhno Khingan mine,Mine,,
Russia,Q159,http://www.wikidata.org/entity/Q16969316,Kuruozek mine,Mine,,
Russia,Q159,http://www.wikidata.org/entity/Q16969317,Usinsky coal mine,Mine,,
Russia,Q159,http://www.wikidata.org/entity/Q16969516,Ulug-Tanzekskoye mine,Mine,,
Russia,Q159,http://www.wikidata.org/entity/Q16969517,Urzarsaiskoye mine,Mine,,
Russia,Q159,http://www.wikidata.org/entity/Q16970670,Toyozhnoye mine,Mine,,
Russia,Q159,http://www.wikidata.org/entity/Q16971590,Orlovskoye mine,Mine,,
Russia,Q159,http://www.wikidata.org/entity/Q16973292,Gusevogorskoye mine,Mine,,
Russia,Q159,http://www.wikidata.org/entity/Q16973339,Olendzhular mine,Mine,,
Russia,Q159,http://www.wikidata.org/entity/Q16974391,Dyosovskoye mine,Mine,,
Russia,Q159,http://www.wikidata.org/entity/Q16975316,Katuginskoy mine,Mine,,
Russia,Q159,http://www.wikidata.org/entity/Q16975793,Etykinskoye mine,Mine,,
Russia,Q159,http://www.wikidata.org/entity/Q16975794,Olimpiyskoye mine,Mine,,
Russia,Q159,http://www.wikidata.org/entity/Q16975796,Kharlovskoye mine,Mine,,
Russia,Q159,http://www.wikidata.org/entity/Q16975851,Okino coal mine,Mine,,
Russia,Q159,http://www.wikidata.org/entity/Q16975797,Terligkhaiskoye mine,Mine,,
Russia,Q159,http://www.wikidata.org/entity/Q16975822,Tsentralnyi coal mine,Mine,,
Russia,Q159,http://www.wikidata.org/entity/Q16976077,Enashiminskoye mine,Mine,,
Russia,Q159,http://www.wikidata.org/entity/Q16976046,Lednikovy-Sarmaka mine,Mine,,
Russia,Q159,http://www.wikidata.org/entity/Q16976139,Gornaya Shoriya mine,Mine,,
Russia,Q159,http://www.wikidata.org/entity/Q16976143,Kun-Manie mine,Mine,,
Russia,Q159,http://www.wikidata.org/entity/Q16976177,Kuznetsky Alatau mine,Mine,,
Russia,Q159,http://www.wikidata.org/entity/Q16976075,Zhernovskoye coal mine,Mine,,
Russia,Q159,http://www.wikidata.org/entity/Q16976116,Yugo-Vostochnaya Gremyakha mine,Mine,,
Russia,Q159,http://www.wikidata.org/entity/Q16976214,Toshtuozek mine,Mine,,
Russia,Q159,http://www.wikidata.org/entity/Q16976215,Voznesenovskoye mine,Mine,,
Russia,Q159,http://www.wikidata.org/entity/Q16976536,Elegest coal mine,Mine,,
Russia,Q159,http://www.wikidata.org/entity/Q16976537,Nizhne-Angarskoye mine,Mine,,
Russia,Q159,http://www.wikidata.org/entity/Q16976754,Korpanga mine,Mine,,
Russia,Q159,http://www.wikidata.org/entity/Q16976686,Sobstvenno-Kachkanarskoye mine,Mine,,
Russia,Q159,http://www.wikidata.org/entity/Q16976817,Tugnui coal mine,Mine,,
Russia,Q159,http://www.wikidata.org/entity/Q16976997,Salairskoye mine,Mine,,
Russia,Q159,http://www.wikidata.org/entity/Q16977134,Kingash mine,Mine,,
Russia,Q159,http://www.wikidata.org/entity/Q16977194,Urgal coal mine,Mine,,
Russia,Q159,http://www.wikidata.org/entity/Q16977302,Pudozhsky mine,Mine,,
Russia,Q159,http://www.wikidata.org/entity/Q16977397,Vishnyakovskoe mine,Mine,,
Russia,Q159,http://www.wikidata.org/entity/Q16977797,Yakovlevsky mine,Mine,,
Russia,Q159,http://www.wikidata.org/entity/Q16977950,Liublinskaya mine,Mine,,
Russia,Q159,http://www.wikidata.org/entity/Q16977998,Zhireken mine,Mine,,
Russia,Q159,http://www.wikidata.org/entity/Q16978804,Safyanovskoe mine,Mine,,
Russia,Q159,http://www.wikidata.org/entity/Q16978920,Kholzunskoye mine,Mine,,
Russia,Q159,http://www.wikidata.org/entity/Q16979728,Pereyaslavskoye coal mine,Mine,,
Russia,Q159,http://www.wikidata.org/entity/Q16986268,Selemdzha mine,Mine,,
Russia,Q159,http://www.wikidata.org/entity/Q16987415,Metrekskoye mine,Mine,,
Russia,Q159,http://www.wikidata.org/entity/Q16989644,Kyuchus mine,Mine,,
Russia,Q159,http://www.wikidata.org/entity/Q16989774,Gorlovsky coal mine,Mine,,
Russia,Q159,http://www.wikidata.org/entity/Q16991515,Shelekhovskoye mine,Mine,,
Russia,Q159,http://www.wikidata.org/entity/Q16991514,Tyya mine,Mine,,
Russia,Q159,http://www.wikidata.org/entity/Q16991547,Zharchikhinski mine,Mine,,
Russia,Q159,http://www.wikidata.org/entity/Q16996024,Listvianskaya coal mine,Mine,,
Russia,Q159,http://www.wikidata.org/entity/Q16997374,Lobash mine,Mine,,
Russia,Q159,http://www.wikidata.org/entity/Q16998828,Ulur mine,Mine,,
Russia,Q159,http://www.wikidata.org/entity/Q16999137,Synnyr mine,Mine,,
Russia,Q159,http://www.wikidata.org/entity/Q16999171,Ruchar mine,Mine,,
Russia,Q159,http://www.wikidata.org/entity/Q16999514,Olekma mine,Mine,,
Russia,Q159,http://www.wikidata.org/entity/Q17000064,Maslovskoye mine,Mine,,
Russia,Q159,http://www.wikidata.org/entity/Q17000259,Kyzyl-Tash Turk mine,Mine,,
Russia,Q159,http://www.wikidata.org/entity/Q17000224,Shalozersky mine,Mine,,
Russia,Q159,http://www.wikidata.org/entity/Q17000290,Ozyorny mine,Mine,,
Russia,Q159,http://www.wikidata.org/entity/Q17006171,Bugdai mine,Mine,,
Russia,Q159,http://www.wikidata.org/entity/Q17020111,Gusevogoroskoye mine,Mine,,
Russia,Q159,http://www.wikidata.org/entity/Q17027370,Noyon-Tologoisky mine,Mine,,
Russia,Q159,http://www.wikidata.org/entity/Q17027501,Itmatinskoye mine,Mine,,
Russia,Q159,http://www.wikidata.org/entity/Q17027438,Milkanskoye mine,Mine,,
Russia,Q159,http://www.wikidata.org/entity/Q17027410,Verkhnekingashskoye mine,Mine,,
Russia,Q159,http://www.wikidata.org/entity/Q17027538,Sakhalin coal mine,Mine,,
Russia,Q159,http://www.wikidata.org/entity/Q52099868,Kadyrel' Hg occurrence,Mine,,
Russia,Q159,http://www.wikidata.org/entity/Q109303141,Lyuberetskiye Quarries,Mine,,
Russia,Q159,http://www.wikidata.org/entity/Q50304768,Kochkarskoye gold deposit,Mine,,
Russia,Q159,http://www.wikidata.org/entity/Q16001334,Abakanskoye mine,Mine,,
Russia,Q159,http://www.wikidata.org/entity/Q16002039,Aganozersky chromium mine,Mine,,
Russia,Q159,http://www.wikidata.org/entity/Q16002041,Aganozersky mine,Mine,,
Russia,Q159,http://www.wikidata.org/entity/Q16002051,Agaskyrskoe mine,Mine,,
Russia,Q159,http://www.wikidata.org/entity/Q16002275,Ak-Sugskoye mine,Mine,,
Russia,Q159,http://www.wikidata.org/entity/Q16002319,Aktashskoye mine,Mine,,
Russia,Q159,http://www.wikidata.org/entity/Q16002350,Alakhinskoye mine,Mine,,
Russia,Q159,http://www.wikidata.org/entity/Q16002383,Albazino mine,Mine,,
Russia,Q159,http://www.wikidata.org/entity/Q16252874,Bakal mine,Mine,,
Russia,Q159,http://www.wikidata.org/entity/Q16252932,Bakr-Tay mine,Mine,,
Russia,Q159,http://www.wikidata.org/entity/Q16254134,Belokitatskoye mine,Mine,,
Russia,Q159,http://www.wikidata.org/entity/Q16254333,Berezov mine,Mine,,
Russia,Q159,http://www.wikidata.org/entity/Q16254338,Berezovskoye mine,Mine,,
Russia,Q159,http://www.wikidata.org/entity/Q16255000,Blyavinsky mine,Mine,,
Russia,Q159,http://www.wikidata.org/entity/Q16255099,Bolshoy Kuranah mine,Mine,,
Russia,Q159,http://www.wikidata.org/entity/Q16957220,Seregovo mine,Mine,,
Russia,Q159,http://www.wikidata.org/entity/Q4279355,Malysheva mine,Mine,,
Russia,Q159,http://www.wikidata.org/entity/Q4429356,Sorsk mine,Mine,,
Russia,Q159,http://www.wikidata.org/entity/Q21095005,Dzhalinda tin deposit,Mine,,
Russia,Q159,http://www.wikidata.org/entity/Q5808553,Kotselvaara mine,Mine,,
Russia,Q159,http://www.wikidata.org/entity/Q23828935,"Palitra pegmatite, Karnasurt mine",Mine,,
Russia,Q159,http://www.wikidata.org/entity/Q23829138,"Karnasurt mine, Karnasurt mount",Mine,,
Russia,Q159,http://www.wikidata.org/entity/Q23835375,Kirovskii apatite mine,Mine,,
Russia,Q159,http://www.wikidata.org/entity/Q23848306,Apatitovyi tsirk,Mine,,
Russia,Q159,http://www.wikidata.org/entity/Q23848218,Tsentral'nyi mine,Mine,,
Russia,Q159,http://www.wikidata.org/entity/Q23893375,"Natrolite stock, Karnasurt mount",Mine,,
Russia,Q159,http://www.wikidata.org/entity/Q23893344,Umbozero mine,Mine,,
Russia,Q159,http://www.wikidata.org/entity/Q23894156,Mount Malyi Punkaruaiv,Mine,,
Russia,Q159,http://www.wikidata.org/entity/Q23924632,Severniy mine,Mine,,
Russia,Q159,http://www.wikidata.org/entity/Q24003214,Korshunovskoye iron-boron skarn deposit,Mine,,
Russia,Q159,http://www.wikidata.org/entity/Q24036509,Material'naya adit,Mine,,
Russia,Q159,http://www.wikidata.org/entity/Q24067108,Velikaya Guba uran-vanadium deposit,Mine,,
Russia,Q159,http://www.wikidata.org/entity/Q26698152,Solongo boron deposit,Mine,,
Russia,Q159,http://www.wikidata.org/entity/Q27510827,Malkhan pegmatite field,Mine,,
Russia,Q159,http://www.wikidata.org/entity/Q28059727,Urup copper deposit,Mine,,
Russia,Q159,http://www.wikidata.org/entity/Q28122559,Kester tin deposit,Mine,,
Russia,Q159,http://www.wikidata.org/entity/Q29018304,Zharchikha molybdenum deposit,Mine,,
Russia,Q159,http://www.wikidata.org/entity/Q29020500,"Ust'-Khann'ya intrusion, Lower Khann'ya river",Mine,,
Russia,Q159,http://www.wikidata.org/entity/Q29023841,"Aleksandrov Log platinum deposit, Solov'eva mountain",Mine,,
Russia,Q159,http://www.wikidata.org/entity/Q29532421,"Tuliok river head, East slope",Mine,,
Russia,Q159,http://www.wikidata.org/entity/Q4198860,Emerald mine of the Urals,Mine,,
Russia,Q159,http://www.wikidata.org/entity/Q16723526,Q16723526,Mine,,
Russia,Q159,http://www.wikidata.org/entity/Q16976246,Zamitsa diamond mine,Mine,,
Russia,Q159,http://www.wikidata.org/entity/Q16979693,Shalozersky chromium mine,Mine,,
Russia,Q159,http://www.wikidata.org/entity/Q65158586,Q65158586,Mine,,
Iran,Q794,http://www.wikidata.org/entity/Q5874568,Majdabad Quarry,Mine,,
Iran,Q794,http://www.wikidata.org/entity/Q4753629,Andaryan gold mine,Mine,,
Iran,Q794,http://www.wikidata.org/entity/Q5668763,Mehdiabad mine,Mine,,
Czech Republic,Q213,http://www.wikidata.org/entity/Q18915319,Q18915319,Mine,,
Czech Republic,Q213,http://www.wikidata.org/entity/Q19601827,Q19601827,Mine,,
Czech Republic,Q213,http://www.wikidata.org/entity/Q19601833,Q19601833,Mine,,
Czech Republic,Q213,http://www.wikidata.org/entity/Q19601941,Q19601941,Mine,,
Czech Republic,Q213,http://www.wikidata.org/entity/Q19602093,Q19602093,Mine,,
Czech Republic,Q213,http://www.wikidata.org/entity/Q19602101,Q19602101,Mine,,
Czech Republic,Q213,http://www.wikidata.org/entity/Q19602230,Q19602230,Mine,,
Czech Republic,Q213,http://www.wikidata.org/entity/Q19602488,Q19602488,Mine,,
Czech Republic,Q213,http://www.wikidata.org/entity/Q19602712,Q19602712,Mine,,
Czech Republic,Q213,http://www.wikidata.org/entity/Q19602989,Q19602989,Mine,,
Czech Republic,Q213,http://www.wikidata.org/entity/Q20057298,Q20057298,Mine,,
Czech Republic,Q213,http://www.wikidata.org/entity/Q20057302,Q20057302,Mine,,
Czech Republic,Q213,http://www.wikidata.org/entity/Q20057301,Q20057301,Mine,,
Czech Republic,Q213,http://www.wikidata.org/entity/Q20058279,Q20058279,Mine,,
Czech Republic,Q213,http://www.wikidata.org/entity/Q21034370,Q21034370,Mine,,
Czech Republic,Q213,http://www.wikidata.org/entity/Q12050101,Q12050101,Mine,,
Czech Republic,Q213,http://www.wikidata.org/entity/Q12050456,Q12050456,Mine,,
Czech Republic,Q213,http://www.wikidata.org/entity/Q22977883,Q22977883,Mine,,
Czech Republic,Q213,http://www.wikidata.org/entity/Q11863221,Prokop mine,Mine,,
Czech Republic,Q213,http://www.wikidata.org/entity/Q106988206,Svornost Mine,Mine,,
Czech Republic,Q213,http://www.wikidata.org/entity/Q124630654,Bukov mine,Mine,,
Czech Republic,Q213,http://www.wikidata.org/entity/Q23803469,Q23803469,Mine,,
Czech Republic,Q213,http://www.wikidata.org/entity/Q26832915,Q26832915,Mine,,
Czech Republic,Q213,http://www.wikidata.org/entity/Q37769194,Q37769194,Mine,,
Czech Republic,Q213,http://www.wikidata.org/entity/Q47499189,Q47499189,Mine,,
Czech Republic,Q213,http://www.wikidata.org/entity/Q47525079,Plavno mine,Mine,,
Czech Republic,Q213,http://www.wikidata.org/entity/Q91782161,Q91782161,Mine,,
Czech Republic,Q213,http://www.wikidata.org/entity/Q95601148,Q95601148,Mine,,
Czech Republic,Q213,http://www.wikidata.org/entity/Q12042957,Q12042957,Mine,,
Peru,Q419,http://www.wikidata.org/entity/Q16251556,Arcata mine,Mine,,
Peru,Q419,http://www.wikidata.org/entity/Q16254328,Berenguela mine,Mine,,
Peru,Q419,http://www.wikidata.org/entity/Q16256987,Cerro Verde mine,Mine,,
Peru,Q419,http://www.wikidata.org/entity/Q16258263,Chucapaca mine,Mine,,
Peru,Q419,http://www.wikidata.org/entity/Q16960786,Mantaro mine,Mine,,
Peru,Q419,http://www.wikidata.org/entity/Q16963383,Azuca mine,Mine,,
Peru,Q419,http://www.wikidata.org/entity/Q16963500,Crespo mine,Mine,,
Peru,Q419,http://www.wikidata.org/entity/Q16963523,Morococha mine,Mine,,
Peru,Q419,http://www.wikidata.org/entity/Q16963922,Pallancata mine,Mine,,
Peru,Q419,http://www.wikidata.org/entity/Q16964021,Rio Blanco mine,Mine,,
Peru,Q419,http://www.wikidata.org/entity/Q16965680,Corani mine,Mine,,
Peru,Q419,http://www.wikidata.org/entity/Q16975821,Costancia mine,Mine,,
Peru,Q419,http://www.wikidata.org/entity/Q29019879,Huanzala mine,Mine,,
Peru,Q419,http://www.wikidata.org/entity/Q123943040,Inmaculada mine,Mine,,
Peru,Q419,http://www.wikidata.org/entity/Q16957941,Huaron mine,Mine,,
Peru,Q419,http://www.wikidata.org/entity/Q53307433,Matilda mine,Mine,,
Peru,Q419,http://www.wikidata.org/entity/Q120969540,Utunsa,Mine,,
Netherlands,Q55,http://www.wikidata.org/entity/Q130245241,Q130245241,Mine,,
Netherlands,Q55,http://www.wikidata.org/entity/Q108870217,Staringgroeve,Mine,,
Netherlands,Q55,http://www.wikidata.org/entity/Q101424759,East-Borneo Maatschappij,Mine,,
Netherlands,Q55,http://www.wikidata.org/entity/Q126845154,"Oude kleigroeve Gebr. Teeuwen, Tegelen",Mine,,
Netherlands,Q55,http://www.wikidata.org/entity/Q126854570,Groeve Laumans (Tegelen),Mine,,
Poland,Q36,http://www.wikidata.org/entity/Q11743341,Q11743341,Mine,,
Poland,Q36,http://www.wikidata.org/entity/Q11743351,Q11743351,Mine,,
Poland,Q36,http://www.wikidata.org/entity/Q11743358,Q11743358,Mine,,
Poland,Q36,http://www.wikidata.org/entity/Q11743357,Q11743357,Mine,,
Poland,Q36,http://www.wikidata.org/entity/Q11743361,"Kopalnia Węgla Kamiennego ""Jastrzębie""",Mine,,
Poland,Q36,http://www.wikidata.org/entity/Q123384874,Q123384874,Mine,,
Poland,Q36,http://www.wikidata.org/entity/Q123406573,Q123406573,Mine,,
Poland,Q36,http://www.wikidata.org/entity/Q11755642,Liban quarry,Mine,,
Poland,Q36,http://www.wikidata.org/entity/Q11734377,Q11734377,Mine,,
Poland,Q36,http://www.wikidata.org/entity/Q16567764,Q16567764,Mine,,
Poland,Q36,http://www.wikidata.org/entity/Q11743336,Kopalnia Węgla Brunatnego Sieniawa,Mine,,
Poland,Q36,http://www.wikidata.org/entity/Q16896853,Mosty Coal Mine,Mine,,
Poland,Q36,http://www.wikidata.org/entity/Q5004641,Bytom Odrzański mine,Mine,,
Poland,Q36,http://www.wikidata.org/entity/Q5309847,Drzewce Coal Mine,Mine,,
Poland,Q36,http://www.wikidata.org/entity/Q5321123,Dęby Szlacheckie Coal Mine,Mine,,
Poland,Q36,http://www.wikidata.org/entity/Q5528475,Gaworzyce mine,Mine,,
Poland,Q36,http://www.wikidata.org/entity/Q5614450,Gubin Coal Mine,Mine,,
Poland,Q36,http://www.wikidata.org/entity/Q5627532,Głogów Głęboki-Przemysłowy mine,Mine,,
Poland,Q36,http://www.wikidata.org/entity/Q6321231,Jóźwin Coal Mine,Mine,,
Poland,Q36,http://www.wikidata.org/entity/Q6518512,Legnica Coal Mine,Mine,,
Poland,Q36,http://www.wikidata.org/entity/Q6949072,Myszków mine,Mine,,
Poland,Q36,http://www.wikidata.org/entity/Q7190325,Piaski Coal Mine,Mine,,
Poland,Q36,http://www.wikidata.org/entity/Q7316865,Retków mine,Mine,,
Poland,Q36,http://www.wikidata.org/entity/Q7664743,Szklary mine,Mine,,
Poland,Q36,http://www.wikidata.org/entity/Q7818973,Tomisławice Coal Mine,Mine,,
Poland,Q36,http://www.wikidata.org/entity/Q7848871,Trzcianka Coal Mine,Mine,,
Poland,Q36,http://www.wikidata.org/entity/Q9386302,Mines in Kowary,Mine,,
Poland,Q36,http://www.wikidata.org/entity/Q41868367,Wapno Salt Mine,Mine,,
Canada,Q16,http://www.wikidata.org/entity/Q7269788,Quebec Lithium Mine,Mine,,
Canada,Q16,http://www.wikidata.org/entity/Q131863976,Q131863976,Mine,,
Canada,Q16,http://www.wikidata.org/entity/Q131863992,Q131863992,Mine,,
Canada,Q16,http://www.wikidata.org/entity/Q16002268,Ajax mine,Mine,,
Canada,Q16,http://www.wikidata.org/entity/Q16252292,Aviat diamond mine,Mine,,
Canada,Q16,http://www.wikidata.org/entity/Q16254945,Blende mine,Mine,,
Canada,Q16,http://www.wikidata.org/entity/Q16910336,Nipissing Mine,Mine,,
Canada,Q16,http://www.wikidata.org/entity/Q16959132,Martison mine,Mine,,
Canada,Q16,http://www.wikidata.org/entity/Q16964271,Mar mine,Mine,,
Canada,Q16,http://www.wikidata.org/entity/Q16964231,Titan mine,Mine,,
Canada,Q16,http://www.wikidata.org/entity/Q16964449,Martinson mine,Mine,,
Canada,Q16,http://www.wikidata.org/entity/Q16964886,Lost Lemon Mine,Mine,,
Canada,Q16,http://www.wikidata.org/entity/Q16964982,Risby mine,Mine,,
Canada,Q16,http://www.wikidata.org/entity/Q16966081,Sheps-Perault Lake mine,Mine,,
Canada,Q16,http://www.wikidata.org/entity/Q16976654,James Bay mine,Mine,,
Canada,Q16,http://www.wikidata.org/entity/Q16976500,Thor Lake mine,Mine,,
Canada,Q16,http://www.wikidata.org/entity/Q16978003,Molybrook mine,Mine,,
Canada,Q16,http://www.wikidata.org/entity/Q16979180,Kudz Ze Kayah mine,Mine,,
Canada,Q16,http://www.wikidata.org/entity/Q17013628,Fire Tower Zone mine,Mine,,
Canada,Q16,http://www.wikidata.org/entity/Q17086686,Raven coal mine,Mine,,
Canada,Q16,http://www.wikidata.org/entity/Q26690066,Clover Hill deposit,Mine,,
Canada,Q16,http://www.wikidata.org/entity/Q26885214,Madoc area,Mine,,
Canada,Q16,http://www.wikidata.org/entity/Q28455538,Connolly's quarry,Mine,,
Canada,Q16,http://www.wikidata.org/entity/Q28648906,Mesamax Northwest deposit,Mine,,
Canada,Q16,http://www.wikidata.org/entity/Q28790874,Mayo ore district,Mine,,
Canada,Q16,http://www.wikidata.org/entity/Q28842448,Yarrow Creek-Spionkop Creek deposit,Mine,,
Canada,Q16,http://www.wikidata.org/entity/Q62127937,Lafarge Quarry,Mine,,
Canada,Q16,http://www.wikidata.org/entity/Q50380549,Tintina silver mines,Mine,,
Canada,Q16,http://www.wikidata.org/entity/Q50714858,Mattagami Lake mine,Mine,,
Canada,Q16,http://www.wikidata.org/entity/Q52309733,Robb-Montbray mine,Mine,,
Canada,Q16,http://www.wikidata.org/entity/Q16952270,Courageous Lake mine,Mine,,
Canada,Q16,http://www.wikidata.org/entity/Q16965510,Snowfield mine,Mine,,
Canada,Q16,http://www.wikidata.org/entity/Q16966409,Lost McLeod Mine,Mine,,
Canada,Q16,http://www.wikidata.org/entity/Q16969180,Red Lake Mine,Mine,,
Canada,Q16,http://www.wikidata.org/entity/Q5881437,Hollinger Mines,Mine,,
Canada,Q16,http://www.wikidata.org/entity/Q6801652,McIntyre Mines,Mine,,
Canada,Q16,http://www.wikidata.org/entity/Q131842973,Albert Freestone Quarries,Mine,,
Canada,Q16,http://www.wikidata.org/entity/Q131843012,Wallace Quarries,Mine,,
Canada,Q16,http://www.wikidata.org/entity/Q107535328,Meliadine Gold Mine,Mine,,
Canada,Q16,http://www.wikidata.org/entity/Q107599002,LaRonde mine,Mine,,
Canada,Q16,http://www.wikidata.org/entity/Q114498184,Bidgood Kirkland Gold Mines,Mine,,
Canada,Q16,http://www.wikidata.org/entity/Q115185632,Hollinger Consolidated Gold Mines,Mine,,
Canada,Q16,http://www.wikidata.org/entity/Q115257274,Laguna Gold Mines,Mine,,
Canada,Q16,http://www.wikidata.org/entity/Q115806029,Matachewan Consolidated mine,Mine,,
Canada,Q16,http://www.wikidata.org/entity/Q131842572,Q131842572,Mine,,
Canada,Q16,http://www.wikidata.org/entity/Q16965346,KéMag mine,Mine,,
Canada,Q16,http://www.wikidata.org/entity/Q16965431,LabMag mine,Mine,,
Canada,Q16,http://www.wikidata.org/entity/Q16965892,Lac Ritchie mine,Mine,,
Canada,Q16,http://www.wikidata.org/entity/Q16978063,Howells Lake-Howells River North mine,Mine,,
Canada,Q16,http://www.wikidata.org/entity/Q17045889,North Zone mine,Mine,,
Canada,Q16,http://www.wikidata.org/entity/Q7996383,Whitewood mine,Mine,,
Canada,Q16,http://www.wikidata.org/entity/Q132235683,Madsen Mine,Mine,,
Canada,Q16,http://www.wikidata.org/entity/Q124459768,Q124459768,Mine,,
Canada,Q16,http://www.wikidata.org/entity/Q125552184,Q125552184,Mine,,
Canada,Q16,http://www.wikidata.org/entity/Q131990758,Q131990758,Mine,,
Italy,Q38,http://www.wikidata.org/entity/Q113717530,Ruins of the graphite mine,Mine,,
Italy,Q38,http://www.wikidata.org/entity/Q122227311,Parco Museo Minerario delle miniere di zolfo delle Marche e dell'Emilia-Romagna,Mine,,
Italy,Q38,http://www.wikidata.org/entity/Q16607452,Q16607452,Mine,,
Italy,Q38,http://www.wikidata.org/entity/Q16607463,Q16607463,Mine,,
Italy,Q38,http://www.wikidata.org/entity/Q16607460,Q16607460,Mine,,
Italy,Q38,http://www.wikidata.org/entity/Q16607465,Q16607465,Mine,,
Italy,Q38,http://www.wikidata.org/entity/Q16607471,Q16607471,Mine,,
Italy,Q38,http://www.wikidata.org/entity/Q16607468,Q16607468,Mine,,
Italy,Q38,http://www.wikidata.org/entity/Q16607474,Q16607474,Mine,,
Italy,Q38,http://www.wikidata.org/entity/Q16607480,Q16607480,Mine,,
Italy,Q38,http://www.wikidata.org/entity/Q17624448,Q17624448,Mine,,
Italy,Q38,http://www.wikidata.org/entity/Q17636847,Q17636847,Mine,,
Italy,Q38,http://www.wikidata.org/entity/Q17636845,Q17636845,Mine,,
Italy,Q38,http://www.wikidata.org/entity/Q18289150,Q18289150,Mine,,
Italy,Q38,http://www.wikidata.org/entity/Q24938157,Q24938157,Mine,,
Italy,Q38,http://www.wikidata.org/entity/Q131564873,Quarries of Romano,Mine,,
Italy,Q38,http://www.wikidata.org/entity/Q24045386,Tavagnasco mines,Mine,,
Italy,Q38,http://www.wikidata.org/entity/Q24705154,Seravezza quarries,Mine,,
Italy,Q38,http://www.wikidata.org/entity/Q55378928,Q55378928,Mine,,
Italy,Q38,http://www.wikidata.org/entity/Q55378929,Q55378929,Mine,,
Italy,Q38,http://www.wikidata.org/entity/Q27510955,Gilba valley,Mine,,
Italy,Q38,http://www.wikidata.org/entity/Q28057256,Santa Barbara ore district,Mine,,
Italy,Q38,http://www.wikidata.org/entity/Q28649147,Case Parigi,Mine,,
Italy,Q38,http://www.wikidata.org/entity/Q28649135,Dora Maira coesite-bearing unit,Mine,,
Italy,Q38,http://www.wikidata.org/entity/Q130323250,Category:Latomia del Filosofo,Mine,,
Italy,Q38,http://www.wikidata.org/entity/Q29904446,Monte Trisa mines,Mine,,
Italy,Q38,http://www.wikidata.org/entity/Q29904448,Trentini mine,Mine,,
Italy,Q38,http://www.wikidata.org/entity/Q53561610,Q53561610,Mine,,
Italy,Q38,http://www.wikidata.org/entity/Q37630061,Cava de le Bore,Mine,,
Italy,Q38,http://www.wikidata.org/entity/Q98753139,Miniere di Spoleto,Mine,,
Italy,Q38,http://www.wikidata.org/entity/Q50204993,Bottino mine,Mine,,
Italy,Q38,http://www.wikidata.org/entity/Q56188441,Luserna stone quarries,Mine,,
Italy,Q38,http://www.wikidata.org/entity/Q56550352,caves of bardiglio of Aymavilles,Mine,,
Italy,Q38,http://www.wikidata.org/entity/Q16607165,Q16607165,Mine,,
Italy,Q38,http://www.wikidata.org/entity/Q16607168,Q16607168,Mine,,
Italy,Q38,http://www.wikidata.org/entity/Q16607174,Q16607174,Mine,,
Italy,Q38,http://www.wikidata.org/entity/Q16607182,Q16607182,Mine,,
Italy,Q38,http://www.wikidata.org/entity/Q16607185,Q16607185,Mine,,
Italy,Q38,http://www.wikidata.org/entity/Q16607191,Q16607191,Mine,,
Italy,Q38,http://www.wikidata.org/entity/Q16607188,Q16607188,Mine,,
Italy,Q38,http://www.wikidata.org/entity/Q16607194,Q16607194,Mine,,
Italy,Q38,http://www.wikidata.org/entity/Q16607199,Q16607199,Mine,,
Italy,Q38,http://www.wikidata.org/entity/Q16607196,Q16607196,Mine,,
Italy,Q38,http://www.wikidata.org/entity/Q16607202,Q16607202,Mine,,
Italy,Q38,http://www.wikidata.org/entity/Q16607205,Q16607205,Mine,,
Italy,Q38,http://www.wikidata.org/entity/Q16607211,Q16607211,Mine,,
Italy,Q38,http://www.wikidata.org/entity/Q16607208,Q16607208,Mine,,
Italy,Q38,http://www.wikidata.org/entity/Q16607214,Q16607214,Mine,,
Italy,Q38,http://www.wikidata.org/entity/Q16607223,Q16607223,Mine,,
Italy,Q38,http://www.wikidata.org/entity/Q16607220,Q16607220,Mine,,
Italy,Q38,http://www.wikidata.org/entity/Q16607226,Q16607226,Mine,,
Italy,Q38,http://www.wikidata.org/entity/Q16607229,Q16607229,Mine,,
Italy,Q38,http://www.wikidata.org/entity/Q16607235,Q16607235,Mine,,
Italy,Q38,http://www.wikidata.org/entity/Q16607232,Q16607232,Mine,,
Italy,Q38,http://www.wikidata.org/entity/Q16607238,Q16607238,Mine,,
Italy,Q38,http://www.wikidata.org/entity/Q16607241,Q16607241,Mine,,
Italy,Q38,http://www.wikidata.org/entity/Q16607247,Q16607247,Mine,,
Italy,Q38,http://www.wikidata.org/entity/Q16607244,Q16607244,Mine,,
Italy,Q38,http://www.wikidata.org/entity/Q16607250,Q16607250,Mine,,
Italy,Q38,http://www.wikidata.org/entity/Q16607253,Q16607253,Mine,,
Italy,Q38,http://www.wikidata.org/entity/Q16607259,Q16607259,Mine,,
Italy,Q38,http://www.wikidata.org/entity/Q16607256,Q16607256,Mine,,
Italy,Q38,http://www.wikidata.org/entity/Q16607265,Q16607265,Mine,,
Italy,Q38,http://www.wikidata.org/entity/Q16607271,Q16607271,Mine,,
Italy,Q38,http://www.wikidata.org/entity/Q16607269,Q16607269,Mine,,
Italy,Q38,http://www.wikidata.org/entity/Q16607279,Q16607279,Mine,,
Italy,Q38,http://www.wikidata.org/entity/Q16607276,Q16607276,Mine,,
Italy,Q38,http://www.wikidata.org/entity/Q16607282,Q16607282,Mine,,
Italy,Q38,http://www.wikidata.org/entity/Q16607285,Q16607285,Mine,,
Italy,Q38,http://www.wikidata.org/entity/Q16607290,Q16607290,Mine,,
Italy,Q38,http://www.wikidata.org/entity/Q16607288,Q16607288,Mine,,
Italy,Q38,http://www.wikidata.org/entity/Q16607293,Q16607293,Mine,,
Italy,Q38,http://www.wikidata.org/entity/Q16607298,Q16607298,Mine,,
Italy,Q38,http://www.wikidata.org/entity/Q16607296,Q16607296,Mine,,
Italy,Q38,http://www.wikidata.org/entity/Q16607301,Q16607301,Mine,,
Italy,Q38,http://www.wikidata.org/entity/Q16607307,Q16607307,Mine,,
Italy,Q38,http://www.wikidata.org/entity/Q16607311,Q16607311,Mine,,
Italy,Q38,http://www.wikidata.org/entity/Q16607314,Q16607314,Mine,,
Italy,Q38,http://www.wikidata.org/entity/Q16607319,Q16607319,Mine,,
Italy,Q38,http://www.wikidata.org/entity/Q16607316,Q16607316,Mine,,
Italy,Q38,http://www.wikidata.org/entity/Q16607322,Q16607322,Mine,,
Italy,Q38,http://www.wikidata.org/entity/Q16607325,Q16607325,Mine,,
Italy,Q38,http://www.wikidata.org/entity/Q16607331,Q16607331,Mine,,
Italy,Q38,http://www.wikidata.org/entity/Q16607328,Q16607328,Mine,,
Italy,Q38,http://www.wikidata.org/entity/Q16607334,Q16607334,Mine,,
Italy,Q38,http://www.wikidata.org/entity/Q16607337,Q16607337,Mine,,
Italy,Q38,http://www.wikidata.org/entity/Q16607343,Q16607343,Mine,,
Italy,Q38,http://www.wikidata.org/entity/Q16607340,Q16607340,Mine,,
Italy,Q38,http://www.wikidata.org/entity/Q16607345,Q16607345,Mine,,
Italy,Q38,http://www.wikidata.org/entity/Q16607350,Q16607350,Mine,,
Italy,Q38,http://www.wikidata.org/entity/Q16607348,Q16607348,Mine,,
Italy,Q38,http://www.wikidata.org/entity/Q16607359,Q16607359,Mine,,
Italy,Q38,http://www.wikidata.org/entity/Q16607356,Q16607356,Mine,,
Italy,Q38,http://www.wikidata.org/entity/Q16607362,Q16607362,Mine,,
Italy,Q38,http://www.wikidata.org/entity/Q16607365,Q16607365,Mine,,
Italy,Q38,http://www.wikidata.org/entity/Q16607370,Q16607370,Mine,,
Italy,Q38,http://www.wikidata.org/entity/Q16607368,Q16607368,Mine,,
Italy,Q38,http://www.wikidata.org/entity/Q16607373,Q16607373,Mine,,
Italy,Q38,http://www.wikidata.org/entity/Q16607379,Q16607379,Mine,,
Italy,Q38,http://www.wikidata.org/entity/Q16607377,Q16607377,Mine,,
Italy,Q38,http://www.wikidata.org/entity/Q16607382,Q16607382,Mine,,
Italy,Q38,http://www.wikidata.org/entity/Q16607390,Q16607390,Mine,,
Italy,Q38,http://www.wikidata.org/entity/Q16607395,Q16607395,Mine,,
Italy,Q38,http://www.wikidata.org/entity/Q16607393,Q16607393,Mine,,
Italy,Q38,http://www.wikidata.org/entity/Q16607398,Q16607398,Mine,,
Italy,Q38,http://www.wikidata.org/entity/Q16607401,Q16607401,Mine,,
Italy,Q38,http://www.wikidata.org/entity/Q16607406,Q16607406,Mine,,
Italy,Q38,http://www.wikidata.org/entity/Q16607409,Q16607409,Mine,,
Italy,Q38,http://www.wikidata.org/entity/Q16607415,Q16607415,Mine,,
Italy,Q38,http://www.wikidata.org/entity/Q16607412,Q16607412,Mine,,
Italy,Q38,http://www.wikidata.org/entity/Q16607418,Q16607418,Mine,,
Italy,Q38,http://www.wikidata.org/entity/Q16607421,Q16607421,Mine,,
Italy,Q38,http://www.wikidata.org/entity/Q16607427,Q16607427,Mine,,
Italy,Q38,http://www.wikidata.org/entity/Q16607424,Q16607424,Mine,,
Italy,Q38,http://www.wikidata.org/entity/Q16607434,Q16607434,Mine,,
Italy,Q38,http://www.wikidata.org/entity/Q16607432,Q16607432,Mine,,
Italy,Q38,http://www.wikidata.org/entity/Q16607443,Q16607443,Mine,,
Italy,Q38,http://www.wikidata.org/entity/Q16607440,Q16607440,Mine,,
Italy,Q38,http://www.wikidata.org/entity/Q16607446,Q16607446,Mine,,
Italy,Q38,http://www.wikidata.org/entity/Q16607449,Q16607449,Mine,,
South Africa,Q258,http://www.wikidata.org/entity/Q50840300,Atok mine,Mine,,
South Africa,Q258,http://www.wikidata.org/entity/Q16252554,Bafokeng mine,Mine,,
South Africa,Q258,http://www.wikidata.org/entity/Q16255005,Blyvooruitzicht mine,Mine,,
South Africa,Q258,http://www.wikidata.org/entity/Q16255085,Bokoni mine,Mine,,
South Africa,Q258,http://www.wikidata.org/entity/Q16255767,Buffelsfontein uranium mine,Mine,,
South Africa,Q258,http://www.wikidata.org/entity/Q16255891,Burnstone mine,Mine,,
South Africa,Q258,http://www.wikidata.org/entity/Q16963085,Gloria mine,Mine,,
South Africa,Q258,http://www.wikidata.org/entity/Q16964985,Xolobeni mine,Mine,,
South Africa,Q258,http://www.wikidata.org/entity/Q16966084,Ergo mine,Mine,,
South Africa,Q258,http://www.wikidata.org/entity/Q16966167,Kloof mine,Mine,,
South Africa,Q258,http://www.wikidata.org/entity/Q16967631,Leeuwpan coal mine,Mine,,
South Africa,Q258,http://www.wikidata.org/entity/Q16968393,Dominion mine,Mine,,
South Africa,Q258,http://www.wikidata.org/entity/Q16968414,Rietkuil mine,Mine,,
South Africa,Q258,http://www.wikidata.org/entity/Q16968722,Mintails mine,Mine,,
South Africa,Q258,http://www.wikidata.org/entity/Q16969105,Beisa North mine,Mine,,
South Africa,Q258,http://www.wikidata.org/entity/Q16969192,Denny Dalton mine,Mine,,
South Africa,Q258,http://www.wikidata.org/entity/Q16968898,West Wits mine,Mine,,
South Africa,Q258,http://www.wikidata.org/entity/Q16969319,Beaufort West mine,Mine,,
South Africa,Q258,http://www.wikidata.org/entity/Q16969033,Vaal River mine,Mine,,
South Africa,Q258,http://www.wikidata.org/entity/Q16969134,Randfontein mine,Mine,,
South Africa,Q258,http://www.wikidata.org/entity/Q16969360,Moab Khotsong mine,Mine,,
South Africa,Q258,http://www.wikidata.org/entity/Q16976211,Matla coal mine,Mine,,
South Africa,Q258,http://www.wikidata.org/entity/Q16980187,Nkomati mine,Mine,,
South Africa,Q258,http://www.wikidata.org/entity/Q16989514,Thaba mine,Mine,,
South Africa,Q258,http://www.wikidata.org/entity/Q16999170,Dwarsrivier mine,Mine,,
South Africa,Q258,http://www.wikidata.org/entity/Q16999536,Inkosi mine,Mine,,
South Africa,Q258,http://www.wikidata.org/entity/Q16999553,Impala mine,Mine,,
South Africa,Q258,http://www.wikidata.org/entity/Q16999707,Dishaba mine,Mine,,
South Africa,Q258,http://www.wikidata.org/entity/Q16999805,Middelplaats mine,Mine,,
South Africa,Q258,http://www.wikidata.org/entity/Q16999748,Tamboti mine,Mine,,
South Africa,Q258,http://www.wikidata.org/entity/Q17000099,Twickenham mine,Mine,,
South Africa,Q258,http://www.wikidata.org/entity/Q17000257,Mogalakwena mine,Mine,,
South Africa,Q258,http://www.wikidata.org/entity/Q17000256,Tumela mine,Mine,,
South Africa,Q258,http://www.wikidata.org/entity/Q17029458,Imbasa mine,Mine,,
South Africa,Q258,http://www.wikidata.org/entity/Q17030947,Union North mine,Mine,,
South Africa,Q258,http://www.wikidata.org/entity/Q17038228,Pandora mine,Mine,,
South Africa,Q258,http://www.wikidata.org/entity/Q17042075,Kroondal mine,Mine,,
South Africa,Q258,http://www.wikidata.org/entity/Q17042381,Khomanani mine,Mine,,
South Africa,Q258,http://www.wikidata.org/entity/Q17042520,Khuseleka mine,Mine,,
South Africa,Q258,http://www.wikidata.org/entity/Q17042941,Thembelani mine,Mine,,
South Africa,Q258,http://www.wikidata.org/entity/Q17043046,Siphumelele mine,Mine,,
South Africa,Q258,http://www.wikidata.org/entity/Q17069606,Modikwa mine,Mine,,
South Africa,Q258,http://www.wikidata.org/entity/Q17080723,Old Randfontein mine,Mine,,
South Africa,Q258,http://www.wikidata.org/entity/Q17082846,Two Rivers mine,Mine,,
South Africa,Q258,http://www.wikidata.org/entity/Q123106867,Eersteling gold mine,Mine,,
South Africa,Q258,http://www.wikidata.org/entity/Q101439013,"Modderfontein Deep Levels, Ltd.",Mine,,
Japan,Q17,http://www.wikidata.org/entity/Q10926088,Q10926088,Mine,,
Japan,Q17,http://www.wikidata.org/entity/Q11419104,Q11419104,Mine,,
Japan,Q17,http://www.wikidata.org/entity/Q11594819,Q11594819,Mine,,
Japan,Q17,http://www.wikidata.org/entity/Q11621954,Q11621954,Mine,,
Japan,Q17,http://www.wikidata.org/entity/Q11596173,Chichibu Mine,Mine,,
Japan,Q17,http://www.wikidata.org/entity/Q114955984,Q114955984,Mine,,
Japan,Q17,http://www.wikidata.org/entity/Q109362343,Kitadaitō phosphate mine,Mine,,
Japan,Q17,http://www.wikidata.org/entity/Q122254942,Q122254942,Mine,,
Japan,Q17,http://www.wikidata.org/entity/Q131932025,Q131932025,Mine,,
Japan,Q17,http://www.wikidata.org/entity/Q122355792,Hōnoki gold mine,Mine,,
Japan,Q17,http://www.wikidata.org/entity/Q3270659,Q3270659,Mine,,
Japan,Q17,http://www.wikidata.org/entity/Q85876299,Izu gold mines,Mine,,
Japan,Q17,http://www.wikidata.org/entity/Q85879614,Taishū Mine,Mine,,
Japan,Q17,http://www.wikidata.org/entity/Q127947880,Aikawa mine,Mine,,
Japan,Q17,http://www.wikidata.org/entity/Q11462703,Q11462703,Mine,,
Japan,Q17,http://www.wikidata.org/entity/Q11614779,Q11614779,Mine,,
Japan,Q17,http://www.wikidata.org/entity/Q22130345,Q22130345,Mine,,
Japan,Q17,http://www.wikidata.org/entity/Q11430198,Yūbari Coal Mine,Mine,,
Japan,Q17,http://www.wikidata.org/entity/Q11441888,Ōsu silver mine,Mine,,
Japan,Q17,http://www.wikidata.org/entity/Q11449675,Ube Coal Mine,Mine,,
Japan,Q17,http://www.wikidata.org/entity/Q11458272,Tsushima Silver Mine,Mine,,
Japan,Q17,http://www.wikidata.org/entity/Q97184044,Ponbetsu Coal Mine,Mine,,
Japan,Q17,http://www.wikidata.org/entity/Q11675923,Tsurushi silver mine,Mine,,
Japan,Q17,http://www.wikidata.org/entity/Q3270716,Coalfield Rumoi,Mine,,
Japan,Q17,http://www.wikidata.org/entity/Q4414599,Amakusa coalfield,Mine,,
Japan,Q17,http://www.wikidata.org/entity/Q6070040,Iriomote Coal Mine,Mine,,
Japan,Q17,http://www.wikidata.org/entity/Q24570697,"Unnamed manganese deposit, Shobu",Mine,,
Japan,Q17,http://www.wikidata.org/entity/Q26954688,Tanohata mine,Mine,,
Japan,Q17,http://www.wikidata.org/entity/Q28059753,Taguchi mine,Mine,,
Japan,Q17,http://www.wikidata.org/entity/Q28656615,Kasuga mine,Mine,,
Japan,Q17,http://www.wikidata.org/entity/Q28791699,"Horoman mine, Horoman peridotite body",Mine,,
Japan,Q17,http://www.wikidata.org/entity/Q29379442,Omine Coal Mine,Mine,,
Japan,Q17,http://www.wikidata.org/entity/Q48745439,Kokurobe mine,Mine,,
Japan,Q17,http://www.wikidata.org/entity/Q56674314,Gozaisho mine,Mine,,
Japan,Q17,http://www.wikidata.org/entity/Q56674406,Teine mine,Mine,,
Japan,Q17,http://www.wikidata.org/entity/Q99484649,Q99484649,Mine,,
Japan,Q17,http://www.wikidata.org/entity/Q109368304,Q109368304,Mine,,
Japan,Q17,http://www.wikidata.org/entity/Q106239562,Stone Quarries for Edo Castle,Mine,,
Finland,Q33,http://www.wikidata.org/entity/Q124341438,Q124341438,Mine,,
Finland,Q33,http://www.wikidata.org/entity/Q76847558,Vittinki iron mines,Mine,,
Finland,Q33,http://www.wikidata.org/entity/Q11880056,Q11880056,Mine,,
Finland,Q33,http://www.wikidata.org/entity/Q11886914,Q11886914,Mine,,
Finland,Q33,http://www.wikidata.org/entity/Q11888327,Q11888327,Mine,,
Finland,Q33,http://www.wikidata.org/entity/Q11891500,Q11891500,Mine,,
Finland,Q33,http://www.wikidata.org/entity/Q18660889,Q18660889,Mine,,
Finland,Q33,http://www.wikidata.org/entity/Q18682099,Q18682099,Mine,,
Finland,Q33,http://www.wikidata.org/entity/Q18691501,Q18691501,Mine,,
Finland,Q33,http://www.wikidata.org/entity/Q15890253,Juomasuo mine,Mine,,
Finland,Q33,http://www.wikidata.org/entity/Q16002123,Ahmavaara mine,Mine,,
Finland,Q33,http://www.wikidata.org/entity/Q16965115,Koivu mine,Mine,,
Finland,Q33,http://www.wikidata.org/entity/Q16968934,Kolari mine,Mine,,
Finland,Q33,http://www.wikidata.org/entity/Q17047269,Konttijärvi mine,Mine,,
Finland,Q33,http://www.wikidata.org/entity/Q17048079,Portimo mine,Mine,,
Finland,Q33,http://www.wikidata.org/entity/Q18691227,Juvakaisenmaa,Mine,,
Finland,Q33,http://www.wikidata.org/entity/Q47219616,Q47219616,Mine,,
Finland,Q33,http://www.wikidata.org/entity/Q53751364,Viitaniemi granite pegmatite,Mine,,
People's Republic of China,Q148,http://www.wikidata.org/entity/Q54849008,Anduo chromium deposit,Mine,,
People's Republic of China,Q148,http://www.wikidata.org/entity/Q56272077,Ping Shan Quarry,Mine,,
People's Republic of China,Q148,http://www.wikidata.org/entity/Q107481450,Yichun Luming mine,Mine,,
People's Republic of China,Q148,http://www.wikidata.org/entity/Q10879127,Four Hills of Kowloon,Mine,,
People's Republic of China,Q148,http://www.wikidata.org/entity/Q97164917,Fushun Coal Mine,Mine,,
People's Republic of China,Q148,http://www.wikidata.org/entity/Q16252869,Baizhiyan mine,Mine,,
People's Republic of China,Q148,http://www.wikidata.org/entity/Q16253245,Baoguosi mine,Mine,,
People's Republic of China,Q148,http://www.wikidata.org/entity/Q16254299,Benxi mine,Mine,,
People's Republic of China,Q148,http://www.wikidata.org/entity/Q16256058,Caijiaying mine,Mine,,
People's Republic of China,Q148,http://www.wikidata.org/entity/Q16941828,Wengquangou mine,Mine,,
People's Republic of China,Q148,http://www.wikidata.org/entity/Q109347836,Western Open-pit Coal Mine,Mine,,
People's Republic of China,Q148,http://www.wikidata.org/entity/Q16963798,Hushan mine,Mine,,
People's Republic of China,Q148,http://www.wikidata.org/entity/Q16964050,Pingdu mine,Mine,,
People's Republic of China,Q148,http://www.wikidata.org/entity/Q16964367,Jinling mine,Mine,,
People's Republic of China,Q148,http://www.wikidata.org/entity/Q16964232,Tadong mine,Mine,,
People's Republic of China,Q148,http://www.wikidata.org/entity/Q16964891,Sumoqagan mine,Mine,,
People's Republic of China,Q148,http://www.wikidata.org/entity/Q16965073,Wafangzi mine,Mine,,
People's Republic of China,Q148,http://www.wikidata.org/entity/Q16965625,Damiao mine,Mine,,
People's Republic of China,Q148,http://www.wikidata.org/entity/Q16965654,Pangjiapu mine,Mine,,
People's Republic of China,Q148,http://www.wikidata.org/entity/Q16965953,Yuanjiachun mine,Mine,,
People's Republic of China,Q148,http://www.wikidata.org/entity/Q16966024,Wuenduermiao mine,Mine,,
People's Republic of China,Q148,http://www.wikidata.org/entity/Q16966185,Nanping mine,Mine,,
People's Republic of China,Q148,http://www.wikidata.org/entity/Q16966079,Yichun mine,Mine,,
People's Republic of China,Q148,http://www.wikidata.org/entity/Q16966241,Taoxikeng mine,Mine,,
People's Republic of China,Q148,http://www.wikidata.org/entity/Q16966216,Zhalanzhangzhi mine,Mine,,
People's Republic of China,Q148,http://www.wikidata.org/entity/Q16968350,Liumao mine,Mine,,
People's Republic of China,Q148,http://www.wikidata.org/entity/Q16968836,Huanren mine,Mine,,
People's Republic of China,Q148,http://www.wikidata.org/entity/Q16968965,Hongtoushan mine,Mine,,
People's Republic of China,Q148,http://www.wikidata.org/entity/Q16969031,Tongliao mine,Mine,,
People's Republic of China,Q148,http://www.wikidata.org/entity/Q16969231,Shuichang mine,Mine,,
People's Republic of China,Q148,http://www.wikidata.org/entity/Q16969233,Sijiaying mine,Mine,,
People's Republic of China,Q148,http://www.wikidata.org/entity/Q16975852,Gongchangling mine,Mine,,
People's Republic of China,Q148,http://www.wikidata.org/entity/Q16976567,Tianbaoshan mine,Mine,,
People's Republic of China,Q148,http://www.wikidata.org/entity/Q16977054,Huogeqi mine,Mine,,
People's Republic of China,Q148,http://www.wikidata.org/entity/Q16977683,Quingchengzi mine,Mine,,
People's Republic of China,Q148,http://www.wikidata.org/entity/Q16979253,Yangjiazhangzi mine,Mine,,
People's Republic of China,Q148,http://www.wikidata.org/entity/Q16980069,Kalatongke mine,Mine,,
People's Republic of China,Q148,http://www.wikidata.org/entity/Q23901287,Xianghualing Sn-polymetallic ore field,Mine,,
People's Republic of China,Q148,http://www.wikidata.org/entity/Q28125720,Zhongshangou gold deposit,Mine,,
People's Republic of China,Q148,http://www.wikidata.org/entity/Q29053388,Weishancheng ore field,Mine,,
People's Republic of China,Q148,http://www.wikidata.org/entity/Q29588506,Qitianling complex,Mine,,
People's Republic of China,Q148,http://www.wikidata.org/entity/Q8838275,Cha Kwo Ling Kaolin Mine,Mine,,
Ukraine,Q212,http://www.wikidata.org/entity/Q124813734,Burtynske mine,Mine,,
Ukraine,Q212,http://www.wikidata.org/entity/Q4098297,Q4098297,Mine,,
Ukraine,Q212,http://www.wikidata.org/entity/Q4323379,Q4323379,Mine,,
Ukraine,Q212,http://www.wikidata.org/entity/Q4323377,Q4323377,Mine,,
Ukraine,Q212,http://www.wikidata.org/entity/Q4323380,Q4323380,Mine,,
Ukraine,Q212,http://www.wikidata.org/entity/Q4323381,Q4323381,Mine,,
Ukraine,Q212,http://www.wikidata.org/entity/Q4412052,Q4412052,Mine,,
Ukraine,Q212,http://www.wikidata.org/entity/Q4521402,Q4521402,Mine,,
Ukraine,Q212,http://www.wikidata.org/entity/Q11743423,Q11743423,Mine,,
Ukraine,Q212,http://www.wikidata.org/entity/Q12171235,Q12171235,Mine,,
Ukraine,Q212,http://www.wikidata.org/entity/Q12171272,Q12171272,Mine,,
Ukraine,Q212,http://www.wikidata.org/entity/Q12171304,Q12171304,Mine,,
Ukraine,Q212,http://www.wikidata.org/entity/Q12171336,Q12171336,Mine,,
Ukraine,Q212,http://www.wikidata.org/entity/Q139962,Molodohvardiiska coal mine,Mine,,
Ukraine,Q212,http://www.wikidata.org/entity/Q97369581,Quarry in Cherepashyntsi,Mine,,
Ukraine,Q212,http://www.wikidata.org/entity/Q11774732,Zhovtnevyi Rudnyk coal mine,Mine,,
Ukraine,Q212,http://www.wikidata.org/entity/Q12171239,Krasnokutska coal mine,Mine,,
Ukraine,Q212,http://www.wikidata.org/entity/Q12171290,Tsentralna Coal Mine,Mine,,
Ukraine,Q212,http://www.wikidata.org/entity/Q16255623,Brovarkovskoye mine,Mine,,
Ukraine,Q212,http://www.wikidata.org/entity/Q16969391,Manuilovskoye mine,Mine,,
Ukraine,Q212,http://www.wikidata.org/entity/Q16969254,Zarudenskoye mine,Mine,,
Ukraine,Q212,http://www.wikidata.org/entity/Q16969389,Vasilievskoye mine,Mine,,
Ukraine,Q212,http://www.wikidata.org/entity/Q16975818,Kharchenkovskoye mine,Mine,,
Ukraine,Q212,http://www.wikidata.org/entity/Q16976563,Gorishne mine,Mine,,
Ukraine,Q212,http://www.wikidata.org/entity/Q16978168,Ingulets mine,Mine,,
Ukraine,Q212,http://www.wikidata.org/entity/Q16999705,Shymanivske mine,Mine,,
Ukraine,Q212,http://www.wikidata.org/entity/Q17562765,Valli-Tarama,Mine,,
Ukraine,Q212,http://www.wikidata.org/entity/Q4082671,Bilorichenska coal mine,Mine,,
Ukraine,Q212,http://www.wikidata.org/entity/Q4521388,Yuzhnodonbasskaya 1 coal mine,Mine,,
Ukraine,Q212,http://www.wikidata.org/entity/Q4884643,Belozerskaya Coal Mine,Mine,,
Ukraine,Q212,http://www.wikidata.org/entity/Q4913659,Bilytska coal mine,Mine,,
Ukraine,Q212,http://www.wikidata.org/entity/Q5771688,Hirske coal mine,Mine,,
Ukraine,Q212,http://www.wikidata.org/entity/Q5884064,Holodnaya Balka Coal Mine,Mine,,
Ukraine,Q212,http://www.wikidata.org/entity/Q6415964,Kirov coal mine,Mine,,
Ukraine,Q212,http://www.wikidata.org/entity/Q51374621,Q51374621,Mine,,
Ukraine,Q212,http://www.wikidata.org/entity/Q7943953,Vynnitskaya coal mine,Mine,,
Ukraine,Q212,http://www.wikidata.org/entity/Q60175166,Q60175166,Mine,,
Ukraine,Q212,http://www.wikidata.org/entity/Q8049801,Yasinovskaya-Glubokaya coal mine,Mine,,
Ukraine,Q212,http://www.wikidata.org/entity/Q8070649,Zhdanovskaya coal mine,Mine,,
Ukraine,Q212,http://www.wikidata.org/entity/Q8075463,Zuyevskaya coal mine,Mine,,
Ukraine,Q212,http://www.wikidata.org/entity/Q104841924,Berehove mine,Mine,,
Ukraine,Q212,http://www.wikidata.org/entity/Q130046737,Q130046737,Mine,,
Ukraine,Q212,http://www.wikidata.org/entity/Q4164815,Q4164815,Mine,,
Ukraine,Q212,http://www.wikidata.org/entity/Q4169999,Q4169999,Mine,,
Ukraine,Q212,http://www.wikidata.org/entity/Q4200227,Q4200227,Mine,,
Ukraine,Q212,http://www.wikidata.org/entity/Q4230172,Q4230172,Mine,,
Ukraine,Q212,http://www.wikidata.org/entity/Q4236668,Q4236668,Mine,,
Ukraine,Q212,http://www.wikidata.org/entity/Q4447213,Q4447213,Mine,,
Ukraine,Q212,http://www.wikidata.org/entity/Q4521386,Q4521386,Mine,,
Ukraine,Q212,http://www.wikidata.org/entity/Q4521400,Q4521400,Mine,,
Ukraine,Q212,http://www.wikidata.org/entity/Q4521401,Q4521401,Mine,,
Ukraine,Q212,http://www.wikidata.org/entity/Q4521404,Q4521404,Mine,,
Ukraine,Q212,http://www.wikidata.org/entity/Q12171218,Q12171218,Mine,,
Ukraine,Q212,http://www.wikidata.org/entity/Q12171219,Q12171219,Mine,,
Ukraine,Q212,http://www.wikidata.org/entity/Q12171222,Q12171222,Mine,,
Ukraine,Q212,http://www.wikidata.org/entity/Q12171221,Q12171221,Mine,,
Ukraine,Q212,http://www.wikidata.org/entity/Q12171230,Q12171230,Mine,,
Ukraine,Q212,http://www.wikidata.org/entity/Q12171228,Q12171228,Mine,,
Ukraine,Q212,http://www.wikidata.org/entity/Q12171233,Q12171233,Mine,,
Ukraine,Q212,http://www.wikidata.org/entity/Q12171236,Q12171236,Mine,,
Ukraine,Q212,http://www.wikidata.org/entity/Q12171242,Q12171242,Mine,,
Ukraine,Q212,http://www.wikidata.org/entity/Q12171241,Q12171241,Mine,,
Ukraine,Q212,http://www.wikidata.org/entity/Q12171247,Q12171247,Mine,,
Ukraine,Q212,http://www.wikidata.org/entity/Q12171244,Q12171244,Mine,,
Ukraine,Q212,http://www.wikidata.org/entity/Q12171251,Q12171251,Mine,,
Ukraine,Q212,http://www.wikidata.org/entity/Q12171254,Q12171254,Mine,,
Ukraine,Q212,http://www.wikidata.org/entity/Q12171255,Q12171255,Mine,,
Ukraine,Q212,http://www.wikidata.org/entity/Q12171258,Q12171258,Mine,,
Ukraine,Q212,http://www.wikidata.org/entity/Q12171256,Q12171256,Mine,,
Ukraine,Q212,http://www.wikidata.org/entity/Q12171257,Q12171257,Mine,,
Ukraine,Q212,http://www.wikidata.org/entity/Q12171262,Q12171262,Mine,,
Ukraine,Q212,http://www.wikidata.org/entity/Q12171260,Q12171260,Mine,,
Ukraine,Q212,http://www.wikidata.org/entity/Q12171267,Q12171267,Mine,,
Ukraine,Q212,http://www.wikidata.org/entity/Q12171264,Q12171264,Mine,,
Ukraine,Q212,http://www.wikidata.org/entity/Q12171271,Q12171271,Mine,,
Ukraine,Q212,http://www.wikidata.org/entity/Q12171274,Q12171274,Mine,,
Ukraine,Q212,http://www.wikidata.org/entity/Q12171275,Q12171275,Mine,,
Ukraine,Q212,http://www.wikidata.org/entity/Q12171278,Q12171278,Mine,,
Ukraine,Q212,http://www.wikidata.org/entity/Q12171282,Q12171282,Mine,,
Ukraine,Q212,http://www.wikidata.org/entity/Q12171281,Q12171281,Mine,,
Ukraine,Q212,http://www.wikidata.org/entity/Q12171287,Q12171287,Mine,,
Ukraine,Q212,http://www.wikidata.org/entity/Q12171288,Q12171288,Mine,,
Ukraine,Q212,http://www.wikidata.org/entity/Q12171293,Q12171293,Mine,,
Ukraine,Q212,http://www.wikidata.org/entity/Q12171298,Q12171298,Mine,,
Ukraine,Q212,http://www.wikidata.org/entity/Q12171299,Q12171299,Mine,,
Ukraine,Q212,http://www.wikidata.org/entity/Q12171310,Q12171310,Mine,,
Ukraine,Q212,http://www.wikidata.org/entity/Q12171314,Q12171314,Mine,,
Ukraine,Q212,http://www.wikidata.org/entity/Q12171315,Q12171315,Mine,,
Ukraine,Q212,http://www.wikidata.org/entity/Q12171313,Q12171313,Mine,,
Ukraine,Q212,http://www.wikidata.org/entity/Q12171318,Q12171318,Mine,,
Ukraine,Q212,http://www.wikidata.org/entity/Q12171321,Q12171321,Mine,,
Ukraine,Q212,http://www.wikidata.org/entity/Q12171326,Q12171326,Mine,,
Ukraine,Q212,http://www.wikidata.org/entity/Q12171327,Q12171327,Mine,,
Ukraine,Q212,http://www.wikidata.org/entity/Q12171331,Q12171331,Mine,,
Ukraine,Q212,http://www.wikidata.org/entity/Q12171334,Q12171334,Mine,,
Ukraine,Q212,http://www.wikidata.org/entity/Q12171335,Q12171335,Mine,,
Ukraine,Q212,http://www.wikidata.org/entity/Q12171332,Q12171332,Mine,,
Ukraine,Q212,http://www.wikidata.org/entity/Q12171269,Severnaya coal mine,Mine,,
Ukraine,Q212,http://www.wikidata.org/entity/Q12171284,Udarnik coal mine,Mine,,
Ukraine,Q212,http://www.wikidata.org/entity/Q4521389,Yuzhnodonbasskaya 3 coal mine,Mine,,
Ukraine,Q212,http://www.wikidata.org/entity/Q5436621,Faschivska coal mine,Mine,,
Ukraine,Q212,http://www.wikidata.org/entity/Q122516364,Q122516364,Mine,,
Ukraine,Q212,http://www.wikidata.org/entity/Q132742294,Q132742294,Mine,,
Bolivia,Q750,http://www.wikidata.org/entity/Q14156716,Malku Khota mine,Mine,,
Bolivia,Q750,http://www.wikidata.org/entity/Q16258715,Colquiri tin mine,Mine,,
Bolivia,Q750,http://www.wikidata.org/entity/Q16965145,San Vicente mine,Mine,,
Bolivia,Q750,http://www.wikidata.org/entity/Q16968901,Pando mine,Mine,,
Bolivia,Q750,http://www.wikidata.org/entity/Q5172078,Corocoro United Copper Mines,Mine,,
Bolivia,Q750,http://www.wikidata.org/entity/Q24378745,Chocaya-Animas mines,Mine,,
Bolivia,Q750,http://www.wikidata.org/entity/Q16976179,San Bartolomé mine,Mine,,
Bolivia,Q750,http://www.wikidata.org/entity/Q16976568,Salar de Uyuni mine,Mine,,
Bolivia,Q750,http://www.wikidata.org/entity/Q16990324,El Mutún mine,Mine,,
Sweden,Q34,http://www.wikidata.org/entity/Q125809802,Q125809802,Mine,,
Sweden,Q34,http://www.wikidata.org/entity/Q125809805,Q125809805,Mine,,
Sweden,Q34,http://www.wikidata.org/entity/Q125809810,Q125809810,Mine,,
Sweden,Q34,http://www.wikidata.org/entity/Q125809811,Q125809811,Mine,,
Sweden,Q34,http://www.wikidata.org/entity/Q125809819,Q125809819,Mine,,
Sweden,Q34,http://www.wikidata.org/entity/Q125809823,Q125809823,Mine,,
Sweden,Q34,http://www.wikidata.org/entity/Q125809821,Q125809821,Mine,,
Sweden,Q34,http://www.wikidata.org/entity/Q125809824,Q125809824,Mine,,
Sweden,Q34,http://www.wikidata.org/entity/Q125809830,Q125809830,Mine,,
Sweden,Q34,http://www.wikidata.org/entity/Q125809838,Q125809838,Mine,,
Sweden,Q34,http://www.wikidata.org/entity/Q125809840,Q125809840,Mine,,
Sweden,Q34,http://www.wikidata.org/entity/Q130219798,Q130219798,Mine,,
Sweden,Q34,http://www.wikidata.org/entity/Q130219806,Q130219806,Mine,,
Sweden,Q34,http://www.wikidata.org/entity/Q124156986,Hässelkulla gruvor,Mine,,
Sweden,Q34,http://www.wikidata.org/entity/Q10544611,Q10544611,Mine,,
Sweden,Q34,http://www.wikidata.org/entity/Q10547951,Q10547951,Mine,,
Sweden,Q34,http://www.wikidata.org/entity/Q10552040,Q10552040,Mine,,
Sweden,Q34,http://www.wikidata.org/entity/Q10727735,Q10727735,Mine,,
Sweden,Q34,http://www.wikidata.org/entity/Q10406787,Alsgruvan,Mine,,
Sweden,Q34,http://www.wikidata.org/entity/Q10428587,Bergsäng,Mine,,
Sweden,Q34,http://www.wikidata.org/entity/Q10725530,Ädelfors guldgruva,Mine,,
Sweden,Q34,http://www.wikidata.org/entity/Q10725627,Älgsjöbackens gruva,Mine,,
Sweden,Q34,http://www.wikidata.org/entity/Q10727786,Östanmossa mine,Mine,,
Sweden,Q34,http://www.wikidata.org/entity/Q18290263,Q18290263,Mine,,
Sweden,Q34,http://www.wikidata.org/entity/Q18332969,Q18332969,Mine,,
Sweden,Q34,http://www.wikidata.org/entity/Q18816532,Q18816532,Mine,,
Sweden,Q34,http://www.wikidata.org/entity/Q19978082,Q19978082,Mine,,
Sweden,Q34,http://www.wikidata.org/entity/Q29159322,Q29159322,Mine,,
Sweden,Q34,http://www.wikidata.org/entity/Q4851577,Ballek,Mine,,
Sweden,Q34,http://www.wikidata.org/entity/Q16969101,Woxna mine,Mine,,
Sweden,Q34,http://www.wikidata.org/entity/Q16999491,Rönnbäcken mine,Mine,,
Sweden,Q34,http://www.wikidata.org/entity/Q6936727,Munka mine,Mine,,
Sweden,Q34,http://www.wikidata.org/entity/Q7380177,Ruoutevare mine,Mine,,
Sweden,Q34,http://www.wikidata.org/entity/Q26984998,"Kitteln mine,  Nordmark Odal field",Mine,,
Sweden,Q34,http://www.wikidata.org/entity/Q26985029,Nordmark Odal field,Mine,,
Sweden,Q34,http://www.wikidata.org/entity/Q28656610,Skrikerum mine,Mine,,
Sweden,Q34,http://www.wikidata.org/entity/Q65197264,Q65197264,Mine,,
Sweden,Q34,http://www.wikidata.org/entity/Q18291139,Q18291139,Mine,,
Sweden,Q34,http://www.wikidata.org/entity/Q49098686,Knaperhälls gruva,Mine,,
Sweden,Q34,http://www.wikidata.org/entity/Q49098888,Bredsjönäsgruvorna,Mine,,
Sweden,Q34,http://www.wikidata.org/entity/Q49288663,Åskagen quarry,Mine,,
Sweden,Q34,http://www.wikidata.org/entity/Q110793819,Q110793819,Mine,,
Sweden,Q34,http://www.wikidata.org/entity/Q107273557,"Blå lagunen, Gotland",Mine,,
Sweden,Q34,http://www.wikidata.org/entity/Q114641924,Q114641924,Mine,,
Sweden,Q34,http://www.wikidata.org/entity/Q108312607,Kristineberg Zn-Cu mine,Mine,,
Argentina,Q414,http://www.wikidata.org/entity/Q16976719,Salinas Grandes mine,Mine,,
Argentina,Q414,http://www.wikidata.org/entity/Q16999581,Los Azules mine,Mine,,
Argentina,Q414,http://www.wikidata.org/entity/Q14905549,Huemul mine,Mine,,
Argentina,Q414,http://www.wikidata.org/entity/Q16963952,Pirquitas mine,Mine,,
Argentina,Q414,http://www.wikidata.org/entity/Q16964446,Navidad mine,Mine,,
Argentina,Q414,http://www.wikidata.org/entity/Q16965651,Diablillos mine,Mine,,
Argentina,Q414,http://www.wikidata.org/entity/Q27070704,Pirquitas Ag-Sn deposit,Mine,,
Argentina,Q414,http://www.wikidata.org/entity/Q108837500,La Mejicana Mine,Mine,,
Taiwan,Q865,http://www.wikidata.org/entity/Q16976412,Jinguashi Mine,Mine,,
Austria,Q40,http://www.wikidata.org/entity/Q819399,Q819399,Mine,,
Austria,Q40,http://www.wikidata.org/entity/Q1263461,Kaolinbergbau Mallersbach,Mine,,
Austria,Q40,http://www.wikidata.org/entity/Q45374036,Q45374036,Mine,,
Austria,Q40,http://www.wikidata.org/entity/Q26885373,Erzwies area,Mine,,
Austria,Q40,http://www.wikidata.org/entity/Q27070645,"Western ore field, scheelite deposit",Mine,,
Austria,Q40,http://www.wikidata.org/entity/Q28125628,Schwarzleograben,Mine,,
Austria,Q40,http://www.wikidata.org/entity/Q100278852,Q100278852,Mine,,
Austria,Q40,http://www.wikidata.org/entity/Q108810786,Q108810786,Mine,,
Austria,Q40,http://www.wikidata.org/entity/Q105659211,Pingenfeld Kristbergsattel,Mine,,
Austria,Q40,http://www.wikidata.org/entity/Q110597394,Q110597394,Mine,,
Austria,Q40,http://www.wikidata.org/entity/Q113375593,Q113375593,Mine,,
Austria,Q40,http://www.wikidata.org/entity/Q118434711,Q118434711,Mine,,
Democratic Republic of the Congo,Q974,http://www.wikidata.org/entity/Q16977333,Sintoukola mine,Mine,,
Democratic Republic of the Congo,Q974,http://www.wikidata.org/entity/Q16977902,Zanaga mine,Mine,,
Democratic Republic of the Congo,Q974,http://www.wikidata.org/entity/Q29654925,Kamoja mine,Mine,,
India,Q668,http://www.wikidata.org/entity/Q17005405,Bayyaram Mines,Mine,,
India,Q668,http://www.wikidata.org/entity/Q4858439,Bararee Colliery,Mine,,
India,Q668,http://www.wikidata.org/entity/Q6480527,Lalmatia Colliery,Mine,,
India,Q668,http://www.wikidata.org/entity/Q7290068,Rampura Agucha,Mine,,
India,Q668,http://www.wikidata.org/entity/Q7371927,Rowghat Mines,Mine,,
India,Q668,http://www.wikidata.org/entity/Q65052452,Govindpur Area,Mine,,
India,Q668,http://www.wikidata.org/entity/Q65052438,Pootkee Balihari Area,Mine,,
India,Q668,http://www.wikidata.org/entity/Q65052446,Western Jharia Area,Mine,,
India,Q668,http://www.wikidata.org/entity/Q65052726,Katras Area,Mine,,
India,Q668,http://www.wikidata.org/entity/Q65052730,Sijua Area,Mine,,
India,Q668,http://www.wikidata.org/entity/Q65053148,Kusunda Area,Mine,,
India,Q668,http://www.wikidata.org/entity/Q65053307,Eastern Jharia Area,Mine,,
India,Q668,http://www.wikidata.org/entity/Q65089593,Lodna Area,Mine,,
India,Q668,http://www.wikidata.org/entity/Q107210112,Turamdih Uranium Mine,Mine,,
India,Q668,http://www.wikidata.org/entity/Q107271728,Alampara Iron Ore Mine,Mine,,
Brazil,Q155,http://www.wikidata.org/entity/Q12103143,Diamantine diamond field,Mine,,
Brazil,Q155,http://www.wikidata.org/entity/Q16252444,Azul mine,Mine,,
Brazil,Q155,http://www.wikidata.org/entity/Q16257703,Chapada mine,Mine,,
Brazil,Q155,http://www.wikidata.org/entity/Q16965377,Jacobina mine,Mine,,
Brazil,Q155,http://www.wikidata.org/entity/Q16978138,Currais Novos mine,Mine,,
Brazil,Q155,http://www.wikidata.org/entity/Q6863215,Minas-Rio,Mine,,
Brazil,Q155,http://www.wikidata.org/entity/Q26813697,Tripuí,Mine,,
Brazil,Q155,http://www.wikidata.org/entity/Q27070699,Serra Branca pegmatite,Mine,,
Brazil,Q155,http://www.wikidata.org/entity/Q57809061,São Luiz river alluvials,Mine,,
Brazil,Q155,http://www.wikidata.org/entity/Q68094013,Pedra Preta pit,Mine,,
Romania,Q218,http://www.wikidata.org/entity/Q12740344,Ocna Mureș mine,Mine,,
Romania,Q218,http://www.wikidata.org/entity/Q16207935,Bozovici coal mine,Mine,,
Romania,Q218,http://www.wikidata.org/entity/Q16252849,Baia de Aramă mine,Mine,,
Romania,Q218,http://www.wikidata.org/entity/Q16253043,Bălțătești mine,Mine,,
Romania,Q218,http://www.wikidata.org/entity/Q16255925,Bustuchin Coal Mine,Mine,,
Romania,Q218,http://www.wikidata.org/entity/Q16256035,Cacova Ierii mine,Mine,,
Romania,Q218,http://www.wikidata.org/entity/Q16256952,Ceptura Coal Mine,Mine,,
Romania,Q218,http://www.wikidata.org/entity/Q16854163,Rudăria coal mine,Mine,,
Romania,Q218,http://www.wikidata.org/entity/Q16854165,Rudăria-Bănia mine,Mine,,
Romania,Q218,http://www.wikidata.org/entity/Q16964561,Derna mine,Mine,,
Romania,Q218,http://www.wikidata.org/entity/Q16973865,Ditrău mine,Mine,,
Romania,Q218,http://www.wikidata.org/entity/Q16974231,Dubova mine,Mine,,
Romania,Q218,http://www.wikidata.org/entity/Q16977712,Gârliște mine,Mine,,
Romania,Q218,http://www.wikidata.org/entity/Q16978523,Ogra mine,Mine,,
Romania,Q218,http://www.wikidata.org/entity/Q16978896,Gurasada mine,Mine,,
Romania,Q218,http://www.wikidata.org/entity/Q16979658,Sasca Montană mine,Mine,,
Romania,Q218,http://www.wikidata.org/entity/Q16981085,Folești mine,Mine,,
Romania,Q218,http://www.wikidata.org/entity/Q16981499,Frumoasa-Tazlău mine,Mine,,
Romania,Q218,http://www.wikidata.org/entity/Q16981641,Gârcina mine,Mine,,
Romania,Q218,http://www.wikidata.org/entity/Q16987779,Jabenița mine,Mine,,
Romania,Q218,http://www.wikidata.org/entity/Q16991539,Ocna Sibiului mine,Mine,,
Romania,Q218,http://www.wikidata.org/entity/Q16995842,Sările-Bisoca mine,Mine,,
Romania,Q218,http://www.wikidata.org/entity/Q16999189,Sărata mine,Mine,,
Romania,Q218,http://www.wikidata.org/entity/Q16999756,Sărmășag Coal Mine,Mine,,
Romania,Q218,http://www.wikidata.org/entity/Q17000117,Pralea Coal Mine,Mine,,
Romania,Q218,http://www.wikidata.org/entity/Q17000185,Șaru Dornei mine,Mine,,
Romania,Q218,http://www.wikidata.org/entity/Q17027324,Paltin-Nistorești mine,Mine,,
Romania,Q218,http://www.wikidata.org/entity/Q17027406,Moldova Nouă mine,Mine,,
Romania,Q218,http://www.wikidata.org/entity/Q17027519,Leșu Ursului mine,Mine,,
Romania,Q218,http://www.wikidata.org/entity/Q17038231,Valea Vinului mine,Mine,,
Romania,Q218,http://www.wikidata.org/entity/Q17042865,Vulcan Coal Mine,Mine,,
Romania,Q218,http://www.wikidata.org/entity/Q17043039,Lueta mine,Mine,,
Romania,Q218,http://www.wikidata.org/entity/Q4737064,Altân Tepe mine,Mine,,
Romania,Q218,http://www.wikidata.org/entity/Q4765222,Anina Mine,Mine,,
Romania,Q218,http://www.wikidata.org/entity/Q4891081,Berbești Coal Mine,Mine,,
Romania,Q218,http://www.wikidata.org/entity/Q4985188,Budureasa mine,Mine,,
Romania,Q218,http://www.wikidata.org/entity/Q5005370,Băișoara mine,Mine,,
Romania,Q218,http://www.wikidata.org/entity/Q5005432,Bărbăteni Coal Mine,Mine,,
Romania,Q218,http://www.wikidata.org/entity/Q5157886,Comănești Coal Mine,Mine,,
Romania,Q218,http://www.wikidata.org/entity/Q5202382,Câmpulung Coal Mine,Mine,,
Romania,Q218,http://www.wikidata.org/entity/Q5202883,Căpeni Coal Mine,Mine,,
Romania,Q218,http://www.wikidata.org/entity/Q5253995,Delinești mine,Mine,,
Romania,Q218,http://www.wikidata.org/entity/Q5286715,Dobrești mine,Mine,,
Romania,Q218,http://www.wikidata.org/entity/Q5288394,Dognecea mine,Mine,,
Romania,Q218,http://www.wikidata.org/entity/Q5448567,Filipești Coal Mine,Mine,,
Romania,Q218,http://www.wikidata.org/entity/Q5511780,Făget mine,Mine,,
Romania,Q218,http://www.wikidata.org/entity/Q5556179,Ghelari mine,Mine,,
Romania,Q218,http://www.wikidata.org/entity/Q5571106,Globurău mine,Mine,,
Romania,Q218,http://www.wikidata.org/entity/Q5980308,Iacobeni mine,Mine,,
Romania,Q218,http://www.wikidata.org/entity/Q6193234,Jilț Coal Mine,Mine,,
Romania,Q218,http://www.wikidata.org/entity/Q23755428,Alburnus Maior,Mine,,
Romania,Q218,http://www.wikidata.org/entity/Q6658796,Livezeni Coal Mine,Mine,,
Romania,Q218,http://www.wikidata.org/entity/Q6671524,Lonea Coal Mine,Mine,,
Romania,Q218,http://www.wikidata.org/entity/Q6704693,Lupeni Coal Mine,Mine,,
Romania,Q218,http://www.wikidata.org/entity/Q6918589,Motru Coal Mine,Mine,,
Romania,Q218,http://www.wikidata.org/entity/Q6935642,Muncelu Mic mine,Mine,,
Romania,Q218,http://www.wikidata.org/entity/Q7076568,Ocna de Fier mine,Mine,,
Romania,Q218,http://www.wikidata.org/entity/Q7099978,Orașu Nou mine,Mine,,
Romania,Q218,http://www.wikidata.org/entity/Q7178761,Petrești mine,Mine,,
Romania,Q218,http://www.wikidata.org/entity/Q7178814,Petrila Coal Mine,Mine,,
Romania,Q218,http://www.wikidata.org/entity/Q7242954,Prigoria Coal Mine,Mine,,
Romania,Q218,http://www.wikidata.org/entity/Q7371722,Rovinari Coal Mine,Mine,,
Romania,Q218,http://www.wikidata.org/entity/Q7375485,Roșia – Peșteana Coal Mine,Mine,,
Romania,Q218,http://www.wikidata.org/entity/Q7375532,Roșia Montană Project,Mine,,
Romania,Q218,http://www.wikidata.org/entity/Q7386847,Răzoare mine,Mine,,
Romania,Q218,http://www.wikidata.org/entity/Q7697341,Teliuc mine,Mine,,
Romania,Q218,http://www.wikidata.org/entity/Q7701811,Teregova mine,Mine,,
Romania,Q218,http://www.wikidata.org/entity/Q28726102,Petrila mine,Mine,,
Romania,Q218,http://www.wikidata.org/entity/Q7900574,Uricani Coal Mine,Mine,,
Romania,Q218,http://www.wikidata.org/entity/Q7909608,Valea Blaznei mine,Mine,,
Romania,Q218,http://www.wikidata.org/entity/Q7909708,Valea Chioarului mine,Mine,,
Romania,Q218,http://www.wikidata.org/entity/Q7939815,Voivozi Coal Mine,Mine,,
Romania,Q218,http://www.wikidata.org/entity/Q8082567,Șotânga Coal Mine,Mine,,
Romania,Q218,http://www.wikidata.org/entity/Q8082940,Țebea Coal Mine,Mine,,
Morocco,Q1028,http://www.wikidata.org/entity/Q56676242,Angarf-South pegmatite,Mine,,
Morocco,Q1028,http://www.wikidata.org/entity/Q106629687,Bou Skour Mine,Mine,,
Turkey,Q43,http://www.wikidata.org/entity/Q21696206,Q21696206,Mine,,
Turkey,Q43,http://www.wikidata.org/entity/Q21696687,Q21696687,Mine,,
Turkey,Q43,http://www.wikidata.org/entity/Q21697228,Q21697228,Mine,,
Turkey,Q43,http://www.wikidata.org/entity/Q16002015,Afşin-C coal mine,Mine,,
Turkey,Q43,http://www.wikidata.org/entity/Q16002019,Afşin-E coal mine,Mine,,
Turkey,Q43,http://www.wikidata.org/entity/Q16002017,Afşin-D coal mine,Mine,,
Turkey,Q43,http://www.wikidata.org/entity/Q16251758,Armutçuk coal mine,Mine,,
Turkey,Q43,http://www.wikidata.org/entity/Q16256069,Cevizlidere mine,Mine,,
Turkey,Q43,http://www.wikidata.org/entity/Q16258699,Collolar coal mine,Mine,,
Turkey,Q43,http://www.wikidata.org/entity/Q16827283,Bigadiç mine,Mine,,
Turkey,Q43,http://www.wikidata.org/entity/Q16834934,Deniş coal mine,Mine,,
Turkey,Q43,http://www.wikidata.org/entity/Q16837106,Ereğli coal mine,Mine,,
Turkey,Q43,http://www.wikidata.org/entity/Q16841259,Gümüşköy mine,Mine,,
Turkey,Q43,http://www.wikidata.org/entity/Q16852311,Karadon coal mine,Mine,,
Turkey,Q43,http://www.wikidata.org/entity/Q16852339,Karapınar coal mine,Mine,,
Turkey,Q43,http://www.wikidata.org/entity/Q16947725,Emet mine,Mine,,
Turkey,Q43,http://www.wikidata.org/entity/Q16958962,Kişladağ mine,Mine,,
Turkey,Q43,http://www.wikidata.org/entity/Q16959210,Kozlu coal mine,Mine,,
Turkey,Q43,http://www.wikidata.org/entity/Q16959758,Üzülmez coal mine,Mine,,
Turkey,Q43,http://www.wikidata.org/entity/Q16961925,Seydişehir mine,Mine,,
Turkey,Q43,http://www.wikidata.org/entity/Q4818250,Attepe mine,Mine,,
Turkey,Q43,http://www.wikidata.org/entity/Q4829084,Avnik mine,Mine,,
Turkey,Q43,http://www.wikidata.org/entity/Q5211983,Damar mine,Mine,,
Turkey,Q43,http://www.wikidata.org/entity/Q5284687,Divriği A-Kafa mine,Mine,,
Turkey,Q43,http://www.wikidata.org/entity/Q5284688,Divriği B-Kafa mine,Mine,,
Turkey,Q43,http://www.wikidata.org/entity/Q6374695,Kasrık mine,Mine,,
Turkey,Q43,http://www.wikidata.org/entity/Q6395082,Kesikköprü mine,Mine,,
Turkey,Q43,http://www.wikidata.org/entity/Q6938476,Murgul mine,Mine,,
Turkey,Q43,http://www.wikidata.org/entity/Q7102181,Orhaneli mine,Mine,,
Turkey,Q43,http://www.wikidata.org/entity/Q7809175,Tirebolu mine,Mine,,
Turkey,Q43,http://www.wikidata.org/entity/Q7880800,Ulukent mine,Mine,,
Turkey,Q43,http://www.wikidata.org/entity/Q8077592,Çayeli mine,Mine,,
Turkey,Q43,http://www.wikidata.org/entity/Q60745269,Silopi asphaltite mine,Mine,,
Turkey,Q43,http://www.wikidata.org/entity/Q118874850,Tunçbilek coal mine,Mine,,
Saudi Arabia,Q851,http://www.wikidata.org/entity/Q28715790,Q28715790,Mine,,
Saudi Arabia,Q851,http://www.wikidata.org/entity/Q16967665,Wadi Sawawin mine,Mine,,
Saudi Arabia,Q851,http://www.wikidata.org/entity/Q16976336,Ghurayyah mine,Mine,,
Saudi Arabia,Q851,http://www.wikidata.org/entity/Q110993892,Q110993892,Mine,,
Saudi Arabia,Q851,http://www.wikidata.org/entity/Q110993908,Q110993908,Mine,,
Saudi Arabia,Q851,http://www.wikidata.org/entity/Q110993909,Q110993909,Mine,,
Belgium,Q31,http://www.wikidata.org/entity/Q2374387,Q2374387,Mine,,
Belgium,Q31,http://www.wikidata.org/entity/Q13647916,Q13647916,Mine,,
Belgium,Q31,http://www.wikidata.org/entity/Q92165281,Q92165281,Mine,,
Belgium,Q31,http://www.wikidata.org/entity/Q13216978,Tawire,Mine,,
Belgium,Q31,http://www.wikidata.org/entity/Q18654930,Charbonnages de Marihaye,Mine,,
Estonia,Q191,http://www.wikidata.org/entity/Q31272063,Jõepera Quarry,Mine,,
Estonia,Q191,http://www.wikidata.org/entity/Q31272066,Valdeku Quarry,Mine,,
Estonia,Q191,http://www.wikidata.org/entity/Q16412873,Piusa sand deposit,Mine,,
Estonia,Q191,http://www.wikidata.org/entity/Q61393362,Sibula Quarry,Mine,,
Algeria,Q262,http://www.wikidata.org/entity/Q133748543,Oued Keddache Mine,Mine,,
Algeria,Q262,http://www.wikidata.org/entity/Q16209072,Betita mine,Mine,,
Algeria,Q262,http://www.wikidata.org/entity/Q16969005,Kef Snoun mine,Mine,,
Algeria,Q262,http://www.wikidata.org/entity/Q16969191,Djemi Djema mine,Mine,,
Algeria,Q262,http://www.wikidata.org/entity/Q16977370,Tala Hamza mine,Mine,,
New Zealand,Q664,http://www.wikidata.org/entity/Q131313079,Blackwater Mine,Mine,,
New Zealand,Q664,http://www.wikidata.org/entity/Q130643817,Reefton,Mine,,
New Zealand,Q664,http://www.wikidata.org/entity/Q130643818,Golden Bar Mine,Mine,,
New Zealand,Q664,http://www.wikidata.org/entity/Q130680210,Woodstock Mine,Mine,,
New Zealand,Q664,http://www.wikidata.org/entity/Q130643813,Big River Mine,Mine,,
New Zealand,Q664,http://www.wikidata.org/entity/Q130643815,Broken Hills Mine,Mine,,
New Zealand,Q664,http://www.wikidata.org/entity/Q130680209,Talisman Mine,Mine,,
New Zealand,Q664,http://www.wikidata.org/entity/Q130643816,Wharekirauponga mining area,Mine,,
New Zealand,Q664,http://www.wikidata.org/entity/Q130643820,Komata Reefs Mine,Mine,,
New Zealand,Q664,http://www.wikidata.org/entity/Q130643821,Tokatea Mine,Mine,,
New Zealand,Q664,http://www.wikidata.org/entity/Q130680211,Kapanga Mine,Mine,,
New Zealand,Q664,http://www.wikidata.org/entity/Q130680212,Shotover Mine,Mine,,
New Zealand,Q664,http://www.wikidata.org/entity/Q131312974,Globe Progress Mine,Mine,,
New Zealand,Q664,http://www.wikidata.org/entity/Q130643814,Blackwater,Mine,,
New Zealand,Q664,http://www.wikidata.org/entity/Q120679496,Dobson Mine,Mine,,
New Zealand,Q664,http://www.wikidata.org/entity/Q120808659,Bendigo Goldfields,Mine,,
Mongolia,Q711,http://www.wikidata.org/entity/Q16251923,Asgat mine,Mine,,
Mongolia,Q711,http://www.wikidata.org/entity/Q16964049,Saihangol mine,Mine,,
Mongolia,Q711,http://www.wikidata.org/entity/Q16965118,Hubsugui mine,Mine,,
Mongolia,Q711,http://www.wikidata.org/entity/Q16964895,Ulaan Tolgoi mine,Mine,,
Mongolia,Q711,http://www.wikidata.org/entity/Q16965763,Haraat mine,Mine,,
Mongolia,Q711,http://www.wikidata.org/entity/Q16965987,Oortsog Ovoo mine,Mine,,
Mongolia,Q711,http://www.wikidata.org/entity/Q16966082,Mankhan Uul mine,Mine,,
Mongolia,Q711,http://www.wikidata.org/entity/Q16966165,Ongilog Lake mine,Mine,,
Mongolia,Q711,http://www.wikidata.org/entity/Q16968433,Erds coal mine,Mine,,
Mongolia,Q711,http://www.wikidata.org/entity/Q16976565,Halzan Buregtei mine,Mine,,
Mongolia,Q711,http://www.wikidata.org/entity/Q16995979,Ulaan mine,Mine,,
Mongolia,Q711,http://www.wikidata.org/entity/Q16999117,Zuun Mod mine,Mine,,
Mongolia,Q711,http://www.wikidata.org/entity/Q73468537,Tsairt Mineral LLC,Mine,,
Philippines,Q928,http://www.wikidata.org/entity/Q124691986,Carmen Copper Mine,Mine,,
Philippines,Q928,http://www.wikidata.org/entity/Q125631483,Amacan,Mine,,
Philippines,Q928,http://www.wikidata.org/entity/Q125631510,Hijo,Mine,,
Philippines,Q928,http://www.wikidata.org/entity/Q125631482,Masara,Mine,,
Philippines,Q928,http://www.wikidata.org/entity/Q125631481,Panaraon,Mine,,
Philippines,Q928,http://www.wikidata.org/entity/Q16977948,Tampakan mine,Mine,,
Philippines,Q928,http://www.wikidata.org/entity/Q6741267,Malangas Coal Reservation,Mine,,
Kazakhstan,Q232,http://www.wikidata.org/entity/Q12565379,Q12565379,Mine,,
Kazakhstan,Q232,http://www.wikidata.org/entity/Q16431659,Q16431659,Mine,,
Kazakhstan,Q232,http://www.wikidata.org/entity/Q12544306,Dzhezkazgan copper deposit,Mine,,
Kazakhstan,Q232,http://www.wikidata.org/entity/Q16965284,Kyzyl mine,Mine,,
Kazakhstan,Q232,http://www.wikidata.org/entity/Q16965285,Suzdal mine,Mine,,
Kazakhstan,Q232,http://www.wikidata.org/entity/Q16966214,Varvara mine,Mine,,
Kazakhstan,Q232,http://www.wikidata.org/entity/Q16976315,Voskhod mine,Mine,,
Kazakhstan,Q232,http://www.wikidata.org/entity/Q16976459,Shevchenko mine,Mine,,
Kazakhstan,Q232,http://www.wikidata.org/entity/Q19859028,Koksay,Mine,,
Kazakhstan,Q232,http://www.wikidata.org/entity/Q25230729,Aktogay Mine,Mine,,
Kazakhstan,Q232,http://www.wikidata.org/entity/Q28059721,Maikain gold deposit,Mine,,
Kazakhstan,Q232,http://www.wikidata.org/entity/Q28771261,Novodneprovskoe deposit,Mine,,
Kazakhstan,Q232,http://www.wikidata.org/entity/Q890399,Bogatyr Access Komir,Mine,,
Egypt,Q79,http://www.wikidata.org/entity/Q123908961,mines of Kosser,Mine,,
Egypt,Q79,http://www.wikidata.org/entity/Q14202629,Quarries at the west bank of Aswan,Mine,,
Egypt,Q79,http://www.wikidata.org/entity/Q14202633,Quarries at the east bank of Aswan,Mine,,
Egypt,Q79,http://www.wikidata.org/entity/Q16976011,El Nuweiba mine,Mine,,
Egypt,Q79,http://www.wikidata.org/entity/Q16975879,Umm Naggat mine,Mine,,
Egypt,Q79,http://www.wikidata.org/entity/Q108566232,Umm Bugma Mines,Mine,,
Kyrgyzstan,Q813,http://www.wikidata.org/entity/Q13165819,Q13165819,Mine,,
Kyrgyzstan,Q813,http://www.wikidata.org/entity/Q13169028,Q13169028,Mine,,
Kyrgyzstan,Q813,http://www.wikidata.org/entity/Q13169678,Q13169678,Mine,,
Kyrgyzstan,Q813,http://www.wikidata.org/entity/Q13170201,Q13170201,Mine,,
Kyrgyzstan,Q813,http://www.wikidata.org/entity/Q13170282,Q13170282,Mine,,
Kyrgyzstan,Q813,http://www.wikidata.org/entity/Q13172263,Q13172263,Mine,,
Kyrgyzstan,Q813,http://www.wikidata.org/entity/Q13173608,Q13173608,Mine,,
Kyrgyzstan,Q813,http://www.wikidata.org/entity/Q13174415,Q13174415,Mine,,
Kyrgyzstan,Q813,http://www.wikidata.org/entity/Q20619431,Q20619431,Mine,,
Kyrgyzstan,Q813,http://www.wikidata.org/entity/Q20627171,Q20627171,Mine,,
Kyrgyzstan,Q813,http://www.wikidata.org/entity/Q20628723,Q20628723,Mine,,
Kyrgyzstan,Q813,http://www.wikidata.org/entity/Q25578228,Q25578228,Mine,,
Kyrgyzstan,Q813,http://www.wikidata.org/entity/Q25578244,Q25578244,Mine,,
Kyrgyzstan,Q813,http://www.wikidata.org/entity/Q25579576,Q25579576,Mine,,
Kyrgyzstan,Q813,http://www.wikidata.org/entity/Q25579577,Q25579577,Mine,,
Kyrgyzstan,Q813,http://www.wikidata.org/entity/Q25579580,Q25579580,Mine,,
Kyrgyzstan,Q813,http://www.wikidata.org/entity/Q25579598,Q25579598,Mine,,
Kyrgyzstan,Q813,http://www.wikidata.org/entity/Q25584590,Q25584590,Mine,,
Kyrgyzstan,Q813,http://www.wikidata.org/entity/Q25600079,Q25600079,Mine,,
Kyrgyzstan,Q813,http://www.wikidata.org/entity/Q25600165,Q25600165,Mine,,
Kyrgyzstan,Q813,http://www.wikidata.org/entity/Q25600186,Q25600186,Mine,,
Kyrgyzstan,Q813,http://www.wikidata.org/entity/Q25600188,Q25600188,Mine,,
Kyrgyzstan,Q813,http://www.wikidata.org/entity/Q25600193,Q25600193,Mine,,
Kyrgyzstan,Q813,http://www.wikidata.org/entity/Q25600231,Q25600231,Mine,,
Kyrgyzstan,Q813,http://www.wikidata.org/entity/Q25600257,Q25600257,Mine,,
Kyrgyzstan,Q813,http://www.wikidata.org/entity/Q25600273,Q25600273,Mine,,
Kyrgyzstan,Q813,http://www.wikidata.org/entity/Q25600326,Q25600326,Mine,,
Kyrgyzstan,Q813,http://www.wikidata.org/entity/Q25600336,Q25600336,Mine,,
Kyrgyzstan,Q813,http://www.wikidata.org/entity/Q31444944,Q31444944,Mine,,
Kyrgyzstan,Q813,http://www.wikidata.org/entity/Q16965490,Kalesay mine,Mine,,
Kyrgyzstan,Q813,http://www.wikidata.org/entity/Q16965761,Unkurtash mine,Mine,,
Kyrgyzstan,Q813,http://www.wikidata.org/entity/Q16965828,Talas mine,Mine,,
Indonesia,Q252,http://www.wikidata.org/entity/Q28725400,Q28725400,Mine,,
Indonesia,Q252,http://www.wikidata.org/entity/Q16254214,Bengalon coal mine,Mine,,
Indonesia,Q252,http://www.wikidata.org/entity/Q16254510,Beutong mine,Mine,,
Indonesia,Q252,http://www.wikidata.org/entity/Q16255812,Buli mine,Mine,,
Indonesia,Q252,http://www.wikidata.org/entity/Q16256747,Cempaka diamond mine,Mine,,
Indonesia,Q252,http://www.wikidata.org/entity/Q16963352,Kelian mine,Mine,,
Indonesia,Q252,http://www.wikidata.org/entity/Q16964112,Sambarata coal mine,Mine,,
Indonesia,Q252,http://www.wikidata.org/entity/Q16964862,Wara coal mine,Mine,,
Indonesia,Q252,http://www.wikidata.org/entity/Q16964987,Tayan mine,Mine,,
Indonesia,Q252,http://www.wikidata.org/entity/Q16965075,Pasir coal mine,Mine,,
Indonesia,Q252,http://www.wikidata.org/entity/Q16965195,Tutupan coal mine,Mine,,
Indonesia,Q252,http://www.wikidata.org/entity/Q16965352,Paringin coal mine,Mine,,
Indonesia,Q252,http://www.wikidata.org/entity/Q16965731,Peranap coal mine,Mine,,
Indonesia,Q252,http://www.wikidata.org/entity/Q16965858,Kencana mine,Mine,,
Indonesia,Q252,http://www.wikidata.org/entity/Q16969457,Kendawangan mine,Mine,,
Indonesia,Q252,http://www.wikidata.org/entity/Q16975823,Tanjung Enim coal mine,Mine,,
Indonesia,Q252,http://www.wikidata.org/entity/Q16976138,East Kutai coal mine,Mine,,
Indonesia,Q252,http://www.wikidata.org/entity/Q16976316,Konawe Utara mine,Mine,,
Indonesia,Q252,http://www.wikidata.org/entity/Q16977024,GAM coal mine,Mine,,
Indonesia,Q252,http://www.wikidata.org/entity/Q16977197,North Konawe mine,Mine,,
Indonesia,Q252,http://www.wikidata.org/entity/Q16978113,Halmahera mine,Mine,,
Indonesia,Q252,http://www.wikidata.org/entity/Q17052638,Lati coal mine,Mine,,
Switzerland,Q39,http://www.wikidata.org/entity/Q27012565,Starlera mine,Mine,,
Portugal,Q45,http://www.wikidata.org/entity/Q9833275,Q9833275,Mine,,
Portugal,Q45,http://www.wikidata.org/entity/Q10330233,Minas de Paredes,Mine,,
Portugal,Q45,http://www.wikidata.org/entity/Q16977236,Mua mine,Mine,,
Portugal,Q45,http://www.wikidata.org/entity/Q16977791,Tabuaço mine,Mine,,
Portugal,Q45,http://www.wikidata.org/entity/Q89601750,Q89601750,Mine,,
Portugal,Q45,http://www.wikidata.org/entity/Q131275836,Q131275836,Mine,,
Pakistan,Q843,http://www.wikidata.org/entity/Q16959161,Kohat mine,Mine,,
Pakistan,Q843,http://www.wikidata.org/entity/Q16963348,Khewra mine,Mine,,
Pakistan,Q843,http://www.wikidata.org/entity/Q16963501,Dadukhel mine,Mine,,
Pakistan,Q843,http://www.wikidata.org/entity/Q16963349,Mawand mine,Mine,,
Pakistan,Q843,http://www.wikidata.org/entity/Q16963687,Dera Ismail Khan mine,Mine,,
Pakistan,Q843,http://www.wikidata.org/entity/Q16963618,Rakhi-Munh mine,Mine,,
Pakistan,Q843,http://www.wikidata.org/entity/Q16963804,Ongar coal mine,Mine,,
Pakistan,Q843,http://www.wikidata.org/entity/Q16963956,Lakhra coal mine,Mine,,
Pakistan,Q843,http://www.wikidata.org/entity/Q16964022,Jhimpir coal mine,Mine,,
Pakistan,Q843,http://www.wikidata.org/entity/Q16964051,Sonalba coal mine,Mine,,
Pakistan,Q843,http://www.wikidata.org/entity/Q16964202,Jherruck coal mine,Mine,,
Pakistan,Q843,http://www.wikidata.org/entity/Q16964409,Indus East coal mine,Mine,,
Pakistan,Q843,http://www.wikidata.org/entity/Q16964535,Saleh Jo Tar coal mine,Mine,,
Pakistan,Q843,http://www.wikidata.org/entity/Q16964860,Sonda-Thatta coal mine,Mine,,
Pakistan,Q843,http://www.wikidata.org/entity/Q16965194,Singharo Bhitro coal mine,Mine,,
Pakistan,Q843,http://www.wikidata.org/entity/Q16965629,Sinhar Vikian Varvai coal mine,Mine,,
Pakistan,Q843,http://www.wikidata.org/entity/Q16965769,Salt Range coal mine,Mine,,
Pakistan,Q843,http://www.wikidata.org/entity/Q16976186,Kumhar mine,Mine,,
Austria-Hungary,Q28513,http://www.wikidata.org/entity/Q19601827,Q19601827,Mine,,
Austria-Hungary,Q28513,http://www.wikidata.org/entity/Q19601941,Q19601941,Mine,,
Austria-Hungary,Q28513,http://www.wikidata.org/entity/Q19602488,Q19602488,Mine,,
Austria-Hungary,Q28513,http://www.wikidata.org/entity/Q19602712,Q19602712,Mine,,
Angola,Q916,http://www.wikidata.org/entity/Q16256151,Camafuca diamond mine,Mine,,
Angola,Q916,http://www.wikidata.org/entity/Q16256608,Cassinga mine,Mine,,
Colombia,Q739,http://www.wikidata.org/entity/Q23007996,Nemocón Salt Mine,Mine,,
Colombia,Q739,http://www.wikidata.org/entity/Q106464803,Q106464803,Mine,,
Colombia,Q739,http://www.wikidata.org/entity/Q106080498,Frontino Gold Mines,Mine,,
South Korea,Q884,http://www.wikidata.org/entity/Q12621928,Pocheon Art Valley,Mine,,
Namibia,Q1030,http://www.wikidata.org/entity/Q16775689,Marenica mine,Mine,,
Namibia,Q1030,http://www.wikidata.org/entity/Q16969514,Inca mine,Mine,,
Namibia,Q1030,http://www.wikidata.org/entity/Q16975965,Etango mine,Mine,,
Namibia,Q1030,http://www.wikidata.org/entity/Q16976041,Aussinanis mine,Mine,,
Namibia,Q1030,http://www.wikidata.org/entity/Q16975877,Ongalo mine,Mine,,
Namibia,Q1030,http://www.wikidata.org/entity/Q16975876,Trekkopje mine,Mine,,
Namibia,Q1030,http://www.wikidata.org/entity/Q16977084,Tubas Red Sand mine,Mine,,
Namibia,Q1030,http://www.wikidata.org/entity/Q28002268,Mesopotamia mine,Mine,,
Namibia,Q1030,http://www.wikidata.org/entity/Q108920284,Otjikoto gold mine,Mine,,
Libya,Q1016,http://www.wikidata.org/entity/Q16964108,Shati Valley mine,Mine,,
Libya,Q1016,http://www.wikidata.org/entity/Q130680213,As Saddada,Mine,,
Libya,Q1016,http://www.wikidata.org/entity/Q104713431,Taucheira: Quarry West 1,Mine,,
Libya,Q1016,http://www.wikidata.org/entity/Q104713450,Taucheira: Quarry West 3,Mine,,
Libya,Q1016,http://www.wikidata.org/entity/Q104713452,Taucheira: Quarry West 4,Mine,,
Libya,Q1016,http://www.wikidata.org/entity/Q104713458,Taucheira: Quarry West 8,Mine,,
Libya,Q1016,http://www.wikidata.org/entity/Q104713457,Taucheira: Quarry West 7,Mine,,
Libya,Q1016,http://www.wikidata.org/entity/Q104713460,Taucheira: Quarry East 2,Mine,,
Libya,Q1016,http://www.wikidata.org/entity/Q104713486,Taucheira: Quarry East 5,Mine,,
Libya,Q1016,http://www.wikidata.org/entity/Q104713487,Taucheira: Quarry East 6,Mine,,
Libya,Q1016,http://www.wikidata.org/entity/Q104713485,Taucheira: Quarry East 3,Mine,,
Libya,Q1016,http://www.wikidata.org/entity/Q104713530,Taucheira: Quarry East 7,Mine,,
Libya,Q1016,http://www.wikidata.org/entity/Q105988045,"West Quarries, Taucheira",Mine,,
Greece,Q41,http://www.wikidata.org/entity/Q96471947,Tsangli Mine,Mine,,
Greece,Q41,http://www.wikidata.org/entity/Q16896595,Drama coal mine,Mine,,
Greece,Q41,http://www.wikidata.org/entity/Q16963556,Piavitsa mine,Mine,,
Greece,Q41,http://www.wikidata.org/entity/Q23937037,Esperanza mine,Mine,,
Greece,Q41,http://www.wikidata.org/entity/Q23937519,Christiana mine,Mine,,
Greece,Q41,http://www.wikidata.org/entity/Q64759767,Q64759767,Mine,,
Kosovo,Q1246,http://www.wikidata.org/entity/Q16258365,Çikatova mine,Mine,,
Kosovo,Q1246,http://www.wikidata.org/entity/Q16958972,Kišnica mine,Mine,,
Kosovo,Q1246,http://www.wikidata.org/entity/Q5184290,Crepulje mine,Mine,,
Kosovo,Q1246,http://www.wikidata.org/entity/Q5186982,Crnac mine,Mine,,
Kosovo,Q1246,http://www.wikidata.org/entity/Q5306147,Drazhnje mine,Mine,,
Kosovo,Q1246,http://www.wikidata.org/entity/Q5316883,Dushkaja mine,Mine,,
Kosovo,Q1246,http://www.wikidata.org/entity/Q5570002,Gllavica mine,Mine,,
Kosovo,Q1246,http://www.wikidata.org/entity/Q5580540,Goleš mine,Mine,,
Kosovo,Q1246,http://www.wikidata.org/entity/Q5601531,Grebnik mine,Mine,,
Kosovo,Q1246,http://www.wikidata.org/entity/Q5640275,Hajvalia mine,Mine,,
Kosovo,Q1246,http://www.wikidata.org/entity/Q6872897,Mirash open-cast coal mine,Mine,,
Kosovo,Q1246,http://www.wikidata.org/entity/Q7507265,Siboc coal mine,Mine,,
Kosovo,Q1246,http://www.wikidata.org/entity/Q7601910,Stari Trg mine,Mine,,
Kosovo,Q1246,http://www.wikidata.org/entity/Q7623539,Strezovce mine,Mine,,
Kosovo,Q1246,http://www.wikidata.org/entity/Q7635740,Suke mine,Mine,,
Kosovo,Q1246,http://www.wikidata.org/entity/Q7847067,Trpeza mine,Mine,,
Zambia,Q953,http://www.wikidata.org/entity/Q16969255,Sentinel mine,Mine,,
Zambia,Q953,http://www.wikidata.org/entity/Q16976010,Kansanshi mine,Mine,,
Zambia,Q953,http://www.wikidata.org/entity/Q60795754,Kalumbila Mine,Mine,,
Botswana,Q963,http://www.wikidata.org/entity/Q125957528,Lerala diamond mine,Mine,,
Botswana,Q963,http://www.wikidata.org/entity/Q16964961,Sese coal mine,Mine,,
Botswana,Q963,http://www.wikidata.org/entity/Q16965193,Mea coal mine,Mine,,
Botswana,Q963,http://www.wikidata.org/entity/Q16965764,Letlhakane coal mine,Mine,,
Czechoslovakia,Q33946,http://www.wikidata.org/entity/Q23803469,Q23803469,Mine,,
Union of South Africa,Q193619,http://www.wikidata.org/entity/Q3418813,Randfontein Estates Gold Mining Company,Mine,,
Union of South Africa,Q193619,http://www.wikidata.org/entity/Q101439013,"Modderfontein Deep Levels, Ltd.",Mine,,
Union of South Africa,Q193619,http://www.wikidata.org/entity/Q113577354,Grootvlei Proprietary Mines,Mine,,
Union of South Africa,Q193619,http://www.wikidata.org/entity/Q113579949,Modderfontein B. Gold Mines,Mine,,
Union of South Africa,Q193619,http://www.wikidata.org/entity/Q113680447,"Nourse Mines, Limited",Mine,,
Union of South Africa,Q193619,http://www.wikidata.org/entity/Q113680507,New Witwatersrand Gold Exploration,Mine,,
Union of South Africa,Q193619,http://www.wikidata.org/entity/Q113680603,New Modderfontein Gold Mining,Mine,,
Union of South Africa,Q193619,http://www.wikidata.org/entity/Q113680653,New Kleinfontein Company,Mine,,
Union of South Africa,Q193619,http://www.wikidata.org/entity/Q113680671,Nigel Gold Mining Company,Mine,,
Union of South Africa,Q193619,http://www.wikidata.org/entity/Q113680712,New Vaal River Diamond and Exploration Co.,Mine,,
Union of South Africa,Q193619,http://www.wikidata.org/entity/Q113680752,New Jagersfontein Mining and Exploration Company,Mine,,
Union of South Africa,Q193619,http://www.wikidata.org/entity/Q113680769,Palmietkuil Gold Mining Company,Mine,,
Union of South Africa,Q193619,http://www.wikidata.org/entity/Q113680806,Premier (Transvaal) Diamond Mining Co.,Mine,,
Union of South Africa,Q193619,http://www.wikidata.org/entity/Q113708547,Spaarwater Gold Mining Company,Mine,,
Union of South Africa,Q193619,http://www.wikidata.org/entity/Q113710478,Sub Nigel,Mine,,
Union of South Africa,Q193619,http://www.wikidata.org/entity/Q113710560,Springs Mines,Mine,,
Union of South Africa,Q193619,http://www.wikidata.org/entity/Q113991617,West Rand Consolidated Mines,Mine,,
Union of South Africa,Q193619,http://www.wikidata.org/entity/Q113991720,Witwatersrand Nigel,Mine,,
Union of South Africa,Q193619,http://www.wikidata.org/entity/Q113995960,Witwatersrand Deep,Mine,,
Mozambique,Q1029,http://www.wikidata.org/entity/Q16252982,Balama mine,Mine,,
Mozambique,Q1029,http://www.wikidata.org/entity/Q16975792,Morrua mine,Mine,,
Mozambique,Q1029,http://www.wikidata.org/entity/Q16975880,Muriane mine,Mine,,
Mozambique,Q1029,http://www.wikidata.org/entity/Q16976007,Zambeze mine,Mine,,
Mozambique,Q1029,http://www.wikidata.org/entity/Q16976274,Marropino mine,Mine,,
Mozambique,Q1029,http://www.wikidata.org/entity/Q16978528,Benga coal mine,Mine,,
Mozambique,Q1029,http://www.wikidata.org/entity/Q16978357,Revuboè coal mine,Mine,,
Tanzania,Q924,http://www.wikidata.org/entity/Q16966783,Nyanzaga mine,Mine,,
Tanzania,Q924,http://www.wikidata.org/entity/Q16968837,Manyoni mine,Mine,,
Tanzania,Q924,http://www.wikidata.org/entity/Q16977021,Mkuju River mine,Mine,,
Soviet Union,Q15180,http://www.wikidata.org/entity/Q12544306,Dzhezkazgan copper deposit,Mine,,
Soviet Union,Q15180,http://www.wikidata.org/entity/Q131587572,Leninabad Mining and Chemical Combine,Mine,,
Soviet Union,Q15180,http://www.wikidata.org/entity/Q131354699,Q131354699,Mine,,
Soviet Union,Q15180,http://www.wikidata.org/entity/Q132742294,Q132742294,Mine,,
United States,Q30,http://www.wikidata.org/entity/Q4829305,Avondale Colliery,Mine,,
United States,Q30,http://www.wikidata.org/entity/Q4873594,Bausman Mine,Mine,,
United States,Q30,http://www.wikidata.org/entity/Q5181982,Crandon mine,Mine,,
United States,Q30,http://www.wikidata.org/entity/Q6508807,Leadville ore district,Mine,,
United States,Q30,http://www.wikidata.org/entity/Q7122358,Pacific Coast Borax Company,Mine,,
United States,Q30,http://www.wikidata.org/entity/Q4863800,Barron County Pipestone Quarry,Mine,,
United States,Q30,http://www.wikidata.org/entity/Q114422540,Kinney Brick Quarry,Mine,,
United States,Q30,http://www.wikidata.org/entity/Q94953940,Western Stone Company,Mine,,
United States,Q30,http://www.wikidata.org/entity/Q12072146,Chevron Questa Mine,Mine,,
United States,Q30,http://www.wikidata.org/entity/Q16254428,Bessemer City mine,Mine,,
United States,Q30,http://www.wikidata.org/entity/Q16256686,Cayuna Range mine,Mine,,
United States,Q30,http://www.wikidata.org/entity/Q16257631,Chamberlain mine,Mine,,
United States,Q30,http://www.wikidata.org/entity/Q22986442,Dalton Wells Dinosaur Quarry,Mine,,
United States,Q30,http://www.wikidata.org/entity/Q7315683,Resolution Copper,Mine,,
United States,Q30,http://www.wikidata.org/entity/Q7488998,Shannopin Coal Co,Mine,,
United States,Q30,http://www.wikidata.org/entity/Q26878777,Crestmore quarries,Mine,,
United States,Q30,http://www.wikidata.org/entity/Q26878849,"Wet Weather quarry, Sky Blue Hill",Mine,,
United States,Q30,http://www.wikidata.org/entity/Q7655977,Swift's silver mine,Mine,,
United States,Q30,http://www.wikidata.org/entity/Q4971874,Broad Creek Soapstone Quarries,Mine,,
United States,Q30,http://www.wikidata.org/entity/Q7982929,"Wenonah, Alabama",Mine,,
United States,Q30,http://www.wikidata.org/entity/Q29980390,"Commercial quarry, Sky Blue Hill",Mine,,
United States,Q30,http://www.wikidata.org/entity/Q22060787,Troy Mine,Mine,,
United States,Q30,http://www.wikidata.org/entity/Q39049747,Harvey Mountain Quarry,Mine,,
United States,Q30,http://www.wikidata.org/entity/Q25004585,Willard Brook Quarry,Mine,,
United States,Q30,http://www.wikidata.org/entity/Q47588700,New Goose Creek quarry,Mine,,
United States,Q30,http://www.wikidata.org/entity/Q29879497,St Peters Dome,Mine,,
United States,Q30,http://www.wikidata.org/entity/Q26986605,Red Mountain district,Mine,,
United States,Q30,http://www.wikidata.org/entity/Q26986910,Montezuma district,Mine,,
United States,Q30,http://www.wikidata.org/entity/Q27014997,Treasury Vault mine,Mine,,
United States,Q30,http://www.wikidata.org/entity/Q27028140,Osborn district,Mine,,
United States,Q30,http://www.wikidata.org/entity/Q27500602,Gold quarry mine,Mine,,
United States,Q30,http://www.wikidata.org/entity/Q27510809,North Mesa mine group,Mine,,
United States,Q30,http://www.wikidata.org/entity/Q28753648,Beidell,Mine,,
United States,Q30,http://www.wikidata.org/entity/Q28753700,"Hector bentonite mine, Hector",Mine,,
United States,Q30,http://www.wikidata.org/entity/Q29075910,Lone Pine mine,Mine,,
United States,Q30,http://www.wikidata.org/entity/Q29889761,Redington mine,Mine,,
United States,Q30,http://www.wikidata.org/entity/Q30004838,Thompsons district,Mine,,
United States,Q30,http://www.wikidata.org/entity/Q30315917,Aravaipa mining district,Mine,,
United States,Q30,http://www.wikidata.org/entity/Q48817703,Moore Gulch Chinese Mining Site,Mine,,
United States,Q30,http://www.wikidata.org/entity/Q18415363,Sleeping Beauty,Mine,,
United States,Q30,http://www.wikidata.org/entity/Q16976457,Sumdum mine,Mine,,
United States,Q30,http://www.wikidata.org/entity/Q16977681,Thacker Pass Lithium Mine,Mine,,
United States,Q30,http://www.wikidata.org/entity/Q16977853,Kuroko mine,Mine,,
United States,Q30,http://www.wikidata.org/entity/Q19462487,Indian Valley Mine,Mine,,
United States,Q30,http://www.wikidata.org/entity/Q23894221,Buckwheat pit,Mine,,
United States,Q30,http://www.wikidata.org/entity/Q23894203,Mammoth-Saint Anthony mine,Mine,,
United States,Q30,http://www.wikidata.org/entity/Q23894236,Parker shaft,Mine,,
United States,Q30,http://www.wikidata.org/entity/Q23894235,Trotter mine,Mine,,
United States,Q30,http://www.wikidata.org/entity/Q23930479,Rush creek deposit,Mine,,
United States,Q30,http://www.wikidata.org/entity/Q24026055,Alum Cave Bluff,Mine,,
United States,Q30,http://www.wikidata.org/entity/Q24291870,Blue Cap mine,Mine,,
United States,Q30,http://www.wikidata.org/entity/Q24555705,Centennial mine,Mine,,
United States,Q30,http://www.wikidata.org/entity/Q24556612,Contention-Grand Central mine group,Mine,,
United States,Q30,http://www.wikidata.org/entity/Q26427869,Joe mine,Mine,,
United States,Q30,http://www.wikidata.org/entity/Q26474954,Terlingua district,Mine,,
United States,Q30,http://www.wikidata.org/entity/Q26475532,Mariposa mine,Mine,,
United States,Q30,http://www.wikidata.org/entity/Q26701422,Furnace Creek district,Mine,,
United States,Q30,http://www.wikidata.org/entity/Q26707101,Green River formation (Sweetwater Co.),Mine,,
United States,Q30,http://www.wikidata.org/entity/Q21551349,Fraye Mine,Mine,,
United States,Q30,http://www.wikidata.org/entity/Q75778316,Jay Gould Mine,Mine,,
United States,Q30,http://www.wikidata.org/entity/Q2902150,Q2902150,Mine,,
United States,Q30,http://www.wikidata.org/entity/Q4949949,Boundary Red Mountain Mine,Mine,,
United States,Q30,http://www.wikidata.org/entity/Q5372953,Emma Silver Mine,Mine,,
United States,Q30,http://www.wikidata.org/entity/Q60745597,Golconda Mine,Mine,,
United States,Q30,http://www.wikidata.org/entity/Q92953124,Black Bear,Mine,,
United States,Q30,http://www.wikidata.org/entity/Q117214440,Edison Mine,Mine,,
United States,Q30,http://www.wikidata.org/entity/Q134879488,Q134879488,Mine,,
United States,Q30,http://www.wikidata.org/entity/Q121270488,Glen Rogers Mine,Mine,,
United States,Q30,http://www.wikidata.org/entity/Q121288805,Federal No. 3 mine,Mine,,
United States,Q30,http://www.wikidata.org/entity/Q121289792,Clifton Mine,Mine,,
United States,Q30,http://www.wikidata.org/entity/Q121327338,Pond Creek No. 1 mine,Mine,,
United States,Q30,http://www.wikidata.org/entity/Q86626087,Lillian Mines,Mine,,
United States,Q30,http://www.wikidata.org/entity/Q95975124,Crabtree Mine,Mine,,
United States,Q30,http://www.wikidata.org/entity/Q98080206,South Mercur Pit,Mine,,
United States,Q30,http://www.wikidata.org/entity/Q28542892,"Copper Mine, Apache County, Arizona",Mine,,
United States,Q30,http://www.wikidata.org/entity/Q123378804,Sunday Creek Coal Company Mine No. 6,Mine,,
United States,Q30,http://www.wikidata.org/entity/Q111174424,Rose Mine,Mine,,
United States,Q30,http://www.wikidata.org/entity/Q111912462,Gold chain mine,Mine,,
United States,Q30,http://www.wikidata.org/entity/Q116927454,Greene Cananea Copper,Mine,,
Ireland,Q27,http://www.wikidata.org/entity/Q51132825,Gortdrum mine,Mine,,
Madagascar,Q1019,http://www.wikidata.org/entity/Q16251360,Ankaizina mine,Mine,,
Madagascar,Q1019,http://www.wikidata.org/entity/Q16251371,Ankililoaka mine,Mine,,
Madagascar,Q1019,http://www.wikidata.org/entity/Q16253506,Basibasy mine,Mine,,
Madagascar,Q1019,http://www.wikidata.org/entity/Q16951003,Bekisopa mine,Mine,,
Madagascar,Q1019,http://www.wikidata.org/entity/Q16965224,Ranobe mine,Mine,,
Madagascar,Q1019,http://www.wikidata.org/entity/Q16969234,Fenoarivo mine,Mine,,
Madagascar,Q1019,http://www.wikidata.org/entity/Q16971680,Manantenina mine,Mine,,
Madagascar,Q1019,http://www.wikidata.org/entity/Q16975977,Farafangana mine,Mine,,
Madagascar,Q1019,http://www.wikidata.org/entity/Q55917390,Antandrokomby pegmatite,Mine,,
Madagascar,Q1019,http://www.wikidata.org/entity/Q16254500,Betioky mine,Mine,,
Bulgaria,Q219,http://www.wikidata.org/entity/Q16897471,Troyanovo-3 coal mine,Mine,,
Bulgaria,Q219,http://www.wikidata.org/entity/Q16965984,Mirovo mine,Mine,,
Bulgaria,Q219,http://www.wikidata.org/entity/Q16979809,Elatsite mine,Mine,,
Bulgaria,Q219,http://www.wikidata.org/entity/Q67152694,Q67152694,Mine,,
Albania,Q222,http://www.wikidata.org/entity/Q5267658,Devolli mine,Mine,,
Albania,Q222,http://www.wikidata.org/entity/Q6426737,Kokogllave mine,Mine,,
Niger,Q1032,http://www.wikidata.org/entity/Q16966083,Madaouéla mine,Mine,,
Niger,Q1032,http://www.wikidata.org/entity/Q16001869,Adrar Emoles mine,Mine,,
Niger,Q1032,http://www.wikidata.org/entity/Q16966053,Takardeit mine,Mine,,
Afghanistan,Q889,http://www.wikidata.org/entity/Q26452287,Ladjuar Medam,Mine,,
North Korea,Q423,http://www.wikidata.org/entity/Q16978030,Jiktong coal mine,Mine,,
North Korea,Q423,http://www.wikidata.org/entity/Q17004675,Holdong mine,Mine,,
North Korea,Q423,http://www.wikidata.org/entity/Q17005315,Hyesan mine,Mine,,
North Korea,Q423,http://www.wikidata.org/entity/Q17013191,Oryong mine,Mine,,
Slovenia,Q215,http://www.wikidata.org/entity/Q124459160,Sečovlje Mine,Mine,,
Slovenia,Q215,http://www.wikidata.org/entity/Q12799442,Trbovlje coal mine,Mine,,
Slovenia,Q215,http://www.wikidata.org/entity/Q50188088,Q50188088,Mine,,
Slovenia,Q215,http://www.wikidata.org/entity/Q106484951,Senovo Mine,Mine,,
Slovenia,Q215,http://www.wikidata.org/entity/Q104805957,Q104805957,Mine,,
Uzbekistan,Q265,http://www.wikidata.org/entity/Q16963876,Kochbulak mine,Mine,,
Uzbekistan,Q265,http://www.wikidata.org/entity/Q16965920,Amantaitau–Daughyztau mine,Mine,,
Uzbekistan,Q265,http://www.wikidata.org/entity/Q16966138,Dalnee mine,Mine,,
Uzbekistan,Q265,http://www.wikidata.org/entity/Q16999927,Okzhetpes mine,Mine,,
Uzbekistan,Q265,http://www.wikidata.org/entity/Q22941030,Ustarasai bismuth deposit,Mine,,
Armenia,Q399,http://www.wikidata.org/entity/Q4056651,Q4056651,Mine,,
Armenia,Q399,http://www.wikidata.org/entity/Q21211441,Q21211441,Mine,,
Armenia,Q399,http://www.wikidata.org/entity/Q21656100,Q21656100,Mine,,
Armenia,Q399,http://www.wikidata.org/entity/Q16251366,Ankasar mine,Mine,,
Armenia,Q399,http://www.wikidata.org/entity/Q16976453,Svarants mine,Mine,,
Armenia,Q399,http://www.wikidata.org/entity/Q106206179,Parangion,Mine,,
Papua New Guinea,Q691,http://www.wikidata.org/entity/Q16968935,Yandera mine,Mine,,
Papua New Guinea,Q691,http://www.wikidata.org/entity/Q16978794,Misima mine,Mine,,
Papua New Guinea,Q691,http://www.wikidata.org/entity/Q16999371,Simberi mine,Mine,,
Papua New Guinea,Q691,http://www.wikidata.org/entity/Q16999831,Frieda River mine,Mine,,
Papua New Guinea,Q691,http://www.wikidata.org/entity/Q6913083,Morobe Goldfield,Mine,,
Greenland,Q223,http://www.wikidata.org/entity/Q24754427,Qaarsut,Mine,,
Vietnam,Q881,http://www.wikidata.org/entity/Q16254775,Bình Thuận mine,Mine,,
Vietnam,Q881,http://www.wikidata.org/entity/Q16258578,Cổ Định chromium mine,Mine,,
Vietnam,Q881,http://www.wikidata.org/entity/Q16965380,Quý Xa iron mine,Mine,,
Vietnam,Q881,http://www.wikidata.org/entity/Q16965463,Thạch Khê iron mine,Mine,,
Vietnam,Q881,http://www.wikidata.org/entity/Q16965706,Na Tum mine,Mine,,
Vietnam,Q881,http://www.wikidata.org/entity/Q16968904,Mau Xe mine,Mine,,
Vietnam,Q881,http://www.wikidata.org/entity/Q16979408,Núi Pháo mine,Mine,,
Vietnam,Q881,http://www.wikidata.org/entity/Q120635813,Cho-Dien Mines,Mine,,
Mali,Q912,http://www.wikidata.org/entity/Q134291947,Q134291947,Mine,,
Hungary,Q28,http://www.wikidata.org/entity/Q16255799,Bükkábrány coal mine,Mine,,
Hungary,Q28,http://www.wikidata.org/entity/Q16965947,Recsk mine,Mine,,
Hungary,Q28,http://www.wikidata.org/entity/Q105989738,Q105989738,Mine,,
Hungary,Q28,http://www.wikidata.org/entity/Q29021028,Adolf mine,Mine,,
Mauritania,Q1025,http://www.wikidata.org/entity/Q16965765,Firawa mine,Mine,,
Mauritania,Q1025,http://www.wikidata.org/entity/Q16965989,Reguibat mine,Mine,,
Mauritania,Q1025,http://www.wikidata.org/entity/Q16968828,Kaouat mine,Mine,,
Mauritania,Q1025,http://www.wikidata.org/entity/Q16969388,Lebtheinia mine,Mine,,
Mauritania,Q1025,http://www.wikidata.org/entity/Q28221457,Guelb Moghrein Mine,Mine,,
Guyana,Q734,http://www.wikidata.org/entity/Q16252206,Aurora gold mine,Mine,,
Luxembourg,Q32,http://www.wikidata.org/entity/Q16762949,Q16762949,Mine,,
Luxembourg,Q32,http://www.wikidata.org/entity/Q16763730,Q16763730,Mine,,
Luxembourg,Q32,http://www.wikidata.org/entity/Q16764454,Q16764454,Mine,,
Luxembourg,Q32,http://www.wikidata.org/entity/Q16765013,Q16765013,Mine,,
Israel,Q801,http://www.wikidata.org/entity/Q7047044,Timna copper smelter,Mine,,
Laos,Q819,http://www.wikidata.org/entity/Q16253082,Ban laomakkha mine,Mine,,
Laos,Q819,http://www.wikidata.org/entity/Q16956509,Hongsa coal mine,Mine,,
Laos,Q819,http://www.wikidata.org/entity/Q16965051,Nahe mine,Mine,,
Laos,Q819,http://www.wikidata.org/entity/Q16965353,Thagone mine,Mine,,
Laos,Q819,http://www.wikidata.org/entity/Q16965957,Phon Tiou mine,Mine,,
Ecuador,Q736,http://www.wikidata.org/entity/Q16252433,Azuay mine,Mine,,
Ecuador,Q736,http://www.wikidata.org/entity/Q16964046,Panantza mine,Mine,,
Ecuador,Q736,http://www.wikidata.org/entity/Q16964311,San Carlos mine,Mine,,
Ecuador,Q736,http://www.wikidata.org/entity/Q16965653,Mirador Norte mine,Mine,,
Ecuador,Q736,http://www.wikidata.org/entity/Q16979315,Junín mine,Mine,,
Russian Empire,Q34266,http://www.wikidata.org/entity/Q123351344,Voznesensky mines,Mine,,
Russian Empire,Q34266,http://www.wikidata.org/entity/Q123351738,Rykovskie mines,Mine,,
Russian Empire,Q34266,http://www.wikidata.org/entity/Q12544306,Dzhezkazgan copper deposit,Mine,,
Russian Empire,Q34266,http://www.wikidata.org/entity/Q131354699,Q131354699,Mine,,
Russian Empire,Q34266,http://www.wikidata.org/entity/Q132742294,Q132742294,Mine,,
Venezuela,Q717,http://www.wikidata.org/entity/Q16255480,Brisas mine,Mine,,
Guatemala,Q774,http://www.wikidata.org/entity/Q16256429,Canibal mine,Mine,,
Guatemala,Q774,http://www.wikidata.org/entity/Q16957078,Escobal mine,Mine,,
United Kingdom of Great Britain and Ireland,Q174193,http://www.wikidata.org/entity/Q104438683,El Oro Mining and Railway,Mine,,
United Kingdom of Great Britain and Ireland,Q174193,http://www.wikidata.org/entity/Q105231773,Falcon Mines Ltd,Mine,,
Wales,Q25,http://www.wikidata.org/entity/Q88777903,Penrhiw quarry,Mine,,
Nigeria,Q1033,http://www.wikidata.org/entity/Q16002055,Agbaja mine,Mine,,
Uganda,Q1036,http://www.wikidata.org/entity/Q16975974,Ruhijha mine,Mine,,
Uganda,Q1036,http://www.wikidata.org/entity/Q16976247,Nyamuliro mine,Mine,,
Uganda,Q1036,http://www.wikidata.org/entity/Q16977629,Sukulu mine,Mine,,
Uganda,Q1036,http://www.wikidata.org/entity/Q7380186,Rupa gold mine,Mine,,
Kenya,Q114,http://www.wikidata.org/entity/Q15036527,Kwale mine,Mine,,
Burkina Faso,Q965,http://www.wikidata.org/entity/Q16209150,Bissa mine,Mine,,
Burkina Faso,Q965,http://www.wikidata.org/entity/Q16964926,Kiaka mine,Mine,,
Belarus,Q184,http://www.wikidata.org/entity/Q16965586,Okulovsky mine,Mine,,
Belarus,Q184,http://www.wikidata.org/entity/Q16966336,Brinevskoye mine,Mine,,
Belarus,Q184,http://www.wikidata.org/entity/Q16977115,Oktyabrsky mine,Mine,,
Liberia,Q1014,http://www.wikidata.org/entity/Q16255130,Bong mine,Mine,,
Liberia,Q1014,http://www.wikidata.org/entity/Q16969028,Putu mine,Mine,,
Ethiopia,Q115,http://www.wikidata.org/entity/Q16964527,Gewane-Mille mine,Mine,,
Ethiopia,Q115,http://www.wikidata.org/entity/Q16968731,Dawa Okote mine,Mine,,
Ethiopia,Q115,http://www.wikidata.org/entity/Q16969189,Danakil mine,Mine,,
German Reich,Q1206012,http://www.wikidata.org/entity/Q99941065,Niederschlesische Bergbau,Mine,,
German Reich,Q1206012,http://www.wikidata.org/entity/Q106427185,Prehlitzer Braunkohlen AG,Mine,,
Andorra,Q228,http://www.wikidata.org/entity/Q97489547,Q97489547,Mine,,
Andorra,Q228,http://www.wikidata.org/entity/Q97489566,Q97489566,Mine,,
Guinea,Q1006,http://www.wikidata.org/entity/Q16965701,Lefa mine,Mine,,
Guinea,Q1006,http://www.wikidata.org/entity/Q16965758,Kalia mine,Mine,,
Guinea,Q1006,http://www.wikidata.org/entity/Q16970576,Mount Nimba mine,Mine,,
Azerbaijan,Q227,http://www.wikidata.org/entity/Q61105226,Nehrəm mine,Mine,,
Azerbaijan,Q227,http://www.wikidata.org/entity/Q131463412,Q131463412,Mine,,
Slovakia,Q214,http://www.wikidata.org/entity/Q17098704,Kuriskova mine,Mine,,
Tajikistan,Q863,http://www.wikidata.org/entity/Q12829131,Q12829131,Mine,,
Tajikistan,Q863,http://www.wikidata.org/entity/Q4092686,Bolshoy Kanimasur mine,Mine,,
Tajikistan,Q863,http://www.wikidata.org/entity/Q50112691,Mushiston tin deposit,Mine,,
Montenegro,Q236,http://www.wikidata.org/entity/Q16991507,Nikšić mine,Mine,,
Bangladesh,Q902,http://www.wikidata.org/entity/Q64343715,Dighipara Coal Mine,Mine,,
Bangladesh,Q902,http://www.wikidata.org/entity/Q64343709,Jamalgonj Coal Mine,Mine,,
Bangladesh,Q902,http://www.wikidata.org/entity/Q64343712,Khalashpir Coal Mine,Mine,,
Tunisia,Q948,http://www.wikidata.org/entity/Q16977927,Sra Ouertene mine,Mine,,
Sierra Leone,Q1044,http://www.wikidata.org/entity/Q16978239,Marampa mine,Mine,,
Sierra Leone,Q1044,http://www.wikidata.org/entity/Q17024896,Tonkolili mine,Mine,,
Rhodesia,Q217169,http://www.wikidata.org/entity/Q113996084,"Lonely Reef Gold Mining Company, Limited",Mine,,
Rhodesia,Q217169,http://www.wikidata.org/entity/Q113996172,Rhodesian Corporation,Mine,,
Rhodesia,Q217169,http://www.wikidata.org/entity/Q113996332,Rezende Mines,Mine,,
Fiji,Q712,http://www.wikidata.org/entity/Q16957017,Vatukoula mine,Mine,,
Fiji,Q712,http://www.wikidata.org/entity/Q109187616,Undu mine,Mine,,
Cameroon,Q1009,http://www.wikidata.org/entity/Q16972563,Mbalam mine,Mine,,
Cameroon,Q1009,http://www.wikidata.org/entity/Q16979514,Mobilong diamond mine,Mine,,
Iceland,Q189,http://www.wikidata.org/entity/Q16427642,Q16427642,Mine,,
Senegal,Q1041,http://www.wikidata.org/entity/Q16969480,Falémé mine,Mine,,
Eswatini,Q1050,http://www.wikidata.org/entity/Q16977237,Pigg’s Peak mine,Mine,,
Myanmar,Q836,http://www.wikidata.org/entity/Q16979156,Mwetaung mine,Mine,,
Myanmar,Q836,http://www.wikidata.org/entity/Q24576101,Hpakant-Tawmaw jade tract,Mine,,
Nepal,Q837,http://www.wikidata.org/entity/Q16964859,Kampughat mine,Mine,,
Nepal,Q837,http://www.wikidata.org/entity/Q16964962,Kharidhunga mine,Mine,,
Southern Rhodesia,Q750583,http://www.wikidata.org/entity/Q113996332,Rezende Mines,Mine,,
Southern Rhodesia,Q750583,http://www.wikidata.org/entity/Q113996359,Sherwood Starr Gold Mining Company,Mine,,
Croatia,Q224,http://www.wikidata.org/entity/Q97221823,Q97221823,Mine,,
Turkmenistan,Q874,http://www.wikidata.org/entity/Q16976039,Gowurdak mine,Mine,,
The Gambia,Q1005,http://www.wikidata.org/entity/Q65920394,Wassu Stone Circles Quarry Site,Mine,,
Oman,Q842,http://www.wikidata.org/entity/Q16965491,Shuwaymiya mine,Mine,,
Eritrea,Q986,http://www.wikidata.org/entity/Q16258705,Colluli mine,Mine,,
Panama,Q804,http://www.wikidata.org/entity/Q16258603,Cobre mine,Mine,,
Ukrainian Soviet Socialist Republic,Q133356,http://www.wikidata.org/entity/Q130046737,Q130046737,Mine,,
State of Palestine,Q219060,http://www.wikidata.org/entity/Q24571923,Jabel Harmun,Mine,,
Kingdom of Scotland,Q230791,http://www.wikidata.org/entity/Q125634764,The Moat Pit at Culross,Mine,,
Hispaniola,Q25277,http://www.wikidata.org/entity/Q67195576,Gold mines of Hispaniola,Mine,,
Skyrim,Q5766342,http://www.wikidata.org/entity/Q116172807,Redbelly Mine,Mine,,
Lower Austria,Q42497,http://www.wikidata.org/entity/Q113487336,Römischer Goldbergbau in Wartmannstetten,Mine,,
Empire of Japan,Q188712,http://www.wikidata.org/entity/Q99484790,Rasa Island mine,Mine,,
