country_name,country_qid,substation,label,type,latitude,longitude
Australia,Q408,http://www.wikidata.org/entity/Q29020142,Redbank Plains,electrical substation,,
Australia,Q408,http://www.wikidata.org/entity/Q29020143,Goodna,electrical substation,,
Australia,Q408,http://www.wikidata.org/entity/Q29020144,Blackstone,electrical substation,,
Australia,Q408,http://www.wikidata.org/entity/Q29020146,Swanbank East,electrical substation,,
Australia,Q408,http://www.wikidata.org/entity/Q29020148,Swanbank East Power Station,electrical substation,,
Australia,Q408,http://www.wikidata.org/entity/Q29020149,Wulkuraka,electrical substation,,
Australia,Q408,http://www.wikidata.org/entity/Q29020150,Abermain T136,electrical substation,,
Australia,Q408,http://www.wikidata.org/entity/Q29020151,Abermain H062,electrical substation,,
Australia,Q408,http://www.wikidata.org/entity/Q29020152,Raceview,electrical substation,,
Australia,Q408,http://www.wikidata.org/entity/Q29020153,Beenleigh,electrical substation,,
Australia,Q408,http://www.wikidata.org/entity/Q29020154,Stradbroke Island,electrical substation,,
Australia,Q408,http://www.wikidata.org/entity/Q29020155,Rocky Point,electrical substation,,
Australia,Q408,http://www.wikidata.org/entity/Q29020156,Molendinar,electrical substation,,
Australia,Q408,http://www.wikidata.org/entity/Q29020157,Southport,electrical substation,,
Australia,Q408,http://www.wikidata.org/entity/Q29020158,Surfers Paradise,electrical substation,,
Australia,Q408,http://www.wikidata.org/entity/Q29020159,Broadbeach,electrical substation,,
Australia,Q408,http://www.wikidata.org/entity/Q29020160,Merrimac,electrical substation,,
Australia,Q408,http://www.wikidata.org/entity/Q29020161,Nerang,electrical substation,,
Australia,Q408,http://www.wikidata.org/entity/Q29020162,Robina,electrical substation,,
Australia,Q408,http://www.wikidata.org/entity/Q29020163,Cades County,electrical substation,,
Australia,Q408,http://www.wikidata.org/entity/Q29020164,Coomera,electrical substation,,
Australia,Q408,http://www.wikidata.org/entity/Q29020165,Yatala,electrical substation,,
Australia,Q408,http://www.wikidata.org/entity/Q29020166,North Springwood,electrical substation,,
Australia,Q408,http://www.wikidata.org/entity/Q29020167,Browns Plains,electrical substation,,
Australia,Q408,http://www.wikidata.org/entity/Q29020169,SSLBS,electrical substation,,
Australia,Q408,http://www.wikidata.org/entity/Q29020170,Doboy,electrical substation,,
Australia,Q408,http://www.wikidata.org/entity/Q29020171,Murarrie,electrical substation,,
Australia,Q408,http://www.wikidata.org/entity/Q29020172,SSBBS,electrical substation,,
Australia,Q408,http://www.wikidata.org/entity/Q29020173,Belmont,electrical substation,,
Australia,Q408,http://www.wikidata.org/entity/Q29020174,Cleveland,electrical substation,,
Australia,Q408,http://www.wikidata.org/entity/Q29020175,Mudgeeraba,electrical substation,,
Australia,Q408,http://www.wikidata.org/entity/Q29020176,Terranora,electrical substation,,
Australia,Q408,http://www.wikidata.org/entity/Q29020177,Bungalora,electrical substation,,
Australia,Q408,http://www.wikidata.org/entity/Q29020178,South Lismore,electrical substation,,
Australia,Q408,http://www.wikidata.org/entity/Q29020179,East Lismore,electrical substation,,
Australia,Q408,http://www.wikidata.org/entity/Q29020180,Lismore S/S,electrical substation,,
Australia,Q408,http://www.wikidata.org/entity/Q29020181,Lismore 132,electrical substation,,
Australia,Q408,http://www.wikidata.org/entity/Q29020182,Lismore,electrical substation,,
Australia,Q408,http://www.wikidata.org/entity/Q29020183,Casino_T,electrical substation,,
Australia,Q408,http://www.wikidata.org/entity/Q29020184,Tenterfield,electrical substation,,
Australia,Q408,http://www.wikidata.org/entity/Q29020185,Casino,electrical substation,,
Australia,Q408,http://www.wikidata.org/entity/Q29020186,Glen Innes,electrical substation,,
Australia,Q408,http://www.wikidata.org/entity/Q29020187,Rapville,electrical substation,,
Australia,Q408,http://www.wikidata.org/entity/Q29020188,Moree,electrical substation,,
Australia,Q408,http://www.wikidata.org/entity/Q29020189,Moree SF,electrical substation,,
Australia,Q408,http://www.wikidata.org/entity/Q29020190,Inverell,electrical substation,,
Australia,Q408,http://www.wikidata.org/entity/Q29020191,Narrabri,electrical substation,,
Australia,Q408,http://www.wikidata.org/entity/Q29020192,Boggabri North,electrical substation,,
Australia,Q408,http://www.wikidata.org/entity/Q29020193,Boggabri East,electrical substation,,
Australia,Q408,http://www.wikidata.org/entity/Q29020194,Gunnedah,electrical substation,,
Australia,Q408,http://www.wikidata.org/entity/Q29020195,Armidale,electrical substation,,
Australia,Q408,http://www.wikidata.org/entity/Q29020196,Dumeresq,electrical substation,,
Australia,Q408,http://www.wikidata.org/entity/Q29020197,Dorrigo,electrical substation,,
Australia,Q408,http://www.wikidata.org/entity/Q29020198,Coffs Harbour,electrical substation,,
Australia,Q408,http://www.wikidata.org/entity/Q29020199,Koolkhan,electrical substation,,
Australia,Q408,http://www.wikidata.org/entity/Q29020200,Raleigh,electrical substation,,
Australia,Q408,http://www.wikidata.org/entity/Q29020201,Alstonville,electrical substation,,
Australia,Q408,http://www.wikidata.org/entity/Q29020202,Boambee South,electrical substation,,
Australia,Q408,http://www.wikidata.org/entity/Q29020203,Ballina,electrical substation,,
Australia,Q408,http://www.wikidata.org/entity/Q29020204,Nambucca,electrical substation,,
Australia,Q408,http://www.wikidata.org/entity/Q29020205,Dunoon,electrical substation,,
Australia,Q408,http://www.wikidata.org/entity/Q29020206,Lennox Head,electrical substation,,
Australia,Q408,http://www.wikidata.org/entity/Q29020207,Suffolk Park,electrical substation,,
Australia,Q408,http://www.wikidata.org/entity/Q29020208,Ewingsdale,electrical substation,,
Australia,Q408,http://www.wikidata.org/entity/Q29020209,Macksville,electrical substation,,
Australia,Q408,http://www.wikidata.org/entity/Q29020210,Kempsey,electrical substation,,
Australia,Q408,http://www.wikidata.org/entity/Q29020211,Taree,electrical substation,,
Australia,Q408,http://www.wikidata.org/entity/Q29020212,Brandy Hill,electrical substation,,
Australia,Q408,http://www.wikidata.org/entity/Q29020213,Capral,electrical substation,,
Australia,Q408,http://www.wikidata.org/entity/Q29020214,Rothbury,electrical substation,,
Australia,Q408,http://www.wikidata.org/entity/Q29020215,Kurri Zone Sub,electrical substation,,
Australia,Q408,http://www.wikidata.org/entity/Q29020216,Stroud,electrical substation,,
Australia,Q408,http://www.wikidata.org/entity/Q29020217,Mullumbimby,electrical substation,,
Australia,Q408,http://www.wikidata.org/entity/Q29020219,Port Macquarie,electrical substation,,
Australia,Q408,http://www.wikidata.org/entity/Q29020220,Heron Creek,electrical substation,,
Australia,Q408,http://www.wikidata.org/entity/Q29020221,Beresfield,electrical substation,,
Australia,Q408,http://www.wikidata.org/entity/Q29020222,Kurri,electrical substation,,
Australia,Q408,http://www.wikidata.org/entity/Q29020225,Muswell Brook 330,electrical substation,,
Australia,Q408,http://www.wikidata.org/entity/Q29020226,Liddell,electrical substation,,
Australia,Q408,http://www.wikidata.org/entity/Q29020227,Tomago,electrical substation,,
Australia,Q408,http://www.wikidata.org/entity/Q29020228,Tomago 132,electrical substation,,
Australia,Q408,http://www.wikidata.org/entity/Q29020229,Hawks Nest,electrical substation,,
Australia,Q408,http://www.wikidata.org/entity/Q29020230,Mitchell,electrical substation,,
Australia,Q408,http://www.wikidata.org/entity/Q29020231,Muswell Brook 132,electrical substation,,
Australia,Q408,http://www.wikidata.org/entity/Q29020232,Singleton,electrical substation,,
Australia,Q408,http://www.wikidata.org/entity/Q29020233,Redbank,electrical substation,,
Australia,Q408,http://www.wikidata.org/entity/Q29020234,Lake Munmorah,electrical substation,,
Australia,Q408,http://www.wikidata.org/entity/Q29020235,Munmorah,electrical substation,,
Australia,Q408,http://www.wikidata.org/entity/Q29020236,Charmhaven,electrical substation,,
Australia,Q408,http://www.wikidata.org/entity/Q29020237,Ourimbah,electrical substation,,
Australia,Q408,http://www.wikidata.org/entity/Q29020238,West Gosford,electrical substation,,
Australia,Q408,http://www.wikidata.org/entity/Q29020239,Vales Point,electrical substation,,
Australia,Q408,http://www.wikidata.org/entity/Q29020240,Wyong,electrical substation,,
Australia,Q408,http://www.wikidata.org/entity/Q29020241,Tuggerah,electrical substation,,
Australia,Q408,http://www.wikidata.org/entity/Q29020242,Gosford,electrical substation,,
Australia,Q408,http://www.wikidata.org/entity/Q29020243,Sommersby,electrical substation,,
Australia,Q408,http://www.wikidata.org/entity/Q29020244,Colongra,electrical substation,,
Australia,Q408,http://www.wikidata.org/entity/Q29020032,Aramara,electrical substation,,
Australia,Q408,http://www.wikidata.org/entity/Q29020033,Mungar,electrical substation,,
Australia,Q408,http://www.wikidata.org/entity/Q29020036,Teebar Creek,electrical substation,,
Australia,Q408,http://www.wikidata.org/entity/Q29020037,Woolooga,electrical substation,,
Australia,Q408,http://www.wikidata.org/entity/Q29020038,Gin Gin,electrical substation,,
Australia,Q408,http://www.wikidata.org/entity/Q29020039,Callide B Power Station,electrical substation,,
Australia,Q408,http://www.wikidata.org/entity/Q29020040,Callide C Power Station,electrical substation,,
Australia,Q408,http://www.wikidata.org/entity/Q29020043,Cooroy,electrical substation,,
Australia,Q408,http://www.wikidata.org/entity/Q29020044,Nambour,electrical substation,,
Australia,Q408,http://www.wikidata.org/entity/Q29020046,Beerwah,electrical substation,,
Australia,Q408,http://www.wikidata.org/entity/Q29020047,Tarong Power Station,electrical substation,,
Australia,Q408,http://www.wikidata.org/entity/Q29020049,Tarong North Power Station,electrical substation,,
Australia,Q408,http://www.wikidata.org/entity/Q29020050,Tarong,electrical substation,,
Australia,Q408,http://www.wikidata.org/entity/Q29020051,Halys,electrical substation,,
Australia,Q408,http://www.wikidata.org/entity/Q29020052,Mt England,electrical substation,,
Australia,Q408,http://www.wikidata.org/entity/Q29020053,Wivvenhoe Power Station,electrical substation,,
Australia,Q408,http://www.wikidata.org/entity/Q29020055,Caboolture,electrical substation,,
Australia,Q408,http://www.wikidata.org/entity/Q29020056,Hays Inlet,electrical substation,,
Australia,Q408,http://www.wikidata.org/entity/Q29020060,Brendale,electrical substation,,
Australia,Q408,http://www.wikidata.org/entity/Q29020061,Griffin,electrical substation,,
Australia,Q408,http://www.wikidata.org/entity/Q29020063,Stafford,electrical substation,,
Australia,Q408,http://www.wikidata.org/entity/Q29020064,Upper Kedron,electrical substation,,
Australia,Q408,http://www.wikidata.org/entity/Q29020065,Greenbank,electrical substation,,
Australia,Q408,http://www.wikidata.org/entity/Q29020066,Roma Power Station,electrical substation,,
Australia,Q408,http://www.wikidata.org/entity/Q29020067,Roma,electrical substation,,
Australia,Q408,http://www.wikidata.org/entity/Q29020068,Columboola T194,electrical substation,,
Australia,Q408,http://www.wikidata.org/entity/Q29020069,Columboola H77,electrical substation,,
Australia,Q408,http://www.wikidata.org/entity/Q29020070,Western Downs,electrical substation,,
Australia,Q408,http://www.wikidata.org/entity/Q29020075,Condamine Power Station,electrical substation,,
Australia,Q408,http://www.wikidata.org/entity/Q29020076,Bellevue,electrical substation,,
Australia,Q408,http://www.wikidata.org/entity/Q29020077,Condabri North,electrical substation,,
Australia,Q408,http://www.wikidata.org/entity/Q29020079,Condabri Central,electrical substation,,
Australia,Q408,http://www.wikidata.org/entity/Q29020080,Condabri South,electrical substation,,
Australia,Q408,http://www.wikidata.org/entity/Q29020081,Kogan Creek Power Station,electrical substation,,
Australia,Q408,http://www.wikidata.org/entity/Q29020082,Dinoun South,electrical substation,,
Australia,Q408,http://www.wikidata.org/entity/Q29020083,Clifford Creek,electrical substation,,
Australia,Q408,http://www.wikidata.org/entity/Q29020084,Chinchilla,electrical substation,,
Australia,Q408,http://www.wikidata.org/entity/Q29020085,Fairview West,electrical substation,,
Australia,Q408,http://www.wikidata.org/entity/Q29020086,Blythdale,electrical substation,,
Australia,Q408,http://www.wikidata.org/entity/Q29020087,Fairview South,electrical substation,,
Australia,Q408,http://www.wikidata.org/entity/Q29020088,Eurombah,electrical substation,,
Australia,Q408,http://www.wikidata.org/entity/Q29020089,Woleebee Creek,electrical substation,,
Australia,Q408,http://www.wikidata.org/entity/Q29020090,Yuleba North,electrical substation,,
Australia,Q408,http://www.wikidata.org/entity/Q29020091,Wandoan South,electrical substation,,
Australia,Q408,http://www.wikidata.org/entity/Q29020092,Orana,electrical substation,,
Australia,Q408,http://www.wikidata.org/entity/Q29020093,APLNG Orana,electrical substation,,
Australia,Q408,http://www.wikidata.org/entity/Q29020094,Braemar 2 Power Station,electrical substation,,
Australia,Q408,http://www.wikidata.org/entity/Q29020095,Braemar Power Station,electrical substation,,
Australia,Q408,http://www.wikidata.org/entity/Q29020096,Darling Downs Power Station,electrical substation,,
Australia,Q408,http://www.wikidata.org/entity/Q29020097,Braemar,electrical substation,,
Australia,Q408,http://www.wikidata.org/entity/Q29020098,Kumbarilla Park,electrical substation,,
Australia,Q408,http://www.wikidata.org/entity/Q29020099,Ruby,electrical substation,,
Australia,Q408,http://www.wikidata.org/entity/Q29020100,Bulli Creek,electrical substation,,
Australia,Q408,http://www.wikidata.org/entity/Q29020101,Millmerran,electrical substation,,
Australia,Q408,http://www.wikidata.org/entity/Q29020105,Millmerran Power Station,electrical substation,,
Australia,Q408,http://www.wikidata.org/entity/Q29020106,Rocklea,electrical substation,,
Australia,Q408,http://www.wikidata.org/entity/Q29020107,Corinda,electrical substation,,
Australia,Q408,http://www.wikidata.org/entity/Q29020108,Tennyson,electrical substation,,
Australia,Q408,http://www.wikidata.org/entity/Q29020109,Sumner,electrical substation,,
Australia,Q408,http://www.wikidata.org/entity/Q29020110,West Darra,electrical substation,,
Australia,Q408,http://www.wikidata.org/entity/Q29020111,Richlands,electrical substation,,
Australia,Q408,http://www.wikidata.org/entity/Q29020112,Runcorn,electrical substation,,
Australia,Q408,http://www.wikidata.org/entity/Q29020113,Algester,electrical substation,,
Australia,Q408,http://www.wikidata.org/entity/Q29020114,Oakey GT Power Station,electrical substation,,
Australia,Q408,http://www.wikidata.org/entity/Q29020115,Oakey,electrical substation,,
Australia,Q408,http://www.wikidata.org/entity/Q29020116,Daadine,electrical substation,,
Australia,Q408,http://www.wikidata.org/entity/Q29020117,Dalby,electrical substation,,
Australia,Q408,http://www.wikidata.org/entity/Q29020118,Tangkam,electrical substation,,
Australia,Q408,http://www.wikidata.org/entity/Q29020119,South Toowoomba,electrical substation,,
Australia,Q408,http://www.wikidata.org/entity/Q29020120,Kearneys Spring,electrical substation,,
Australia,Q408,http://www.wikidata.org/entity/Q29020121,Middle Ridge,electrical substation,,
Australia,Q408,http://www.wikidata.org/entity/Q29020122,Postmans Ridge,electrical substation,,
Australia,Q408,http://www.wikidata.org/entity/Q29020123,Gatton Bulk Supply,electrical substation,,
Australia,Q408,http://www.wikidata.org/entity/Q29020124,Torrington,electrical substation,,
Australia,Q408,http://www.wikidata.org/entity/Q29020125,Yarranlea,electrical substation,,
Australia,Q408,http://www.wikidata.org/entity/Q29020126,Lockrose,electrical substation,,
Australia,Q408,http://www.wikidata.org/entity/Q29020127,Warwick,electrical substation,,
Australia,Q408,http://www.wikidata.org/entity/Q29020128,Stanthorpe,electrical substation,,
Australia,Q408,http://www.wikidata.org/entity/Q29020129,West End,electrical substation,,
Australia,Q408,http://www.wikidata.org/entity/Q29020130,Ashgrove West,electrical substation,,
Australia,Q408,http://www.wikidata.org/entity/Q29020131,Kelvin Grove,electrical substation,,
Australia,Q408,http://www.wikidata.org/entity/Q29020132,Milton,electrical substation,,
Australia,Q408,http://www.wikidata.org/entity/Q29020133,SSNSD,electrical substation,,
Australia,Q408,http://www.wikidata.org/entity/Q29020134,SSQRT,electrical substation,,
Australia,Q408,http://www.wikidata.org/entity/Q29020135,SSMST,electrical substation,,
Australia,Q408,http://www.wikidata.org/entity/Q29020136,SSMLS,electrical substation,,
Australia,Q408,http://www.wikidata.org/entity/Q29020137,SSCST,electrical substation,,
Australia,Q408,http://www.wikidata.org/entity/Q29020138,Victoria Park,electrical substation,,
Australia,Q408,http://www.wikidata.org/entity/Q29020139,Ann Street,electrical substation,,
Australia,Q408,http://www.wikidata.org/entity/Q29020140,Wellington Road,electrical substation,,
Australia,Q408,http://www.wikidata.org/entity/Q29020245,Broadmeadow,electrical substation,,
Australia,Q408,http://www.wikidata.org/entity/Q29020246,Merewether,electrical substation,,
Australia,Q408,http://www.wikidata.org/entity/Q29020247,Waratah West,electrical substation,,
Australia,Q408,http://www.wikidata.org/entity/Q29020248,Jesmond,electrical substation,,
Australia,Q408,http://www.wikidata.org/entity/Q29020249,Waratah,electrical substation,,
Australia,Q408,http://www.wikidata.org/entity/Q29020250,Maryland,electrical substation,,
Australia,Q408,http://www.wikidata.org/entity/Q29020251,Charlestown,electrical substation,,
Australia,Q408,http://www.wikidata.org/entity/Q29020252,Argenton,electrical substation,,
Australia,Q408,http://www.wikidata.org/entity/Q29020255,Rathmines,electrical substation,,
Australia,Q408,http://www.wikidata.org/entity/Q29020257,Morisset,electrical substation,,
Australia,Q408,http://www.wikidata.org/entity/Q29020258,Awaba,electrical substation,,
Australia,Q408,http://www.wikidata.org/entity/Q29020259,Sydney East,electrical substation,,
Australia,Q408,http://www.wikidata.org/entity/Q29020260,Sydney North,electrical substation,,
Australia,Q408,http://www.wikidata.org/entity/Q29020262,Macquarie Park,electrical substation,,
Australia,Q408,http://www.wikidata.org/entity/Q29020263,Vineyard,electrical substation,,
Australia,Q408,http://www.wikidata.org/entity/Q29020264,Hawksbury,electrical substation,,
Australia,Q408,http://www.wikidata.org/entity/Q29020265,Mungerie Park,electrical substation,,
Australia,Q408,http://www.wikidata.org/entity/Q29020266,Rouse Hill,electrical substation,,
Australia,Q408,http://www.wikidata.org/entity/Q29020267,Parklea,electrical substation,,
Australia,Q408,http://www.wikidata.org/entity/Q29020269,West Castle Hill,electrical substation,,
Australia,Q408,http://www.wikidata.org/entity/Q29020270,Cheriton Avenue,electrical substation,,
Australia,Q408,http://www.wikidata.org/entity/Q29020271,Bella Vista,electrical substation,,
Australia,Q408,http://www.wikidata.org/entity/Q29020272,Carlingford,electrical substation,,
Australia,Q408,http://www.wikidata.org/entity/Q29020273,Baulkham Hills,electrical substation,,
Australia,Q408,http://www.wikidata.org/entity/Q29020274,Rozelle,electrical substation,,
Australia,Q408,http://www.wikidata.org/entity/Q29020275,Homebush Bay,electrical substation,,
Australia,Q408,http://www.wikidata.org/entity/Q29020276,Drummoyne,electrical substation,,
Australia,Q408,http://www.wikidata.org/entity/Q29020279,Marrickville,electrical substation,,
Australia,Q408,http://www.wikidata.org/entity/Q29020280,Beaconsfield South,electrical substation,,
Australia,Q408,http://www.wikidata.org/entity/Q29020281,Belmore Park,electrical substation,,
Australia,Q408,http://www.wikidata.org/entity/Q29020282,Beaconsfield North,electrical substation,,
Australia,Q408,http://www.wikidata.org/entity/Q29020283,Beaconsfield West,electrical substation,,
Australia,Q408,http://www.wikidata.org/entity/Q29020284,New Canterbury,electrical substation,,
Australia,Q408,http://www.wikidata.org/entity/Q29020286,St Peter,electrical substation,,
Australia,Q408,http://www.wikidata.org/entity/Q29020287,Meadowbank,electrical substation,,
Australia,Q408,http://www.wikidata.org/entity/Q29020288,Lane Cove,electrical substation,,
Australia,Q408,http://www.wikidata.org/entity/Q29020289,Top Ryde,electrical substation,,
Australia,Q408,http://www.wikidata.org/entity/Q29020290,Dalley Street,electrical substation,,
Australia,Q408,http://www.wikidata.org/entity/Q29020291,Surry Hills,electrical substation,,
Australia,Q408,http://www.wikidata.org/entity/Q29020292,Waverley,electrical substation,,
Australia,Q408,http://www.wikidata.org/entity/Q29020293,Rose Bay,electrical substation,,
Australia,Q408,http://www.wikidata.org/entity/Q29020294,BHP,electrical substation,,
Australia,Q408,http://www.wikidata.org/entity/Q29020295,Quakers Hill,electrical substation,,
Australia,Q408,http://www.wikidata.org/entity/Q29020297,Rooty Hill,electrical substation,,
Australia,Q408,http://www.wikidata.org/entity/Q29020298,Doonside,electrical substation,,
Australia,Q408,http://www.wikidata.org/entity/Q29020299,Huntingwood,electrical substation,,
Australia,Q408,http://www.wikidata.org/entity/Q29020300,Arndell Park,electrical substation,,
Australia,Q408,http://www.wikidata.org/entity/Q29020301,Blacktown,electrical substation,,
Australia,Q408,http://www.wikidata.org/entity/Q29020302,Peakhurst,electrical substation,,
Australia,Q408,http://www.wikidata.org/entity/Q29020303,Kogarah,electrical substation,,
Australia,Q408,http://www.wikidata.org/entity/Q29020304,Hurstville North,electrical substation,,
Australia,Q408,http://www.wikidata.org/entity/Q29020306,Clovelly,electrical substation,,
Australia,Q408,http://www.wikidata.org/entity/Q29020308,Double Bay,electrical substation,,
Australia,Q408,http://www.wikidata.org/entity/Q29020309,Campbell,electrical substation,,
Australia,Q408,http://www.wikidata.org/entity/Q29020310,Haymarket,electrical substation,,
Australia,Q408,http://www.wikidata.org/entity/Q29020311,Green Square,electrical substation,,
Australia,Q408,http://www.wikidata.org/entity/Q29020312,Kingsford,electrical substation,,
Australia,Q408,http://www.wikidata.org/entity/Q29020313,Maroubra,electrical substation,,
Australia,Q408,http://www.wikidata.org/entity/Q29020314,Bunnerong,electrical substation,,
Australia,Q408,http://www.wikidata.org/entity/Q29020315,Kurnell,electrical substation,,
Australia,Q408,http://www.wikidata.org/entity/Q29020317,Gwawley Bay,electrical substation,,
Australia,Q408,http://www.wikidata.org/entity/Q29020318,Cronulla,electrical substation,,
Australia,Q408,http://www.wikidata.org/entity/Q29020319,Kirrawee,electrical substation,,
Australia,Q408,http://www.wikidata.org/entity/Q29020320,Port Hacking,electrical substation,,
Australia,Q408,http://www.wikidata.org/entity/Q29020321,Engadine,electrical substation,,
Australia,Q408,http://www.wikidata.org/entity/Q29020322,Menai,electrical substation,,
Australia,Q408,http://www.wikidata.org/entity/Q29020323,Greenacre Park,electrical substation,,
Australia,Q408,http://www.wikidata.org/entity/Q29020324,Potts Point,electrical substation,,
Australia,Q408,http://www.wikidata.org/entity/Q29020325,Rockwood Road,electrical substation,,
Australia,Q408,http://www.wikidata.org/entity/Q29020326,West Parramatta,electrical substation,,
Australia,Q408,http://www.wikidata.org/entity/Q29020327,North Parramatta,electrical substation,,
Australia,Q408,http://www.wikidata.org/entity/Q29020328,Holroyd,electrical substation,,
Australia,Q408,http://www.wikidata.org/entity/Q29020329,East Parramatta,electrical substation,,
Australia,Q408,http://www.wikidata.org/entity/Q29020330,West Wetherill,electrical substation,,
Australia,Q408,http://www.wikidata.org/entity/Q29020331,Wetherill Park,electrical substation,,
Australia,Q408,http://www.wikidata.org/entity/Q29020332,Bankstown,electrical substation,,
Australia,Q408,http://www.wikidata.org/entity/Q29020333,Sefton,electrical substation,,
Australia,Q408,http://www.wikidata.org/entity/Q29020334,Granville,electrical substation,,
Australia,Q408,http://www.wikidata.org/entity/Q29020335,Camellia,electrical substation,,
Australia,Q408,http://www.wikidata.org/entity/Q29020336,Guilford,electrical substation,,
Australia,Q408,http://www.wikidata.org/entity/Q29020337,Smithfield,electrical substation,,
Australia,Q408,http://www.wikidata.org/entity/Q29020338,Sydney West,electrical substation,,
Australia,Q408,http://www.wikidata.org/entity/Q29020339,Abootsbury,electrical substation,,
Australia,Q408,http://www.wikidata.org/entity/Q29020341,Denham Court,electrical substation,,
Australia,Q408,http://www.wikidata.org/entity/Q29020342,Nepean,electrical substation,,
Australia,Q408,http://www.wikidata.org/entity/Q29020343,West Liverpool,electrical substation,,
Australia,Q408,http://www.wikidata.org/entity/Q29020344,South Leppington,electrical substation,,
Australia,Q408,http://www.wikidata.org/entity/Q29020345,Liverpool,electrical substation,,
Australia,Q408,http://www.wikidata.org/entity/Q29020346,Bayswater,electrical substation,,
Australia,Q408,http://www.wikidata.org/entity/Q29020347,Warragamba,electrical substation,,
Australia,Q408,http://www.wikidata.org/entity/Q29020348,Regentville,electrical substation,,
Australia,Q408,http://www.wikidata.org/entity/Q29020349,Warrimoo,electrical substation,,
Australia,Q408,http://www.wikidata.org/entity/Q29019945,Bolingbroke,electrical substation,,
Australia,Q408,http://www.wikidata.org/entity/Q29019946,Mindi,electrical substation,,
Australia,Q408,http://www.wikidata.org/entity/Q29019948,Racecourse Mill,electrical substation,,
Australia,Q408,http://www.wikidata.org/entity/Q29019964,Broadlea,electrical substation,,
Australia,Q408,http://www.wikidata.org/entity/Q29019967,Goonyella Riverside,electrical substation,,
Australia,Q408,http://www.wikidata.org/entity/Q29019970,Bouldercombe,electrical substation,,
Australia,Q408,http://www.wikidata.org/entity/Q29019971,Egans Hill,electrical substation,,
Australia,Q408,http://www.wikidata.org/entity/Q29019972,Pandoin,electrical substation,,
Australia,Q408,http://www.wikidata.org/entity/Q29019973,Rocklands,electrical substation,,
Australia,Q408,http://www.wikidata.org/entity/Q29019974,Rockhampton,electrical substation,,
Australia,Q408,http://www.wikidata.org/entity/Q29019977,Barcaldine Power Station,electrical substation,,
Australia,Q408,http://www.wikidata.org/entity/Q29019985,Rangal,electrical substation,,
Australia,Q408,http://www.wikidata.org/entity/Q29019992,Yarwun,electrical substation,,
Australia,Q408,http://www.wikidata.org/entity/Q29019993,Boat Creek,electrical substation,,
Australia,Q408,http://www.wikidata.org/entity/Q29019995,Larcom Creek,electrical substation,,
Australia,Q408,http://www.wikidata.org/entity/Q29019996,Raglan,electrical substation,,
Australia,Q408,http://www.wikidata.org/entity/Q29019997,Grantleigh,electrical substation,,
Australia,Q408,http://www.wikidata.org/entity/Q29019998,Wycarbah,electrical substation,,
Australia,Q408,http://www.wikidata.org/entity/Q29019999,Stanwell Power Station Auxillary,electrical substation,,
Australia,Q408,http://www.wikidata.org/entity/Q29020000,Stanwell Power Station,electrical substation,,
Australia,Q408,http://www.wikidata.org/entity/Q29020001,Stanwell,electrical substation,,
Australia,Q408,http://www.wikidata.org/entity/Q29020003,Wiggins Island,electrical substation,,
Australia,Q408,http://www.wikidata.org/entity/Q29020004,Gladstone North,electrical substation,,
Australia,Q408,http://www.wikidata.org/entity/Q29020005,Callemondah,electrical substation,,
Australia,Q408,http://www.wikidata.org/entity/Q29020006,Boyne Island,electrical substation,,
Australia,Q408,http://www.wikidata.org/entity/Q29020007,Gladstone T5,electrical substation,,
Australia,Q408,http://www.wikidata.org/entity/Q29020008,Gladstone H7,electrical substation,,
Australia,Q408,http://www.wikidata.org/entity/Q29020009,Gladstone South T19,electrical substation,,
Australia,Q408,http://www.wikidata.org/entity/Q29020010,Qal,electrical substation,,
Australia,Q408,http://www.wikidata.org/entity/Q29020011,Qal West,electrical substation,,
Australia,Q408,http://www.wikidata.org/entity/Q29020012,Qal South,electrical substation,,
Australia,Q408,http://www.wikidata.org/entity/Q29020013,Maryborough,electrical substation,,
Australia,Q408,http://www.wikidata.org/entity/Q29020014,Wurdong,electrical substation,,
Australia,Q408,http://www.wikidata.org/entity/Q29020015,Korenan,electrical substation,,
Australia,Q408,http://www.wikidata.org/entity/Q29020016,Granite Creek,electrical substation,,
Australia,Q408,http://www.wikidata.org/entity/Q29020018,Clayton,electrical substation,,
Australia,Q408,http://www.wikidata.org/entity/Q29020029,Traveston,electrical substation,,
Australia,Q408,http://www.wikidata.org/entity/Q29020030,Cooran,electrical substation,,
Australia,Q408,http://www.wikidata.org/entity/Q29020031,Isis,electrical substation,,
Australia,Q408,http://www.wikidata.org/entity/Q29020350,Lawson,electrical substation,,
Australia,Q408,http://www.wikidata.org/entity/Q29020352,Mamre,electrical substation,,
Australia,Q408,http://www.wikidata.org/entity/Q29020353,Mt Druit,electrical substation,,
Australia,Q408,http://www.wikidata.org/entity/Q29020354,Penrith,electrical substation,,
Australia,Q408,http://www.wikidata.org/entity/Q29020355,Ingleburn,electrical substation,,
Australia,Q408,http://www.wikidata.org/entity/Q29020356,Tallawarra,electrical substation,,
Australia,Q408,http://www.wikidata.org/entity/Q29020358,Springhill,electrical substation,,
Australia,Q408,http://www.wikidata.org/entity/Q29020359,Beryl,electrical substation,,
Australia,Q408,http://www.wikidata.org/entity/Q29020360,Wellington,electrical substation,,
Australia,Q408,http://www.wikidata.org/entity/Q29020361,Dubbo West,electrical substation,,
Australia,Q408,http://www.wikidata.org/entity/Q29020362,Narromine South,electrical substation,,
Australia,Q408,http://www.wikidata.org/entity/Q29020363,Narromine,electrical substation,,
Australia,Q408,http://www.wikidata.org/entity/Q29020364,Dubbo South,electrical substation,,
Australia,Q408,http://www.wikidata.org/entity/Q29020365,Dubbo,electrical substation,,
Australia,Q408,http://www.wikidata.org/entity/Q29020366,Wellington Town,electrical substation,,
Australia,Q408,http://www.wikidata.org/entity/Q29020367,Nevertire,electrical substation,,
Australia,Q408,http://www.wikidata.org/entity/Q29020368,Nyngan,electrical substation,,
Australia,Q408,http://www.wikidata.org/entity/Q29020369,Ngngan Solar Farm,electrical substation,,
Australia,Q408,http://www.wikidata.org/entity/Q29020370,Manildra,electrical substation,,
Australia,Q408,http://www.wikidata.org/entity/Q29020371,Molong,electrical substation,,
Australia,Q408,http://www.wikidata.org/entity/Q29020372,Orange,electrical substation,,
Australia,Q408,http://www.wikidata.org/entity/Q29020373,Orange North,electrical substation,,
Australia,Q408,http://www.wikidata.org/entity/Q29020374,Wollar,electrical substation,,
Australia,Q408,http://www.wikidata.org/entity/Q29020375,Mt Piper,electrical substation,,
Australia,Q408,http://www.wikidata.org/entity/Q29020376,Wallerawang,electrical substation,,
Australia,Q408,http://www.wikidata.org/entity/Q29020377,Katoomba North,electrical substation,,
Australia,Q408,http://www.wikidata.org/entity/Q29020379,Panorama,electrical substation,,
Australia,Q408,http://www.wikidata.org/entity/Q29020380,Bannaby,electrical substation,,
Australia,Q408,http://www.wikidata.org/entity/Q29020381,Taralga,electrical substation,,
Australia,Q408,http://www.wikidata.org/entity/Q29020382,Goulburn,electrical substation,,
Australia,Q408,http://www.wikidata.org/entity/Q29020383,Kangaroo Valley,electrical substation,,
Australia,Q408,http://www.wikidata.org/entity/Q29020385,Fairfax Lane,electrical substation,,
Australia,Q408,http://www.wikidata.org/entity/Q29020386,Woodlawn,electrical substation,,
Australia,Q408,http://www.wikidata.org/entity/Q29020387,Capital Hill,electrical substation,,
Australia,Q408,http://www.wikidata.org/entity/Q29020388,Capital,electrical substation,,
Australia,Q408,http://www.wikidata.org/entity/Q29020389,Bendella,electrical substation,,
Australia,Q408,http://www.wikidata.org/entity/Q29020390,Marulan,electrical substation,,
Australia,Q408,http://www.wikidata.org/entity/Q29020391,Parkes,electrical substation,,
Australia,Q408,http://www.wikidata.org/entity/Q29020392,Forbes,electrical substation,,
Australia,Q408,http://www.wikidata.org/entity/Q29020393,Cowra,electrical substation,,
Australia,Q408,http://www.wikidata.org/entity/Q29020394,Gunning,electrical substation,,
Australia,Q408,http://www.wikidata.org/entity/Q29020396,Yass,electrical substation,,
Australia,Q408,http://www.wikidata.org/entity/Q29020397,Gullen Range,electrical substation,,
Australia,Q408,http://www.wikidata.org/entity/Q29020398,Royalla,electrical substation,,
Australia,Q408,http://www.wikidata.org/entity/Q29020405,Bega,electrical substation,,
Australia,Q408,http://www.wikidata.org/entity/Q29020406,Steeple Flat,electrical substation,,
Australia,Q408,http://www.wikidata.org/entity/Q29020407,Boco Rock,electrical substation,,
Australia,Q408,http://www.wikidata.org/entity/Q29020408,Murrumburrah,electrical substation,,
Australia,Q408,http://www.wikidata.org/entity/Q29020418,Queanbeyan,electrical substation,,
Australia,Q408,http://www.wikidata.org/entity/Q29020422,Burrinjuck,electrical substation,,
Australia,Q408,http://www.wikidata.org/entity/Q29020423,Uranquinty,electrical substation,,
Australia,Q408,http://www.wikidata.org/entity/Q29020425,Finley,electrical substation,,
Australia,Q408,http://www.wikidata.org/entity/Q29020426,Deniliquin,electrical substation,,
Australia,Q408,http://www.wikidata.org/entity/Q29020428,Griffith,electrical substation,,
Australia,Q408,http://www.wikidata.org/entity/Q29020429,Coleambally,electrical substation,,
Australia,Q408,http://www.wikidata.org/entity/Q29020430,Mulwala,electrical substation,,
Australia,Q408,http://www.wikidata.org/entity/Q29020431,Buronga,electrical substation,,
Australia,Q408,http://www.wikidata.org/entity/Q29020432,Broken Hill,electrical substation,,
Australia,Q408,http://www.wikidata.org/entity/Q29020433,Balranald,electrical substation,,
Australia,Q408,http://www.wikidata.org/entity/Q29020434,Corowa,electrical substation,,
Australia,Q408,http://www.wikidata.org/entity/Q29020435,Wagga 330,electrical substation,,
Australia,Q408,http://www.wikidata.org/entity/Q29020436,Wagga 132,electrical substation,,
Australia,Q408,http://www.wikidata.org/entity/Q29020437,Wagga North,electrical substation,,
Australia,Q408,http://www.wikidata.org/entity/Q29020438,Morven,electrical substation,,
Australia,Q408,http://www.wikidata.org/entity/Q29020439,Darlington Point,electrical substation,,
Australia,Q408,http://www.wikidata.org/entity/Q29020441,Jindera,electrical substation,,
Australia,Q408,http://www.wikidata.org/entity/Q29020442,ANM,electrical substation,,
Australia,Q408,http://www.wikidata.org/entity/Q29020443,Albury,electrical substation,,
Australia,Q408,http://www.wikidata.org/entity/Q29020444,Hume,electrical substation,,
Australia,Q408,http://www.wikidata.org/entity/Q29020445,Gadara,electrical substation,,
Australia,Q408,http://www.wikidata.org/entity/Q29020447,Tumut 132,electrical substation,,
Australia,Q408,http://www.wikidata.org/entity/Q29020448,Jounama,electrical substation,,
Australia,Q408,http://www.wikidata.org/entity/Q29020449,Blowering,electrical substation,,
Australia,Q408,http://www.wikidata.org/entity/Q29020451,T1,electrical substation,,
Australia,Q408,http://www.wikidata.org/entity/Q29020452,T2,electrical substation,,
Australia,Q408,http://www.wikidata.org/entity/Q29020455,Wemen,electrical substation,,
Australia,Q408,http://www.wikidata.org/entity/Q29020456,Kerang,electrical substation,,
Australia,Q408,http://www.wikidata.org/entity/Q29020457,Bendigo,electrical substation,,
Australia,Q408,http://www.wikidata.org/entity/Q29020458,Fosterville,electrical substation,,
Australia,Q408,http://www.wikidata.org/entity/Q29020461,Challicum Hills,electrical substation,,
Australia,Q408,http://www.wikidata.org/entity/Q29020462,McArthur,electrical substation,,
Australia,Q408,http://www.wikidata.org/entity/Q29020464,Tarrone,electrical substation,,
Australia,Q408,http://www.wikidata.org/entity/Q29020465,Ararat ART,electrical substation,,
Australia,Q408,http://www.wikidata.org/entity/Q29020466,Ararat ARTS,electrical substation,,
Australia,Q408,http://www.wikidata.org/entity/Q29020467,Stawell,electrical substation,,
Australia,Q408,http://www.wikidata.org/entity/Q29020468,Horsham,electrical substation,,
Australia,Q408,http://www.wikidata.org/entity/Q29020470,Heywood,electrical substation,,
Australia,Q408,http://www.wikidata.org/entity/Q29020472,Alcoa Portland,electrical substation,,
Australia,Q408,http://www.wikidata.org/entity/Q29020473,Portland,electrical substation,,
Australia,Q408,http://www.wikidata.org/entity/Q29020474,Terang,electrical substation,,
Australia,Q408,http://www.wikidata.org/entity/Q29020475,Yambuk,electrical substation,,
Australia,Q408,http://www.wikidata.org/entity/Q29020476,Mortons Lane,electrical substation,,
Australia,Q408,http://www.wikidata.org/entity/Q29020477,Oakland Hill,electrical substation,,
Australia,Q408,http://www.wikidata.org/entity/Q29020478,Anglesea,electrical substation,,
Australia,Q408,http://www.wikidata.org/entity/Q29020479,Point Henry,electrical substation,,
Australia,Q408,http://www.wikidata.org/entity/Q29020480,Geelong,electrical substation,,
Australia,Q408,http://www.wikidata.org/entity/Q29020481,Shepparton,electrical substation,,
Australia,Q408,http://www.wikidata.org/entity/Q29020485,Elaine,electrical substation,,
Australia,Q408,http://www.wikidata.org/entity/Q29020486,Mt Mercer,electrical substation,,
Australia,Q408,http://www.wikidata.org/entity/Q29020487,West Melbourne,electrical substation,,
Australia,Q408,http://www.wikidata.org/entity/Q29020488,Altona ATS,electrical substation,,
Australia,Q408,http://www.wikidata.org/entity/Q29020489,Brooklyn,electrical substation,,
Australia,Q408,http://www.wikidata.org/entity/Q29020490,Laverton North LNGS,electrical substation,,
Australia,Q408,http://www.wikidata.org/entity/Q29020491,Laverton North LVN,electrical substation,,
Australia,Q408,http://www.wikidata.org/entity/Q29020492,Altona Chemical,electrical substation,,
Australia,Q408,http://www.wikidata.org/entity/Q29020493,Altona AL,electrical substation,,
Australia,Q408,http://www.wikidata.org/entity/Q29020507,Gladstone South T152,electrical substation,,
Australia,Q408,http://www.wikidata.org/entity/Q29020509,Toyota,electrical substation,,
Australia,Q408,http://www.wikidata.org/entity/Q29020510,Newport,electrical substation,,
Australia,Q408,http://www.wikidata.org/entity/Q29020511,Fishermans Bend,electrical substation,,
Australia,Q408,http://www.wikidata.org/entity/Q29020515,Clover,electrical substation,,
Australia,Q408,http://www.wikidata.org/entity/Q29020520,Somerton Power Station,electrical substation,,
Australia,Q408,http://www.wikidata.org/entity/Q29020521,Somerton,electrical substation,,
Australia,Q408,http://www.wikidata.org/entity/Q29020524,South Morang,electrical substation,,
Australia,Q408,http://www.wikidata.org/entity/Q29020527,Murray,electrical substation,,
Australia,Q408,http://www.wikidata.org/entity/Q29020529,Jindabyne,electrical substation,,
Australia,Q408,http://www.wikidata.org/entity/Q29020531,Malvern,electrical substation,,
Australia,Q408,http://www.wikidata.org/entity/Q29020534,Richmond,electrical substation,,
Australia,Q408,http://www.wikidata.org/entity/Q29020535,Brunswick,electrical substation,,
Australia,Q408,http://www.wikidata.org/entity/Q29020536,Valley Power,electrical substation,,
Australia,Q408,http://www.wikidata.org/entity/Q29020538,Loy Yang Power Station,electrical substation,,
Australia,Q408,http://www.wikidata.org/entity/Q29020542,Rowville,electrical substation,,
Australia,Q408,http://www.wikidata.org/entity/Q29020543,Yallourn,electrical substation,,
Australia,Q408,http://www.wikidata.org/entity/Q29020545,Jeeralang Power Station substation,electrical substation,,
Australia,Q408,http://www.wikidata.org/entity/Q29020546,Loy Yang Sub.,electrical substation,,
Australia,Q408,http://www.wikidata.org/entity/Q29020547,Bairnsdale,electrical substation,,
Australia,Q408,http://www.wikidata.org/entity/Q29020548,John Lysaght,electrical substation,,
Australia,Q408,http://www.wikidata.org/entity/Q29020550,Tyabb,electrical substation,,
Australia,Q408,http://www.wikidata.org/entity/Q29020552,East Rowville,electrical substation,,
Australia,Q408,http://www.wikidata.org/entity/Q29020553,Springvale,electrical substation,,
Australia,Q408,http://www.wikidata.org/entity/Q29020555,Wonthaggi,electrical substation,,
Australia,Q408,http://www.wikidata.org/entity/Q29020556,Cranbourne,electrical substation,,
Australia,Q408,http://www.wikidata.org/entity/Q29020557,Heatherton,electrical substation,,
Australia,Q408,http://www.wikidata.org/entity/Q29020558,Black Range,electrical substation,,
Australia,Q408,http://www.wikidata.org/entity/Q29020559,South East,electrical substation,,
Australia,Q408,http://www.wikidata.org/entity/Q29020560,Kincraig,electrical substation,,
Australia,Q408,http://www.wikidata.org/entity/Q29020561,Penola West,electrical substation,,
Australia,Q408,http://www.wikidata.org/entity/Q29020562,Ladbroke Grove,electrical substation,,
Australia,Q408,http://www.wikidata.org/entity/Q29020563,Mt Gambier,electrical substation,,
Australia,Q408,http://www.wikidata.org/entity/Q29020564,Blanche,electrical substation,,
Australia,Q408,http://www.wikidata.org/entity/Q29020565,Keith,electrical substation,,
Australia,Q408,http://www.wikidata.org/entity/Q29020566,Tailem Bend,electrical substation,,
Australia,Q408,http://www.wikidata.org/entity/Q29020567,Mt Barker,electrical substation,,
Australia,Q408,http://www.wikidata.org/entity/Q29020568,Mt Barker South,electrical substation,,
Australia,Q408,http://www.wikidata.org/entity/Q29020569,Snuggery,electrical substation,,
Australia,Q408,http://www.wikidata.org/entity/Q29020570,Mayura,electrical substation,,
Australia,Q408,http://www.wikidata.org/entity/Q29020571,Lake Bonney 1,electrical substation,,
Australia,Q408,http://www.wikidata.org/entity/Q29020572,Lake Bonney 2,electrical substation,,
Australia,Q408,http://www.wikidata.org/entity/Q29020573,Lake Bonney 3,electrical substation,,
Australia,Q408,http://www.wikidata.org/entity/Q29020574,Canunda,electrical substation,,
Australia,Q408,http://www.wikidata.org/entity/Q29020575,Cherry Gardens,electrical substation,,
Australia,Q408,http://www.wikidata.org/entity/Q29020576,Millbrook,electrical substation,,
Australia,Q408,http://www.wikidata.org/entity/Q29020577,Mannum-Adelaide Pumping Station 1,electrical substation,,
Australia,Q408,http://www.wikidata.org/entity/Q29020578,Mannum,electrical substation,,
Australia,Q408,http://www.wikidata.org/entity/Q29020579,Mannum-Adelaide Pumping Station 2,electrical substation,,
Australia,Q408,http://www.wikidata.org/entity/Q29020580,Mannum-Adelaide Pumping Station 3,electrical substation,,
Australia,Q408,http://www.wikidata.org/entity/Q29020581,Angas Creek,electrical substation,,
Australia,Q408,http://www.wikidata.org/entity/Q29020582,Para,electrical substation,,
Australia,Q408,http://www.wikidata.org/entity/Q29020583,Parafield Gardens West,electrical substation,,
Australia,Q408,http://www.wikidata.org/entity/Q29020584,Northfield,electrical substation,,
Australia,Q408,http://www.wikidata.org/entity/Q29020585,Mobilong,electrical substation,,
Australia,Q408,http://www.wikidata.org/entity/Q29020586,Le Fevre,electrical substation,,
Australia,Q408,http://www.wikidata.org/entity/Q29020587,Muarry Bridge-Hahndorf Pump 1,electrical substation,,
Australia,Q408,http://www.wikidata.org/entity/Q29020588,Kanmantoo Mine,electrical substation,,
Australia,Q408,http://www.wikidata.org/entity/Q29020589,Pelican Point,electrical substation,,
Australia,Q408,http://www.wikidata.org/entity/Q29020590,Muarry Bridge-Hahndorf Pump 2,electrical substation,,
Australia,Q408,http://www.wikidata.org/entity/Q29020591,City West,electrical substation,,
Australia,Q408,http://www.wikidata.org/entity/Q29020592,Quarantine,electrical substation,,
Australia,Q408,http://www.wikidata.org/entity/Q29020593,Torrens B,electrical substation,,
Australia,Q408,http://www.wikidata.org/entity/Q29020594,Torrens North,electrical substation,,
Australia,Q408,http://www.wikidata.org/entity/Q29020595,Happy Valley,electrical substation,,
Australia,Q408,http://www.wikidata.org/entity/Q29020596,Tungkillo,electrical substation,,
Australia,Q408,http://www.wikidata.org/entity/Q29020597,Morphett Vale East,electrical substation,,
Australia,Q408,http://www.wikidata.org/entity/Q29020598,Lonsdale,electrical substation,,
Australia,Q408,http://www.wikidata.org/entity/Q29020599,Port Stanvac,electrical substation,,
Australia,Q408,http://www.wikidata.org/entity/Q29020600,Willunga,electrical substation,,
Australia,Q408,http://www.wikidata.org/entity/Q29020601,Starfish Hill,electrical substation,,
Australia,Q408,http://www.wikidata.org/entity/Q29020602,East Terrace,electrical substation,,
Australia,Q408,http://www.wikidata.org/entity/Q29020603,Magill,electrical substation,,
Australia,Q408,http://www.wikidata.org/entity/Q29020604,Torrens A,electrical substation,,
Australia,Q408,http://www.wikidata.org/entity/Q29020606,Berri,electrical substation,,
Australia,Q408,http://www.wikidata.org/entity/Q29020608,North West Bend,electrical substation,,
Australia,Q408,http://www.wikidata.org/entity/Q29020609,Mor Pump,electrical substation,,
Australia,Q408,http://www.wikidata.org/entity/Q29020611,Mokota,electrical substation,,
Australia,Q408,http://www.wikidata.org/entity/Q29020612,Belalie,electrical substation,,
Australia,Q408,http://www.wikidata.org/entity/Q29020613,North Brown Hill,electrical substation,,
Australia,Q408,http://www.wikidata.org/entity/Q29020614,Bluff/Porcupine,electrical substation,,
Australia,Q408,http://www.wikidata.org/entity/Q29020615,Hallett Hill,electrical substation,,
Australia,Q408,http://www.wikidata.org/entity/Q29020616,Hallett,electrical substation,,
Australia,Q408,http://www.wikidata.org/entity/Q29020617,Canowie,electrical substation,,
Australia,Q408,http://www.wikidata.org/entity/Q29020618,Hallett Power Station,electrical substation,,
Australia,Q408,http://www.wikidata.org/entity/Q29020619,Redhill,electrical substation,,
Australia,Q408,http://www.wikidata.org/entity/Q29020620,Morgan-Whyalla Pump 4,electrical substation,,
Australia,Q408,http://www.wikidata.org/entity/Q29020622,Mintaro,electrical substation,,
Australia,Q408,http://www.wikidata.org/entity/Q29020623,Clare North,electrical substation,,
Australia,Q408,http://www.wikidata.org/entity/Q29020624,Brinkworth,electrical substation,,
Australia,Q408,http://www.wikidata.org/entity/Q29020625,Kilburn,electrical substation,,
Australia,Q408,http://www.wikidata.org/entity/Q29020626,Waterloo,electrical substation,,
Australia,Q408,http://www.wikidata.org/entity/Q29020627,Waterloo East,electrical substation,,
Australia,Q408,http://www.wikidata.org/entity/Q29020628,Waterloo Wind Farm,electrical substation,,
Australia,Q408,http://www.wikidata.org/entity/Q29020629,Prospect,electrical substation,,
Australia,Q408,http://www.wikidata.org/entity/Q29020630,Kilburn South,electrical substation,,
Australia,Q408,http://www.wikidata.org/entity/Q29020631,Dry Creek,electrical substation,,
Australia,Q408,http://www.wikidata.org/entity/Q29020632,Templers West,electrical substation,,
Australia,Q408,http://www.wikidata.org/entity/Q29020633,Templers,electrical substation,,
Australia,Q408,http://www.wikidata.org/entity/Q29020634,Roseworthy,electrical substation,,
Australia,Q408,http://www.wikidata.org/entity/Q29020635,Dorrien,electrical substation,,
Australia,Q408,http://www.wikidata.org/entity/Q29020636,Angaston,electrical substation,,
Australia,Q408,http://www.wikidata.org/entity/Q29020637,Clements Gap,electrical substation,,
Australia,Q408,http://www.wikidata.org/entity/Q29020638,Munno Para,electrical substation,,
Australia,Q408,http://www.wikidata.org/entity/Q29020639,Mount Lock,electrical substation,,
Australia,Q408,http://www.wikidata.org/entity/Q29020641,Cultana,electrical substation,,
Australia,Q408,http://www.wikidata.org/entity/Q29020642,Stony Point,electrical substation,,
Australia,Q408,http://www.wikidata.org/entity/Q29020643,Olympic Dam West,electrical substation,,
Australia,Q408,http://www.wikidata.org/entity/Q29020644,Olympic Dam North,electrical substation,,
Australia,Q408,http://www.wikidata.org/entity/Q29020645,Woomera,electrical substation,,
Australia,Q408,http://www.wikidata.org/entity/Q29020646,Pimba,electrical substation,,
Australia,Q408,http://www.wikidata.org/entity/Q29020647,Mt Gunson,electrical substation,,
Australia,Q408,http://www.wikidata.org/entity/Q29020648,Blyth West,electrical substation,,
Australia,Q408,http://www.wikidata.org/entity/Q29020649,Snowtown North,electrical substation,,
Australia,Q408,http://www.wikidata.org/entity/Q29020650,Snowtown South,electrical substation,,
Australia,Q408,http://www.wikidata.org/entity/Q29020651,Ardrossan West,electrical substation,,
Australia,Q408,http://www.wikidata.org/entity/Q29020652,Bungama,electrical substation,,
Australia,Q408,http://www.wikidata.org/entity/Q29020653,Whyalla Central,electrical substation,,
Australia,Q408,http://www.wikidata.org/entity/Q29020654,Whyalla Terminal,electrical substation,,
Australia,Q408,http://www.wikidata.org/entity/Q29020655,Middleback,electrical substation,,
Australia,Q408,http://www.wikidata.org/entity/Q29020656,Cathedral Rocks,electrical substation,,
Australia,Q408,http://www.wikidata.org/entity/Q29020657,Sleaford,electrical substation,,
Australia,Q408,http://www.wikidata.org/entity/Q29020658,Point Lincoln Terminal,electrical substation,,
Australia,Q408,http://www.wikidata.org/entity/Q29020659,Mt Miller,electrical substation,,
Australia,Q408,http://www.wikidata.org/entity/Q29020660,Dalrymple,electrical substation,,
Australia,Q408,http://www.wikidata.org/entity/Q29020661,Wattle Point,electrical substation,,
Australia,Q408,http://www.wikidata.org/entity/Q29020662,Kadina East,electrical substation,,
Australia,Q408,http://www.wikidata.org/entity/Q29020663,Hummocks,electrical substation,,
Australia,Q408,http://www.wikidata.org/entity/Q29020664,Snowtown,electrical substation,,
Australia,Q408,http://www.wikidata.org/entity/Q29020665,Port Pirie South,electrical substation,,
Australia,Q408,http://www.wikidata.org/entity/Q29020666,Baroota,electrical substation,,
Australia,Q408,http://www.wikidata.org/entity/Q29020667,Port Pirie,electrical substation,,
Australia,Q408,http://www.wikidata.org/entity/Q29020668,Yadnarie,electrical substation,,
Australia,Q408,http://www.wikidata.org/entity/Q29020669,Bluff Point,electrical substation,,
Australia,Q408,http://www.wikidata.org/entity/Q29020670,Smithton,electrical substation,,
Australia,Q408,http://www.wikidata.org/entity/Q133827903,Walkaway Wind Farm Substation,electrical substation,,
Australia,Q408,http://www.wikidata.org/entity/Q29020671,Port Lata,electrical substation,,
Australia,Q408,http://www.wikidata.org/entity/Q29020672,Studland Bay,electrical substation,,
Australia,Q408,http://www.wikidata.org/entity/Q29020673,Hampshire,electrical substation,,
Australia,Q408,http://www.wikidata.org/entity/Q29020674,Que,electrical substation,,
Australia,Q408,http://www.wikidata.org/entity/Q29020675,Savage River,electrical substation,,
Australia,Q408,http://www.wikidata.org/entity/Q29020676,Burnie,electrical substation,,
Australia,Q408,http://www.wikidata.org/entity/Q29020677,Emu Bay,electrical substation,,
Australia,Q408,http://www.wikidata.org/entity/Q29020678,Ulverstone,electrical substation,,
Australia,Q408,http://www.wikidata.org/entity/Q29020679,Paloona,electrical substation,,
Australia,Q408,http://www.wikidata.org/entity/Q29020680,Devonport,electrical substation,,
Australia,Q408,http://www.wikidata.org/entity/Q29020681,Wesley Vale,electrical substation,,
Australia,Q408,http://www.wikidata.org/entity/Q29020682,Railton,electrical substation,,
Australia,Q408,http://www.wikidata.org/entity/Q29020683,Devils Gate,electrical substation,,
Australia,Q408,http://www.wikidata.org/entity/Q29020688,John Butters,electrical substation,,
Australia,Q408,http://www.wikidata.org/entity/Q29020689,Tribute,electrical substation,,
Australia,Q408,http://www.wikidata.org/entity/Q29020690,Bastyan,electrical substation,,
Australia,Q408,http://www.wikidata.org/entity/Q29020691,Newton Pumps,electrical substation,,
Australia,Q408,http://www.wikidata.org/entity/Q29020692,Queenstown,electrical substation,,
Australia,Q408,http://www.wikidata.org/entity/Q29020693,Makintosh,electrical substation,,
Australia,Q408,http://www.wikidata.org/entity/Q29020694,Rosebury,electrical substation,,
Australia,Q408,http://www.wikidata.org/entity/Q29020695,Wilmont,electrical substation,,
Australia,Q408,http://www.wikidata.org/entity/Q29020696,Cethana,electrical substation,,
Australia,Q408,http://www.wikidata.org/entity/Q29020697,Lemonthyme,electrical substation,,
Australia,Q408,http://www.wikidata.org/entity/Q29020699,Fisher,electrical substation,,
Australia,Q408,http://www.wikidata.org/entity/Q29020700,Rowallan,electrical substation,,
Australia,Q408,http://www.wikidata.org/entity/Q29020701,Poatina,electrical substation,,
Australia,Q408,http://www.wikidata.org/entity/Q29020702,Palmerston,electrical substation,,
Australia,Q408,http://www.wikidata.org/entity/Q29020703,Hadspen,electrical substation,,
Australia,Q408,http://www.wikidata.org/entity/Q29020704,Comalco,electrical substation,,
Australia,Q408,http://www.wikidata.org/entity/Q29020706,George Town,electrical substation,,
Australia,Q408,http://www.wikidata.org/entity/Q29020707,Tamar Valley Power Station,electrical substation,,
Australia,Q408,http://www.wikidata.org/entity/Q29020708,Starwood,electrical substation,,
Australia,Q408,http://www.wikidata.org/entity/Q29020709,Temco,electrical substation,,
Australia,Q408,http://www.wikidata.org/entity/Q29020710,Mussellroe,electrical substation,,
Australia,Q408,http://www.wikidata.org/entity/Q29020711,Scottsdale,electrical substation,,
Australia,Q408,http://www.wikidata.org/entity/Q29020712,Derby,electrical substation,,
Australia,Q408,http://www.wikidata.org/entity/Q29020713,Norwood,electrical substation,,
Australia,Q408,http://www.wikidata.org/entity/Q29020714,St Leonard,electrical substation,,
Australia,Q408,http://www.wikidata.org/entity/Q29020715,St Marys,electrical substation,,
Australia,Q408,http://www.wikidata.org/entity/Q29020716,Avoca,electrical substation,,
Australia,Q408,http://www.wikidata.org/entity/Q29020717,Tods Corner,electrical substation,,
Australia,Q408,http://www.wikidata.org/entity/Q29020718,Arthurs Lake,electrical substation,,
Australia,Q408,http://www.wikidata.org/entity/Q29020719,Trevallyn,electrical substation,,
Australia,Q408,http://www.wikidata.org/entity/Q29020720,Mowbray,electrical substation,,
Australia,Q408,http://www.wikidata.org/entity/Q29020721,Liapoota,electrical substation,,
Australia,Q408,http://www.wikidata.org/entity/Q29020722,Wayatinah,electrical substation,,
Australia,Q408,http://www.wikidata.org/entity/Q29020723,Catagunya,electrical substation,,
Australia,Q408,http://www.wikidata.org/entity/Q29020724,Derwent Bridge,electrical substation,,
Australia,Q408,http://www.wikidata.org/entity/Q29020725,Butlers Gorge,electrical substation,,
Australia,Q408,http://www.wikidata.org/entity/Q29020727,Lake Echo,electrical substation,,
Australia,Q408,http://www.wikidata.org/entity/Q29020728,Waddamana,electrical substation,,
Australia,Q408,http://www.wikidata.org/entity/Q29020729,Bridgewater,electrical substation,,
Australia,Q408,http://www.wikidata.org/entity/Q29020730,New Norfolk,electrical substation,,
Australia,Q408,http://www.wikidata.org/entity/Q29020731,Boyer,electrical substation,,
Australia,Q408,http://www.wikidata.org/entity/Q29020733,Kingston,electrical substation,,
Australia,Q408,http://www.wikidata.org/entity/Q29020734,Knights Road,electrical substation,,
Australia,Q408,http://www.wikidata.org/entity/Q29020736,Electrona,electrical substation,,
Australia,Q408,http://www.wikidata.org/entity/Q29020737,Huon River,electrical substation,,
Australia,Q408,http://www.wikidata.org/entity/Q29020738,Kermandie,electrical substation,,
Australia,Q408,http://www.wikidata.org/entity/Q29020739,Repulse,electrical substation,,
Australia,Q408,http://www.wikidata.org/entity/Q29020740,Cluny,electrical substation,,
Australia,Q408,http://www.wikidata.org/entity/Q29020742,Mornington,electrical substation,,
Australia,Q408,http://www.wikidata.org/entity/Q29020743,Lindisfarne,electrical substation,,
Australia,Q408,http://www.wikidata.org/entity/Q29020744,Triabunna,electrical substation,,
Australia,Q408,http://www.wikidata.org/entity/Q29020745,Sorell,electrical substation,,
Australia,Q408,http://www.wikidata.org/entity/Q29020746,Rokeby,electrical substation,,
Australia,Q408,http://www.wikidata.org/entity/Q29020747,North Hobart,electrical substation,,
Australia,Q408,http://www.wikidata.org/entity/Q29020748,Chapel Street,electrical substation,,
Australia,Q408,http://www.wikidata.org/entity/Q29020749,Risdon,electrical substation,,
Australia,Q408,http://www.wikidata.org/entity/Q29020750,Creek Road,electrical substation,,
Australia,Q408,http://www.wikidata.org/entity/Q29588665,Fig Tree,electrical substation,,
Australia,Q408,http://www.wikidata.org/entity/Q29588671,Havilah,electrical substation,,
Australia,Q408,http://www.wikidata.org/entity/Q29842501,Gympie,electrical substation,,
Australia,Q408,http://www.wikidata.org/entity/Q29842568,Image Flat,electrical substation,,
Australia,Q408,http://www.wikidata.org/entity/Q29842844,Jordan,electrical substation,,
Australia,Q408,http://www.wikidata.org/entity/Q29842986,Ibis,electrical substation,,
Australia,Q408,http://www.wikidata.org/entity/Q29843010,Burleigh Heads,electrical substation,,
Australia,Q408,http://www.wikidata.org/entity/Q29843015,SSVSL,electrical substation,,
Australia,Q408,http://www.wikidata.org/entity/Q29843053,SST114,electrical substation,,
Australia,Q408,http://www.wikidata.org/entity/Q29843064,SSQR46,electrical substation,,
Australia,Q408,http://www.wikidata.org/entity/Q29843146,SSJBB,electrical substation,,
Australia,Q408,http://www.wikidata.org/entity/Q29843159,SSAFD,electrical substation,,
Australia,Q408,http://www.wikidata.org/entity/Q29843172,SSMTN,electrical substation,,
Australia,Q408,http://www.wikidata.org/entity/Q29843175,SSMDH,electrical substation,,
Australia,Q408,http://www.wikidata.org/entity/Q29921627,SSQR50,electrical substation,,
Australia,Q408,http://www.wikidata.org/entity/Q29921726,Talinga,electrical substation,,
Australia,Q408,http://www.wikidata.org/entity/Q92740016,Lakeland,electrical substation,,
Germany,Q183,http://www.wikidata.org/entity/Q79120232,Q79120232,electrical substation,,
Germany,Q183,http://www.wikidata.org/entity/Q115792989,Q115792989,electrical substation,,
Germany,Q183,http://www.wikidata.org/entity/Q115793050,Q115793050,electrical substation,,
Germany,Q183,http://www.wikidata.org/entity/Q115793077,Q115793077,electrical substation,,
Germany,Q183,http://www.wikidata.org/entity/Q116788911,Q116788911,electrical substation,,
Netherlands,Q55,http://www.wikidata.org/entity/Q18771686,P.G.E.M. substation complex Arnhem,electrical substation,,
France,Q142,http://www.wikidata.org/entity/Q2304190,Q2304190,electrical substation,,
France,Q142,http://www.wikidata.org/entity/Q129259607,Q129259607,electrical substation,,
Czech Republic,Q213,http://www.wikidata.org/entity/Q120685729,Dasn substation,electrical substation,,
Slovakia,Q214,http://www.wikidata.org/entity/Q59192608,Liptovsk Mara substation,electrical substation,,
Norway,Q20,http://www.wikidata.org/entity/Q110665680,Q110665680,electrical substation,,
Norway,Q20,http://www.wikidata.org/entity/Q110671996,Q110671996,electrical substation,,
Norway,Q20,http://www.wikidata.org/entity/Q110672426,Q110672426,electrical substation,,
Norway,Q20,http://www.wikidata.org/entity/Q113016483,Q113016483,electrical substation,,
Norway,Q20,http://www.wikidata.org/entity/Q116431248,Q116431248,electrical substation,,
Spain,Q29,http://www.wikidata.org/entity/Q98060716,Q98060716,electrical substation,,
Switzerland,Q39,http://www.wikidata.org/entity/Q106695299,Unterwerk Vorderprttigau,electrical substation,,
Switzerland,Q39,http://www.wikidata.org/entity/Q108462212,Poste lectrique de Romanel,electrical substation,,
Ukraine,Q212,http://www.wikidata.org/entity/Q20082302,Q20082302,electrical substation,,
People's Republic of China,Q148,http://www.wikidata.org/entity/Q11122997,Q11122997,electrical substation,,
People's Republic of China,Q148,http://www.wikidata.org/entity/Q32169304,Q32169304,electrical substation,,
People's Republic of China,Q148,http://www.wikidata.org/entity/Q108531450,Lotus Substation,electrical substation,,
Uruguay,Q77,http://www.wikidata.org/entity/Q6813262,Melo HVDC Back-to-back station,HVDC back-to-back station,,
Finland,Q33,http://www.wikidata.org/entity/Q56400203,Yllikkl substation,electrical substation,,
Estonia,Q191,http://www.wikidata.org/entity/Q111903059,Q111903059,electrical substation,,
Bangladesh,Q902,http://www.wikidata.org/entity/Q111795951,Q111795951,electrical substation,,
