country_name,country_qid,entity,label,type,latitude,longitude
Taiwan,Q865,http://www.wikidata.org/entity/Q119518290,Sihuangziping Pilot Geothermal Power Plant,Geothermal power station,25.195444444,121.602361111
Taiwan,Q865,http://www.wikidata.org/entity/Q60995444,Rainbow Resort Geothermal Power Plant,Geothermal power station,22.69,120.99933333
Taiwan,Q865,http://www.wikidata.org/entity/Q48928437,Q48928437,Geothermal power station,,
Taiwan,Q865,http://www.wikidata.org/entity/Q118583117,Q118583117,Geothermal power station,24.546956204,121.509463957
Taiwan,Q865,http://www.wikidata.org/entity/Q15901473,Qingshui Geothermal Power Plant,Geothermal power station,24.612305555,121.636972222
Taiwan,Q865,http://www.wikidata.org/entity/Q116170290,Q116170290,Geothermal power station,,
Taiwan,Q865,http://www.wikidata.org/entity/Q116188943,Q116188943,Geothermal power station,,
Taiwan,Q865,http://www.wikidata.org/entity/Q116758163,Q116758163,Geothermal power station,,
Taiwan,Q865,http://www.wikidata.org/entity/Q117316592,Q117316592,Geothermal power station,,
Taiwan,Q865,http://www.wikidata.org/entity/Q119215754,Q119215754,Geothermal power station,,
Taiwan,Q865,http://www.wikidata.org/entity/Q119216184,Q119216184,Geothermal power station,,
Taiwan,Q865,http://www.wikidata.org/entity/Q119216396,Q119216396,Geothermal power station,,
New Zealand,Q664,http://www.wikidata.org/entity/Q7207841,Poihipi Power Station,Geothermal power station,-38.63027778,176.04166667
New Zealand,Q664,http://www.wikidata.org/entity/Q15379053,Mokai Power Station,Geothermal power station,-38.5306,175.926
New Zealand,Q664,http://www.wikidata.org/entity/Q7690821,Te Huka Power Station,Geothermal power station,-38.6669,176.118
New Zealand,Q664,http://www.wikidata.org/entity/Q11980453,Kawerau Power Station,Geothermal power station,-38.06305556,176.72722222
New Zealand,Q664,http://www.wikidata.org/entity/Q7688687,Tauhara Power Station,Geothermal power station,-38.6681,176.151
New Zealand,Q664,http://www.wikidata.org/entity/Q7022201,Ngawha geothermal field,Geothermal power station,-35.4175,173.852
New Zealand,Q664,http://www.wikidata.org/entity/Q7022117,Ngatamariki Power Station,Geothermal power station,-38.54722222,176.19583333
New Zealand,Q664,http://www.wikidata.org/entity/Q7080591,Ohaaki Power Station,Geothermal power station,-38.52694444,176.29194444
New Zealand,Q664,http://www.wikidata.org/entity/Q7370574,Rotokawa Power Station,Geothermal power station,-38.612222222,176.193611111
New Zealand,Q664,http://www.wikidata.org/entity/Q7690882,Te Mihi Power Station,Geothermal power station,-38.619166666,176.048055555
New Zealand,Q664,http://www.wikidata.org/entity/Q7021804,Nga Awa Purua Power Station,Geothermal power station,-38.614166666,176.184166666
New Zealand,Q664,http://www.wikidata.org/entity/Q3434500,Wairakei Power Station,Geothermal power station,-38.6269,176.105
Kenya,Q114,http://www.wikidata.org/entity/Q7088234,Olkaria II Geothermal Power Plant,Geothermal power station,-0.8625,36.296111111
Kenya,Q114,http://www.wikidata.org/entity/Q59155517,Suswa Geothermal Power Station,Geothermal power station,-1.160556,36.238056
Kenya,Q114,http://www.wikidata.org/entity/Q24236460,Menengai III Geothermal Power Station,Geothermal power station,-0.19527778,36.08166667
Kenya,Q114,http://www.wikidata.org/entity/Q24236280,Akiira One Geothermal Power Station,Geothermal power station,-0.93333333,36.3
Kenya,Q114,http://www.wikidata.org/entity/Q24236455,Menengai I Geothermal Power Station,Geothermal power station,-0.19305556,36.07
Kenya,Q114,http://www.wikidata.org/entity/Q16896123,Olkaria III Geothermal Power Station,Geothermal power station,-0.888961,36.2550491
Kenya,Q114,http://www.wikidata.org/entity/Q25387983,Olkaria IV Geothermal Power Station,Geothermal power station,-0.91805556,36.33444444
Kenya,Q114,http://www.wikidata.org/entity/Q7088237,Olkaria I Geothermal Power Plant,Geothermal power station,-0.893333,36.3083
Kenya,Q114,http://www.wikidata.org/entity/Q111944867,Olkaria VI Geothermal Power Station,Geothermal power station,-0.861944444,36.314444444
Kenya,Q114,http://www.wikidata.org/entity/Q62415560,Turkana Geothermal Power Station,Geothermal power station,2.31444444,36.58194444
Kenya,Q114,http://www.wikidata.org/entity/Q48784352,Olkaria V Geothermal Power Station,Geothermal power station,-0.90916667,36.27638889
Kenya,Q114,http://www.wikidata.org/entity/Q24236458,Menengai II Geothermal Power Station,Geothermal power station,-0.19611111,36.06305556
Iceland,Q189,http://www.wikidata.org/entity/Q693330,Nesjavellir Power Station,Geothermal power station,64.108055555,-21.256388888
Iceland,Q189,http://www.wikidata.org/entity/Q111357016,Theistareykir Power Station,Geothermal power station,65.88979,-16.96108
Iceland,Q189,http://www.wikidata.org/entity/Q2944551,Svartsengi Power Station,Geothermal power station,63.8789,-22.4328
Iceland,Q189,http://www.wikidata.org/entity/Q1494458,Krafla Power Station,Geothermal power station,65.70113,-16.77673
Iceland,Q189,http://www.wikidata.org/entity/Q2508514,Hellisheiði Power Station,Geothermal power station,64.03722222,-21.40083333
Iceland,Q189,http://www.wikidata.org/entity/Q879338,Bjarnarflag Power Station,Geothermal power station,65.6409,-16.8569
Iceland,Q189,http://www.wikidata.org/entity/Q2944543,Reykjanes Power Station,Geothermal power station,63.82638889,-22.68194444
Iceland,Q189,http://www.wikidata.org/entity/Q5948950,Husavik Power station,Geothermal power station,66.02181,-17.35165
Japan,Q17,http://www.wikidata.org/entity/Q11620963,Kakkonda geothermal power station,Geothermal power station,39.829121,140.864942
Japan,Q17,http://www.wikidata.org/entity/Q11390439,Hatchobaru Geothermal Power Plant,Geothermal power station,33.10633053,131.18773448
Japan,Q17,http://www.wikidata.org/entity/Q17218769,Q17218769,Geothermal power station,,
Japan,Q17,http://www.wikidata.org/entity/Q11540186,Mori geothermal power station,Geothermal power station,42.13369444,140.45536111
Japan,Q17,http://www.wikidata.org/entity/Q11530274,Matsukawa Geothermal Power Plant,Geothermal power station,39.871966,140.920689
Japan,Q17,http://www.wikidata.org/entity/Q11358356,Uenotai geothermal power station,Geothermal power station,39.001764,140.604063
Japan,Q17,http://www.wikidata.org/entity/Q66425337,Matsuo-Hachimantai Geothermal Power Plant,Geothermal power station,39.871888888,140.920638888
Japan,Q17,http://www.wikidata.org/entity/Q11673567,Q11673567,Geothermal power station,38.80986111,140.70838889
Japan,Q17,http://www.wikidata.org/entity/Q11434785,Otake Geothermal Power Plant,Geothermal power station,33.121734,131.190217
Japan,Q17,http://www.wikidata.org/entity/Q11565060,Takinoue Geothermal Power Plant,Geothermal power station,33.211534,131.273071
Japan,Q17,http://www.wikidata.org/entity/Q17226026,Q17226026,Geothermal power station,32.7237,130.201828
Japan,Q17,http://www.wikidata.org/entity/Q11534447,Yanaizu-Nishiyama geothermal power station,Geothermal power station,37.439991,139.693995
Japan,Q17,http://www.wikidata.org/entity/Q11437121,Onuma Geothermal Power Plant,Geothermal power station,39.98575,140.805194444
Japan,Q17,http://www.wikidata.org/entity/Q11468308,Yamakawa Geothermal Power Plant,Geothermal power station,31.190833,130.614222
Japan,Q17,http://www.wikidata.org/entity/Q11565792,Sumikawa geothermal power station,Geothermal power station,39.981229,140.78218
Japan,Q17,http://www.wikidata.org/entity/Q11441820,Ogiri Geothermal Power Plant,Geothermal power station,31.930861,130.794944
Germany,Q183,http://www.wikidata.org/entity/Q132459151,Q132459151,Geothermal power station,48.134844,11.715964
Germany,Q183,http://www.wikidata.org/entity/Q132472274,Q132472274,Geothermal power station,48.139813888,11.406488888
Germany,Q183,http://www.wikidata.org/entity/Q63762042,Q63762042,Geothermal power station,48.193171,11.659037
Germany,Q183,http://www.wikidata.org/entity/Q1509586,Q1509586,Geothermal power station,48.2573,13.011
Germany,Q183,http://www.wikidata.org/entity/Q132473051,Q132473051,Geothermal power station,48.229673,11.69713
Germany,Q183,http://www.wikidata.org/entity/Q132473033,Q132473033,Geothermal power station,47.995979,11.726071
Germany,Q183,http://www.wikidata.org/entity/Q132472676,Q132472676,Geothermal power station,48.020029,11.562992
Germany,Q183,http://www.wikidata.org/entity/Q132472729,Q132472729,Geothermal power station,48.067733,11.525624
Germany,Q183,http://www.wikidata.org/entity/Q1509591,Geothermiekraftwerk Neustadt-Glewe,Geothermal power station,53.37,11.5864
Germany,Q183,http://www.wikidata.org/entity/Q1509594,Geothermische Heizzentrale Neubrandenburg,Geothermal power station,53.5592,13.2476
Germany,Q183,http://www.wikidata.org/entity/Q132473440,Q132473440,Geothermal power station,49.125628,8.566836
Germany,Q183,http://www.wikidata.org/entity/Q132472966,Q132472966,Geothermal power station,48.170086,11.735115
Germany,Q183,http://www.wikidata.org/entity/Q17321918,Insheim Geothermal Power Station,Geothermal power station,49.153894,8.153443
Germany,Q183,http://www.wikidata.org/entity/Q85632363,Geothermiekraftwerk Holzkirchen,Geothermal power station,47.881586,11.719462
Germany,Q183,http://www.wikidata.org/entity/Q1486371,Landau geothermal power station,Geothermal power station,49.186388888,8.122777777
Germany,Q183,http://www.wikidata.org/entity/Q16857508,Q16857508,Geothermal power station,48.099074,12.64535
Germany,Q183,http://www.wikidata.org/entity/Q132472882,Q132472882,Geothermal power station,48.16735,11.79161
Germany,Q183,http://www.wikidata.org/entity/Q132473012,Q132473012,Geothermal power station,48.098599,12.645457
Germany,Q183,http://www.wikidata.org/entity/Q132473472,Q132473472,Geothermal power station,53.507757362,12.70158574
Germany,Q183,http://www.wikidata.org/entity/Q132472791,Q132472791,Geothermal power station,48.027308,11.68749
Germany,Q183,http://www.wikidata.org/entity/Q132472471,Q132472471,Geothermal power station,48.023621684,11.620968118
Germany,Q183,http://www.wikidata.org/entity/Q1509592,Unterhaching Power station,Geothermal power station,48.0569,11.5981
Germany,Q183,http://www.wikidata.org/entity/Q132472926,Q132472926,Geothermal power station,48.201392632,12.420364349
Germany,Q183,http://www.wikidata.org/entity/Q132473083,Q132473083,Geothermal power station,47.972981,12.579603
Germany,Q183,http://www.wikidata.org/entity/Q132472756,Q132472756,Geothermal power station,48.257061,11.666821
Germany,Q183,http://www.wikidata.org/entity/Q132472342,Q132472342,Geothermal power station,47.97234941,11.668253197
Philippines,Q928,http://www.wikidata.org/entity/Q23048102,BacMan Geothermal Production Field,Geothermal power station,13.0601,123.92935
Philippines,Q928,http://www.wikidata.org/entity/Q6743831,Malitbog Geothermal Power Station,Geothermal power station,11.15194444,124.64944444
Philippines,Q928,http://www.wikidata.org/entity/Q117480284,Tiwi Geothermal Power Plant,Geothermal power station,13.465694444,123.649472222
Philippines,Q928,http://www.wikidata.org/entity/Q118900615,Mak–Ban Geothermal Power Plant,Geothermal power station,14.091222222,121.218583333
Philippines,Q928,http://www.wikidata.org/entity/Q19818687,Mount Apo Geothermal Power Plant,Geothermal power station,7.013,125.22
Philippines,Q928,http://www.wikidata.org/entity/Q113457448,Palinpinon Power Plant,Geothermal power station,,
Philippines,Q928,http://www.wikidata.org/entity/Q118901881,Palinpinon Geothermal Power Plant,Geothermal power station,9.2935,123.171694444
United States,Q30,http://www.wikidata.org/entity/Q84698648,Mammoth Geothermal Complex,Geothermal power station,37.645555555,-118.911666666
United States,Q30,http://www.wikidata.org/entity/Q106742231,Bottle Rock Power Plant,Geothermal power station,38.8349,-122.76818
United States,Q30,http://www.wikidata.org/entity/Q133815721,TIGER,Geothermal power station,40.345676,-74.644013
United States,Q30,http://www.wikidata.org/entity/Q7406175,Salton Sea Power Station,Geothermal power station,33.163333333,-115.616666666
United States,Q30,http://www.wikidata.org/entity/Q65050434,Soda Lake Geothermal Plant,Geothermal power station,39.5553773,-118.8382369
United States,Q30,http://www.wikidata.org/entity/Q133815724,TIGER CUB,Geothermal power station,40.335747,-74.642151
United States,Q30,http://www.wikidata.org/entity/Q3109025,The Geysers,Geothermal power station,38.775,-122.755277777
United States,Q30,http://www.wikidata.org/entity/Q7413803,San Emidio Geothermal Plant,Geothermal power station,40.3693,-119.406
United States,Q30,http://www.wikidata.org/entity/Q4929512,Blue Mountain Faulkner 1 Geothermal Power Plant,Geothermal power station,40.9961,-118.1414
United States,Q30,http://www.wikidata.org/entity/Q2944538,Puna Geothermal Venture,Geothermal power station,19.4783,-154.888
United States,Q30,http://www.wikidata.org/entity/Q116716220,Salton Sea Power Gen Co - Unit 4,Geothermal power station,33.157,-115.6386
United States,Q30,http://www.wikidata.org/entity/Q116696073,Blundell,Geothermal power station,38.4889,-112.8533
United States,Q30,http://www.wikidata.org/entity/Q116715296,Galena 2 Geothermal Power Plant,Geothermal power station,39.373189,-119.7645
United States,Q30,http://www.wikidata.org/entity/Q116714948,Salton Sea Power LLC - Unit 5,Geothermal power station,33.1533,-115.6384
United States,Q30,http://www.wikidata.org/entity/Q116723378,Whitegrass No. 1,Geothermal power station,39.163279,-119.1805
United States,Q30,http://www.wikidata.org/entity/Q116712486,Salton Sea Power Gen Co - Unit 2,Geothermal power station,33.1589,-115.6455
United States,Q30,http://www.wikidata.org/entity/Q116724138,CD4,Geothermal power station,37.646053,-118.9158
United States,Q30,http://www.wikidata.org/entity/Q116712596,Vulcan-BN Geothermal Power Company,Geothermal power station,33.1633,-115.6167
United States,Q30,http://www.wikidata.org/entity/Q116715833,ENEL Salt Wells LLC,Geothermal power station,39.2944,-118.5725
United States,Q30,http://www.wikidata.org/entity/Q116740265,Mammoth G1,Geothermal power station,37.6451,-118.9143
United States,Q30,http://www.wikidata.org/entity/Q116712422,Salton Sea Power Gen Co - Unit 3,Geothermal power station,33.158153,-115.6387
United States,Q30,http://www.wikidata.org/entity/Q116712480,Coso Finance Partners,Geothermal power station,36.0372,-117.7981
United States,Q30,http://www.wikidata.org/entity/Q116718546,"Patua Acquisition Project, LLC",Geothermal power station,39.585833,-119.0731
United States,Q30,http://www.wikidata.org/entity/Q116712946,Dixie Valley,Geothermal power station,39.9663,-117.8557
United States,Q30,http://www.wikidata.org/entity/Q116721317,Tungsten Mountain,Geothermal power station,39.667002,-117.6937
United States,Q30,http://www.wikidata.org/entity/Q116720790,Don A Campbell 2 Geothermal,Geothermal power station,38.835836,-118.3253
United States,Q30,http://www.wikidata.org/entity/Q116718308,Neal Hot Springs Geothermal Project,Geothermal power station,44.023056,-117.4681
United States,Q30,http://www.wikidata.org/entity/Q116713001,Aidlin Geothermal Power Plant,Geothermal power station,38.8339,-122.881
United States,Q30,http://www.wikidata.org/entity/Q131686183,Blundell Geothermal Power Plant,Geothermal power station,38.355833333,-113.236111111
United States,Q30,http://www.wikidata.org/entity/Q116718714,Enel Cove Fort,Geothermal power station,38.560278,-112.5811
United States,Q30,http://www.wikidata.org/entity/Q116740264,Mammoth G3,Geothermal power station,37.6455,-118.9096
United States,Q30,http://www.wikidata.org/entity/Q116712369,Del Ranch Company,Geothermal power station,33.1646,-115.616
United States,Q30,http://www.wikidata.org/entity/Q116712481,Coso Power Developers,Geothermal power station,36.0192,-117.7917
United States,Q30,http://www.wikidata.org/entity/Q116715974,Jersey Valley Geothermal Power Plant,Geothermal power station,40.1808,-117.4739
United States,Q30,http://www.wikidata.org/entity/Q116714949,CE Turbo LLC,Geothermal power station,33.1669,-115.5114
United States,Q30,http://www.wikidata.org/entity/Q116715954,Thermo No 1,Geothermal power station,38.160653,-113.1945
United States,Q30,http://www.wikidata.org/entity/Q116714954,Brady,Geothermal power station,39.796032,-119.01
United States,Q30,http://www.wikidata.org/entity/Q116696053,Geysers Unit 5-20,Geothermal power station,38.777,-122.745
United States,Q30,http://www.wikidata.org/entity/Q116712518,Calistoga Power Plant,Geothermal power station,38.7879,-122.7434
United States,Q30,http://www.wikidata.org/entity/Q116712799,Steamboat Hills LP,Geothermal power station,39.37,-119.7669
United States,Q30,http://www.wikidata.org/entity/Q116712483,Coso Energy Developers,Geothermal power station,36.0019,-117.7886
United States,Q30,http://www.wikidata.org/entity/Q116711854,Geothermal 1,Geothermal power station,38.752,-122.7195
United States,Q30,http://www.wikidata.org/entity/Q116712367,CE Leathers,Geothermal power station,33.1779,-115.565
United States,Q30,http://www.wikidata.org/entity/Q116718768,"Lightning Dock Geothermal HI-01, LLC",Geothermal power station,32.144722,-108.8383
United States,Q30,http://www.wikidata.org/entity/Q116722106,McGinness Hills 3,Geothermal power station,39.5963,-116.8942
United States,Q30,http://www.wikidata.org/entity/Q116711855,Geothermal 2,Geothermal power station,38.7492,-122.7117
United States,Q30,http://www.wikidata.org/entity/Q116715142,Raft River Geothermal Power Plant,Geothermal power station,42.099417,-113.3825
United States,Q30,http://www.wikidata.org/entity/Q116716028,Tuscarora Geothermal Power Plant,Geothermal power station,41.4828,-116.1511
United States,Q30,http://www.wikidata.org/entity/Q116713245,Heber Geothermal,Geothermal power station,32.7146,-115.518
United States,Q30,http://www.wikidata.org/entity/Q116724053,Soda Lake 3,Geothermal power station,39.5545,-118.85
United States,Q30,http://www.wikidata.org/entity/Q116718686,Don A Campbell 1 Geothermal,Geothermal power station,38.836667,-118.3239
United States,Q30,http://www.wikidata.org/entity/Q116713230,Steamboat III,Geothermal power station,39.394444,-119.7475
United States,Q30,http://www.wikidata.org/entity/Q116712370,Elmore Company,Geothermal power station,33.1777,-115.6033
United States,Q30,http://www.wikidata.org/entity/Q116716052,John L. Featherstone Plant,Geothermal power station,33.204635,-115.5733
United States,Q30,http://www.wikidata.org/entity/Q116716025,McGinness Hills,Geothermal power station,39.5911,-116.9119
United States,Q30,http://www.wikidata.org/entity/Q116712846,Ormesa I,Geothermal power station,32.8156,-115.2568
United States,Q30,http://www.wikidata.org/entity/Q116713266,Ormesa II,Geothermal power station,32.7881,-115.2481
United States,Q30,http://www.wikidata.org/entity/Q116712237,Beowawe,Geothermal power station,40.5547,-116.6175
United States,Q30,http://www.wikidata.org/entity/Q116712845,Stillwater Facility,Geothermal power station,39.547537,-118.5556
United States,Q30,http://www.wikidata.org/entity/Q116712484,Salton Sea Power Gen Co Unit 1,Geothermal power station,33.158,-115.6475
United States,Q30,http://www.wikidata.org/entity/Q116715297,Galena 3 Geothermal Power Plant,Geothermal power station,39.388722,-119.7489
United States,Q30,http://www.wikidata.org/entity/Q116696303,Sonoma California Geothermal,Geothermal power station,38.7903,-122.7559
United States,Q30,http://www.wikidata.org/entity/Q116697696,Star Peak Geothermal Plant,Geothermal power station,40.532133,-118.272
United States,Q30,http://www.wikidata.org/entity/Q116715146,Richard Burdette Geothermal,Geothermal power station,39.390843,-119.7546
United States,Q30,http://www.wikidata.org/entity/Q116712920,Amedee Geothermal Venture I,Geothermal power station,40.300833,-120.105
United States,Q30,http://www.wikidata.org/entity/Q116713032,Second Imperial Geothermal,Geothermal power station,32.7144,-115.5356
United States,Q30,http://www.wikidata.org/entity/Q116740266,Mammoth G2,Geothermal power station,37.6464,-118.9092
United States,Q30,http://www.wikidata.org/entity/Q116715480,North Brawley Geothermal Plant,Geothermal power station,33.0139,-115.5439
United States,Q30,http://www.wikidata.org/entity/Q116712424,Ormesa III,Geothermal power station,32.7757,-115.2637
United States,Q30,http://www.wikidata.org/entity/Q116713014,Geo East Mesa II,Geothermal power station,32.7757,-115.2637
United States,Q30,http://www.wikidata.org/entity/Q116713229,Steamboat II,Geothermal power station,39.395603,-119.7468
United States,Q30,http://www.wikidata.org/entity/Q116712128,Desert Peak Power Plant,Geothermal power station,39.753999,-118.9535
United States,Q30,http://www.wikidata.org/entity/Q116720071,Paisley Geothermal Generating Plant,Geothermal power station,42.695833,-120.5578
Russia,Q159,http://www.wikidata.org/entity/Q4332503,Q4332503,Geothermal power station,45.092868,147.987471
Russia,Q159,http://www.wikidata.org/entity/Q4290374,Q4290374,Geothermal power station,43.99222222,145.7725
Russia,Q159,http://www.wikidata.org/entity/Q4347147,Pauzhetskaya Power Station,Geothermal power station,51.46527778,156.81166667
Russia,Q159,http://www.wikidata.org/entity/Q2219238,Mutnovskaya Power Station,Geothermal power station,52.53861111,158.20166667
Russia,Q159,http://www.wikidata.org/entity/Q4108285,Verhne-Mutnovskaya Power Station,Geothermal power station,52.551404,158.237672
France,Q142,http://www.wikidata.org/entity/Q110736218,Q110736218,Geothermal power station,,
France,Q142,http://www.wikidata.org/entity/Q132473275,Q132473275,Geothermal power station,48.930839,7.866318
France,Q142,http://www.wikidata.org/entity/Q2944535,Geothermal power plant of Bouillante,Geothermal power station,16.127306612,-61.769074204
Mexico,Q96,http://www.wikidata.org/entity/Q122853721,Los Humeros Geothermal Power Station,Geothermal power station,19.6714131,-97.4562514
Mexico,Q96,http://www.wikidata.org/entity/Q3624174,Cerro Prieto Geothermal Power Station,Geothermal power station,32.4111,-115.244
Mexico,Q96,http://www.wikidata.org/entity/Q121427626,Los Azufres Geothermal Power Station,Geothermal power station,19.790277777,-100.666305555
Indonesia,Q252,http://www.wikidata.org/entity/Q25476639,Q25476639,Geothermal power station,,
Indonesia,Q252,http://www.wikidata.org/entity/Q25476663,Q25476663,Geothermal power station,,
Indonesia,Q252,http://www.wikidata.org/entity/Q7975855,Wayang Windu Geothermal Power Station,Geothermal power station,-7.2,107.625
Indonesia,Q252,http://www.wikidata.org/entity/Q79606322,Darajat Power Station,Geothermal power station,-7.2175,107.7394
Indonesia,Q252,http://www.wikidata.org/entity/Q11979998,Q11979998,Geothermal power station,-7.13871,107.78475
Turkey,Q43,http://www.wikidata.org/entity/Q16060094,Gümüşköy Geothermal Power Plant,Geothermal power station,37.8556,27.4633
Turkey,Q43,http://www.wikidata.org/entity/Q16893510,Kızıldere Geothermal Power Plant,Geothermal power station,37.95,28.8431
Armenia,Q399,http://www.wikidata.org/entity/Q30589243,Karkar Geothermal Power Plant,Geothermal power station,39.78338889,45.941
Armenia,Q399,http://www.wikidata.org/entity/Q16966355,Jermaghbyur Geothermal Power Plant,Geothermal power station,,
Ethiopia,Q115,http://www.wikidata.org/entity/Q55603750,Aluto–Langano Geothermal Power Station,Geothermal power station,7.788611,38.794722
Ethiopia,Q115,http://www.wikidata.org/entity/Q108749762,Corbetti Geothermal Power Station,Geothermal power station,7.173888888,38.458055555
Ethiopia,Q115,http://www.wikidata.org/entity/Q107564443,Tulu Moye Geothermal Power Station,Geothermal power station,8.161388888,39.129444444
People's Republic of China,Q148,http://www.wikidata.org/entity/Q19841073,Yangbajain Geothermal Field,Geothermal power station,30.0976,90.5072
People's Republic of China,Q148,http://www.wikidata.org/entity/Q17065664,Yangbajain Geothermal Power Station,Geothermal power station,,
Thailand,Q869,http://www.wikidata.org/entity/Q130599993,Fang Geothermal Power Plant,Geothermal power station,19.964444444,99.155277777
Nicaragua,Q811,http://www.wikidata.org/entity/Q111938346,San Jacinto Tizate Geothermal Power Plant,Geothermal power station,,
Italy,Q38,http://www.wikidata.org/entity/Q100705202,Larderello geothermal power plant,Geothermal power station,43.231888,10.884598
Italy,Q38,http://www.wikidata.org/entity/Q107636622,Bagnore 3,Geothermal power station,42.841802636,11.558572546
Austria,Q40,http://www.wikidata.org/entity/Q132473336,Q132473336,Geothermal power station,48.248373621,13.229684486
Netherlands,Q55,http://www.wikidata.org/entity/Q2431879,Minewater Project,Geothermal power station,,
Lithuania,Q37,http://www.wikidata.org/entity/Q6419605,Klaipėda Geothermal Demonstration Plant,Geothermal power station,55.68388889,21.20111111
Switzerland,Q39,http://www.wikidata.org/entity/Q132473388,Q132473388,Geothermal power station,47.587108,7.649462
Iran,Q794,http://www.wikidata.org/entity/Q6821299,Meshkinshahr Geothermal Power Plant,Geothermal power station,38.256435,47.741256
Uganda,Q1036,http://www.wikidata.org/entity/Q25226994,Buranga Geothermal Power Station,Geothermal power station,0.83305556,30.16694444
Chile,Q298,http://www.wikidata.org/entity/Q76762843,Cerro Pabellon Geothermal Power Plant,Geothermal power station,-21.8608,-68.1502
Croatia,Q224,http://www.wikidata.org/entity/Q85516428,Q85516428,Geothermal power station,45.8558286,16.9469339
El Salvador,Q792,http://www.wikidata.org/entity/Q85528607,Central Geotérmica Ahuachapán,Geothermal power station,13.919986111,-89.817202777
United Kingdom,Q145,http://www.wikidata.org/entity/Q108167126,Whitetail Clean Energy,Geothermal power station,54.575,-1.127
Portugal,Q45,http://www.wikidata.org/entity/Q105725776,Campo Geotérmico da Ribeira Grande,Geothermal power station,37.778989,-25.491018
