country_name,country_qid,entity,label,type,latitude,longitude
Denmark,Q35,http://www.wikidata.org/entity/Q351845,Konti-Skan,submarine power cable,,
Denmark,Q35,http://www.wikidata.org/entity/Q20962155,COBRAcable,submarine power cable,,
Denmark,Q35,http://www.wikidata.org/entity/Q5598748,Great Belt Power Link,submarine power cable,,
Norway,Q20,http://www.wikidata.org/entity/Q1563637,HVDC Troll,submarine power cable,,
Norway,Q20,http://www.wikidata.org/entity/Q631095,NorGer,submarine power cable,,
Norway,Q20,http://www.wikidata.org/entity/Q657166,NorNed,submarine power cable,,
Norway,Q20,http://www.wikidata.org/entity/Q7435717,Scotland–Norway interconnector,submarine power cable,,
Norway,Q20,http://www.wikidata.org/entity/Q131716924,Valhall HVDC,submarine power cable,,
Norway,Q20,http://www.wikidata.org/entity/Q131716936,Johan Sverdrup HVDC,submarine power cable,,
United Kingdom,Q145,http://www.wikidata.org/entity/Q117337803,Eastern Green Link 1,submarine power cable,,
United Kingdom,Q145,http://www.wikidata.org/entity/Q23041456,Nemo Link,submarine power cable,,
United Kingdom,Q145,http://www.wikidata.org/entity/Q7435717,Scotland–Norway interconnector,submarine power cable,,
United Kingdom,Q145,http://www.wikidata.org/entity/Q131560736,Dogger Bank A Export Cable,submarine power cable,,
United Kingdom,Q145,http://www.wikidata.org/entity/Q131560793,Dogger Bank B Export Cable,submarine power cable,,
United Kingdom,Q145,http://www.wikidata.org/entity/Q131572485,Sofia Wind Farm Export Cable,submarine power cable,,
United Kingdom,Q145,http://www.wikidata.org/entity/Q134731332,Dogger Bank C Export Cable,submarine power cable,,
United Kingdom,Q145,http://www.wikidata.org/entity/Q117337813,Scotland to England Green Link 2,submarine power cable,,
Germany,Q183,http://www.wikidata.org/entity/Q1602437,Q1602437,submarine power cable,,
Germany,Q183,http://www.wikidata.org/entity/Q28600334,Q28600334,submarine power cable,,
Germany,Q183,http://www.wikidata.org/entity/Q314180,Baltic Cable,submarine power cable,,
Germany,Q183,http://www.wikidata.org/entity/Q19599431,BorWin3,submarine power cable,,
Germany,Q183,http://www.wikidata.org/entity/Q19599434,HelWin2,submarine power cable,,
Germany,Q183,http://www.wikidata.org/entity/Q19599435,SylWin1,submarine power cable,,
Germany,Q183,http://www.wikidata.org/entity/Q631037,BorWin1,submarine power cable,,
Germany,Q183,http://www.wikidata.org/entity/Q631095,NorGer,submarine power cable,,
Germany,Q183,http://www.wikidata.org/entity/Q5636200,HelWin1,submarine power cable,,
Germany,Q183,http://www.wikidata.org/entity/Q23580988,BorWin2,submarine power cable,,
Germany,Q183,http://www.wikidata.org/entity/Q129015112,DolWin6,submarine power cable,,
Germany,Q183,http://www.wikidata.org/entity/Q131572524,DolWin5,submarine power cable,,
Germany,Q183,http://www.wikidata.org/entity/Q131572617,BorWin5,submarine power cable,,
Italy,Q38,http://www.wikidata.org/entity/Q2204736,HVDC Italy–Corsica–Sardinia,submarine power cable,,
Italy,Q38,http://www.wikidata.org/entity/Q3721949,Malta–Sicily interconnector,submarine power cable,,
Italy,Q38,http://www.wikidata.org/entity/Q3943420,SAPEI,submarine power cable,,
Italy,Q38,http://www.wikidata.org/entity/Q585906,HVDC Italy–Greece,submarine power cable,,
Italy,Q38,http://www.wikidata.org/entity/Q23746774,MON.ITA,submarine power cable,,
France,Q142,http://www.wikidata.org/entity/Q2204736,HVDC Italy–Corsica–Sardinia,submarine power cable,,
France,Q142,http://www.wikidata.org/entity/Q23041456,Nemo Link,submarine power cable,,
France,Q142,http://www.wikidata.org/entity/Q28154456,Celtic Interconnector,submarine power cable,,
France,Q142,http://www.wikidata.org/entity/Q131742422,Q131742422,submarine power cable,,
Sweden,Q34,http://www.wikidata.org/entity/Q1563629,HVDC Gotland,submarine power cable,,
Sweden,Q34,http://www.wikidata.org/entity/Q314180,Baltic Cable,submarine power cable,,
Sweden,Q34,http://www.wikidata.org/entity/Q351845,Konti-Skan,submarine power cable,,
Sweden,Q34,http://www.wikidata.org/entity/Q7050527,NordBalt,submarine power cable,,
Sweden,Q34,http://www.wikidata.org/entity/Q906852,Fenno–Skan,submarine power cable,,
Sweden,Q34,http://www.wikidata.org/entity/Q59795,SwePol,submarine power cable,,
Netherlands,Q55,http://www.wikidata.org/entity/Q657166,NorNed,submarine power cable,,
Netherlands,Q55,http://www.wikidata.org/entity/Q20962155,COBRAcable,submarine power cable,,
Netherlands,Q55,http://www.wikidata.org/entity/Q134730311,IJmuiden Ver Alpha Export Cable,submarine power cable,,
Netherlands,Q55,http://www.wikidata.org/entity/Q134730439,IJmuiden Ver Beta Export Cable,submarine power cable,,
Ireland,Q27,http://www.wikidata.org/entity/Q28154456,Celtic Interconnector,submarine power cable,,
Estonia,Q191,http://www.wikidata.org/entity/Q3735876,Estlink,submarine power cable,,
Estonia,Q191,http://www.wikidata.org/entity/Q131938906,Estlink 1,submarine power cable,,
Estonia,Q191,http://www.wikidata.org/entity/Q61404269,Estlink 2,submarine power cable,,
Finland,Q33,http://www.wikidata.org/entity/Q3735876,Estlink,submarine power cable,,
Finland,Q33,http://www.wikidata.org/entity/Q131938906,Estlink 1,submarine power cable,,
Finland,Q33,http://www.wikidata.org/entity/Q906852,Fenno–Skan,submarine power cable,,
Finland,Q33,http://www.wikidata.org/entity/Q61404269,Estlink 2,submarine power cable,,
Australia,Q408,http://www.wikidata.org/entity/Q810536,Basslink,submarine power cable,,
United States,Q30,http://www.wikidata.org/entity/Q3003771,Cross Sound Cable,submarine power cable,,
United States,Q30,http://www.wikidata.org/entity/Q7833656,Trans Bay Cable,submarine power cable,,
Cyprus,Q229,http://www.wikidata.org/entity/Q5411505,EuroAsia Interconnector,submarine power cable,,
Cyprus,Q229,http://www.wikidata.org/entity/Q48527345,EuroAfrica Interconnector,submarine power cable,,
Egypt,Q79,http://www.wikidata.org/entity/Q18393782,Red Sea Cable,submarine power cable,,
Egypt,Q79,http://www.wikidata.org/entity/Q48527345,EuroAfrica Interconnector,submarine power cable,,
Greece,Q41,http://www.wikidata.org/entity/Q585906,HVDC Italy–Greece,submarine power cable,,
Greece,Q41,http://www.wikidata.org/entity/Q5411505,EuroAsia Interconnector,submarine power cable,,
Greece,Q41,http://www.wikidata.org/entity/Q131715438,Crete-Attica interconnection,submarine power cable,,
Greece,Q41,http://www.wikidata.org/entity/Q48527345,EuroAfrica Interconnector,submarine power cable,,
Malta,Q233,http://www.wikidata.org/entity/Q3721949,Malta–Sicily interconnector,submarine power cable,,
Belgium,Q31,http://www.wikidata.org/entity/Q23041456,Nemo Link,submarine power cable,,
Israel,Q801,http://www.wikidata.org/entity/Q5411505,EuroAsia Interconnector,submarine power cable,,
Poland,Q36,http://www.wikidata.org/entity/Q59795,SwePol,submarine power cable,,
Japan,Q17,http://www.wikidata.org/entity/Q11604963,Kii Channel HVDC system,submarine power cable,,
Lithuania,Q37,http://www.wikidata.org/entity/Q7050527,NordBalt,submarine power cable,,
Jordan,Q810,http://www.wikidata.org/entity/Q18393782,Red Sea Cable,submarine power cable,,
Spain,Q29,http://www.wikidata.org/entity/Q5151636,Cometa,submarine power cable,,
Montenegro,Q236,http://www.wikidata.org/entity/Q23746774,MON.ITA,submarine power cable,,
Taiwan,Q865,http://www.wikidata.org/entity/Q128206717,Taiwan-Penghu 161kV Power Cable,submarine power cable,,
South Korea,Q884,http://www.wikidata.org/entity/Q25036702,Jindo–Jeju HVDC system,submarine power cable,,
