country_name,country_qid,entity,label,type,latitude,longitude
Canada,Q16,http://www.wikidata.org/entity/Q11961152,Q11961152,Hydroelectric power station,,
Canada,Q16,http://www.wikidata.org/entity/Q11962046,Q11962046,Hydroelectric power station,,
Canada,Q16,http://www.wikidata.org/entity/Q11964033,Q11964033,Hydroelectric power station,,
Canada,Q16,http://www.wikidata.org/entity/Q11964138,Q11964138,Hydroelectric power station,,
Canada,Q16,http://www.wikidata.org/entity/Q11964998,Q11964998,Hydroelectric power station,,
Canada,Q16,http://www.wikidata.org/entity/Q11972469,Q11972469,Hydroelectric power station,,
Canada,Q16,http://www.wikidata.org/entity/Q11977522,Q11977522,Hydroelectric power station,,
Canada,Q16,http://www.wikidata.org/entity/Q11977592,Q11977592,Hydroelectric power station,,
Canada,Q16,http://www.wikidata.org/entity/Q11980532,Q11980532,Hydroelectric power station,,
Canada,Q16,http://www.wikidata.org/entity/Q11989112,Q11989112,Hydroelectric power station,,
Canada,Q16,http://www.wikidata.org/entity/Q11992698,Q11992698,Hydroelectric power station,,
Canada,Q16,http://www.wikidata.org/entity/Q11997301,Q11997301,Hydroelectric power station,,
Canada,Q16,http://www.wikidata.org/entity/Q12010592,Q12010592,Hydroelectric power station,,
Canada,Q16,http://www.wikidata.org/entity/Q17750734,Q17750734,Hydroelectric power station,,
Canada,Q16,http://www.wikidata.org/entity/Q17772408,Q17772408,Hydroelectric power station,,
Canada,Q16,http://www.wikidata.org/entity/Q17778300,Q17778300,Hydroelectric power station,,
Canada,Q16,http://www.wikidata.org/entity/Q19377063,Q19377063,Hydroelectric power station,,
Canada,Q16,http://www.wikidata.org/entity/Q19380964,Q19380964,Hydroelectric power station,,
Canada,Q16,http://www.wikidata.org/entity/Q19381153,Q19381153,Hydroelectric power station,,
Canada,Q16,http://www.wikidata.org/entity/Q19388289,Q19388289,Hydroelectric power station,,
Canada,Q16,http://www.wikidata.org/entity/Q19389986,Q19389986,Hydroelectric power station,,
Canada,Q16,http://www.wikidata.org/entity/Q19393604,Q19393604,Hydroelectric power station,,
Canada,Q16,http://www.wikidata.org/entity/Q11971977,Gillam Island hydroelectric power station,Hydroelectric power station,,
United States,Q30,http://www.wikidata.org/entity/Q6475736,Lake Elsinore Advanced Pumped Storage,Hydroelectric power station,,
United States,Q30,http://www.wikidata.org/entity/Q28407155,Gordon Butte Pumped Storage Project,Hydroelectric power station,,
United States,Q30,http://www.wikidata.org/entity/Q85793907,Pomona Water Powerplant,Hydroelectric power station,,
United States,Q30,http://www.wikidata.org/entity/Q96146249,Lowell Hydroelectric Project,Hydroelectric power station,,
United States,Q30,http://www.wikidata.org/entity/Q132449917,Twin Falls Hydroelectric Plant,Hydroelectric power station,,
Germany,Q183,http://www.wikidata.org/entity/Q1370389,Illerkraftwerke,Hydroelectric power station,,
Germany,Q183,http://www.wikidata.org/entity/Q64140674,Donau-Staustufe Oberelchingen,Hydroelectric power station,,
Germany,Q183,http://www.wikidata.org/entity/Q1572704,Uppenbornwerke,Hydroelectric power station,,
Germany,Q183,http://www.wikidata.org/entity/Q73423398,Q73423398,Hydroelectric power station,,
Germany,Q183,http://www.wikidata.org/entity/Q67792280,Q67792280,Hydroelectric power station,,
Germany,Q183,http://www.wikidata.org/entity/Q67792097,Q67792097,Hydroelectric power station,,
Germany,Q183,http://www.wikidata.org/entity/Q96807763,Q96807763,Hydroelectric power station,,
Germany,Q183,http://www.wikidata.org/entity/Q107559342,Q107559342,Hydroelectric power station,,
Germany,Q183,http://www.wikidata.org/entity/Q107599427,Q107599427,Hydroelectric power station,,
Germany,Q183,http://www.wikidata.org/entity/Q107599356,Q107599356,Hydroelectric power station,,
Germany,Q183,http://www.wikidata.org/entity/Q107558009,Q107558009,Hydroelectric power station,,
Germany,Q183,http://www.wikidata.org/entity/Q107558352,Q107558352,Hydroelectric power station,,
Germany,Q183,http://www.wikidata.org/entity/Q134884634,Wasserkraftwerk Steinhelle 1,Hydroelectric power station,,
India,Q668,http://www.wikidata.org/entity/Q11987998,Q11987998,Hydroelectric power station,,
India,Q668,http://www.wikidata.org/entity/Q12012014,Q12012014,Hydroelectric power station,,
India,Q668,http://www.wikidata.org/entity/Q11959974,Badrinath Hydro Power Station,Hydroelectric power station,,
India,Q668,http://www.wikidata.org/entity/Q11994691,Pancheswar,Hydroelectric power station,,
India,Q668,http://www.wikidata.org/entity/Q6375959,Kateri hydroelectric system,Hydroelectric power station,,
India,Q668,http://www.wikidata.org/entity/Q6755080,Maravakandy hydro-electric power house,Hydroelectric power station,,
India,Q668,http://www.wikidata.org/entity/Q7448362,Seli Hydro Electric Power Project,Hydroelectric power station,,
India,Q668,http://www.wikidata.org/entity/Q7509497,Sidrapong Hydel Power Station,Hydroelectric power station,,
India,Q668,http://www.wikidata.org/entity/Q24948453,Shahpurkandi dam project,Hydroelectric power station,,
India,Q668,http://www.wikidata.org/entity/Q131150338,Polavaram Dam,Hydroelectric power station,,
India,Q668,http://www.wikidata.org/entity/Q111031772,Q111031772,Hydroelectric power station,,
Japan,Q17,http://www.wikidata.org/entity/Q56348999,Nishikatsuhara 2 hydro power station,Hydroelectric power station,,
Japan,Q17,http://www.wikidata.org/entity/Q124709156,Q124709156,Hydroelectric power station,,
Japan,Q17,http://www.wikidata.org/entity/Q85883643,Nishikatsuhara 1 hydro power station,Hydroelectric power station,,
Japan,Q17,http://www.wikidata.org/entity/Q97203784,Tamano hydro power station,Hydroelectric power station,,
Japan,Q17,http://www.wikidata.org/entity/Q97460974,Tochio Power Station,Hydroelectric power station,,
Japan,Q17,http://www.wikidata.org/entity/Q109596725,Muro Power Plant,Hydroelectric power station,,
Japan,Q17,http://www.wikidata.org/entity/Q116694693,hydroelectric power stations of Ibiden,Hydroelectric power station,,
Japan,Q17,http://www.wikidata.org/entity/Q118330397,Yushima Power Station,Hydroelectric power station,,
Japan,Q17,http://www.wikidata.org/entity/Q11428747,Q11428747,Hydroelectric power station,,
Japan,Q17,http://www.wikidata.org/entity/Q11535056,Q11535056,Hydroelectric power station,,
Japan,Q17,http://www.wikidata.org/entity/Q11538709,Q11538709,Hydroelectric power station,,
Japan,Q17,http://www.wikidata.org/entity/Q11566748,Q11566748,Hydroelectric power station,,
Japan,Q17,http://www.wikidata.org/entity/Q11993275,Q11993275,Hydroelectric power station,,
Japan,Q17,http://www.wikidata.org/entity/Q22119293,Q22119293,Hydroelectric power station,,
Japan,Q17,http://www.wikidata.org/entity/Q11355174,Sankyozawa Power Station,Hydroelectric power station,,
Japan,Q17,http://www.wikidata.org/entity/Q11365046,Nakabusa 4 hydro power station,Hydroelectric power station,,
Japan,Q17,http://www.wikidata.org/entity/Q11365044,Nakabusa 5 hydro power station,Hydroelectric power station,,
Japan,Q17,http://www.wikidata.org/entity/Q11428791,Shiobitashi hydro power station,Hydroelectric power station,,
Japan,Q17,http://www.wikidata.org/entity/Q11453991,Miyagi 2 hydro power station,Hydroelectric power station,,
Japan,Q17,http://www.wikidata.org/entity/Q11453992,Miyagi 3 hydro power station,Hydroelectric power station,,
Japan,Q17,http://www.wikidata.org/entity/Q11475338,Iwazu hydro power station,Hydroelectric power station,,
Japan,Q17,http://www.wikidata.org/entity/Q11565042,Takinoue Power Station,Hydroelectric power station,,
Japan,Q17,http://www.wikidata.org/entity/Q11567230,Karasukawa 2 hydro power station,Hydroelectric power station,,
Japan,Q17,http://www.wikidata.org/entity/Q11567228,Karasukawa 1 hydro power station,Hydroelectric power station,,
Japan,Q17,http://www.wikidata.org/entity/Q11567229,Karasukawa 3 hydro power station,Hydroelectric power station,,
Japan,Q17,http://www.wikidata.org/entity/Q11627882,Nishiyama Power Station,Hydroelectric power station,,
Japan,Q17,http://www.wikidata.org/entity/Q28689655,Q28689655,Hydroelectric power station,,
Japan,Q17,http://www.wikidata.org/entity/Q22120956,Todai hydro power station,Hydroelectric power station,,
Sweden,Q34,http://www.wikidata.org/entity/Q10437064,Q10437064,Hydroelectric power station,,
Sweden,Q34,http://www.wikidata.org/entity/Q11982617,Q11982617,Hydroelectric power station,,
Sweden,Q34,http://www.wikidata.org/entity/Q11959776,Avesta Storfors kraftverk,Hydroelectric power station,,
Sweden,Q34,http://www.wikidata.org/entity/Q122758898,Q122758898,Hydroelectric power station,,
Sweden,Q34,http://www.wikidata.org/entity/Q122759000,Q122759000,Hydroelectric power station,,
Sweden,Q34,http://www.wikidata.org/entity/Q122759092,Q122759092,Hydroelectric power station,,
Sweden,Q34,http://www.wikidata.org/entity/Q122759172,Q122759172,Hydroelectric power station,,
Sweden,Q34,http://www.wikidata.org/entity/Q122762942,Q122762942,Hydroelectric power station,,
Sweden,Q34,http://www.wikidata.org/entity/Q122763241,Q122763241,Hydroelectric power station,,
Sweden,Q34,http://www.wikidata.org/entity/Q122763441,Q122763441,Hydroelectric power station,,
Sweden,Q34,http://www.wikidata.org/entity/Q122764975,Q122764975,Hydroelectric power station,,
Sweden,Q34,http://www.wikidata.org/entity/Q122765108,Q122765108,Hydroelectric power station,,
Sweden,Q34,http://www.wikidata.org/entity/Q122765306,Q122765306,Hydroelectric power station,,
Sweden,Q34,http://www.wikidata.org/entity/Q122765603,Q122765603,Hydroelectric power station,,
Sweden,Q34,http://www.wikidata.org/entity/Q122765647,Q122765647,Hydroelectric power station,,
Sweden,Q34,http://www.wikidata.org/entity/Q122765692,Q122765692,Hydroelectric power station,,
Sweden,Q34,http://www.wikidata.org/entity/Q122780440,Q122780440,Hydroelectric power station,,
Sweden,Q34,http://www.wikidata.org/entity/Q122781179,Q122781179,Hydroelectric power station,,
Sweden,Q34,http://www.wikidata.org/entity/Q122781206,Q122781206,Hydroelectric power station,,
Sweden,Q34,http://www.wikidata.org/entity/Q122781598,Q122781598,Hydroelectric power station,,
Sweden,Q34,http://www.wikidata.org/entity/Q123374920,Q123374920,Hydroelectric power station,,
Sweden,Q34,http://www.wikidata.org/entity/Q123862669,Q123862669,Hydroelectric power station,,
Sweden,Q34,http://www.wikidata.org/entity/Q108981356,Q108981356,Hydroelectric power station,,
Sweden,Q34,http://www.wikidata.org/entity/Q17748609,Q17748609,Hydroelectric power station,,
Sweden,Q34,http://www.wikidata.org/entity/Q19378265,Q19378265,Hydroelectric power station,,
Sweden,Q34,http://www.wikidata.org/entity/Q19382183,Q19382183,Hydroelectric power station,,
Sweden,Q34,http://www.wikidata.org/entity/Q19386186,Q19386186,Hydroelectric power station,,
Sweden,Q34,http://www.wikidata.org/entity/Q19392828,Q19392828,Hydroelectric power station,,
Sweden,Q34,http://www.wikidata.org/entity/Q26256980,Q26256980,Hydroelectric power station,,
Sweden,Q34,http://www.wikidata.org/entity/Q31871324,Q31871324,Hydroelectric power station,,
Sweden,Q34,http://www.wikidata.org/entity/Q31899155,Q31899155,Hydroelectric power station,,
Sweden,Q34,http://www.wikidata.org/entity/Q49097405,Q49097405,Hydroelectric power station,,
Sweden,Q34,http://www.wikidata.org/entity/Q49097471,Q49097471,Hydroelectric power station,,
Sweden,Q34,http://www.wikidata.org/entity/Q49097469,Q49097469,Hydroelectric power station,,
Sweden,Q34,http://www.wikidata.org/entity/Q56301362,Q56301362,Hydroelectric power station,,
Sweden,Q34,http://www.wikidata.org/entity/Q49097414,Ålsätra kraftstation,Hydroelectric power station,,
Sweden,Q34,http://www.wikidata.org/entity/Q49098589,Laforsen Hydroelectric Power Plant,Hydroelectric power station,,
Norway,Q20,http://www.wikidata.org/entity/Q11992851,Q11992851,Hydroelectric power station,,
Norway,Q20,http://www.wikidata.org/entity/Q19378977,Q19378977,Hydroelectric power station,,
Norway,Q20,http://www.wikidata.org/entity/Q19379061,Q19379061,Hydroelectric power station,,
Norway,Q20,http://www.wikidata.org/entity/Q11976558,Q11976558,Hydroelectric power station,,
Norway,Q20,http://www.wikidata.org/entity/Q11962416,Q11962416,Hydroelectric power station,,
Norway,Q20,http://www.wikidata.org/entity/Q93483596,Q93483596,Hydroelectric power station,,
Norway,Q20,http://www.wikidata.org/entity/Q76814420,Steindal power station,Hydroelectric power station,,
Norway,Q20,http://www.wikidata.org/entity/Q76815346,Skakadalen power station,Hydroelectric power station,,
Norway,Q20,http://www.wikidata.org/entity/Q123680479,Maudal Lower Power Station,Hydroelectric power station,,
Norway,Q20,http://www.wikidata.org/entity/Q116733188,Q116733188,Hydroelectric power station,,
Norway,Q20,http://www.wikidata.org/entity/Q131148841,Q131148841,Hydroelectric power station,,
Brazil,Q155,http://www.wikidata.org/entity/Q9068118,Q9068118,Hydroelectric power station,,
Brazil,Q155,http://www.wikidata.org/entity/Q10295903,Q10295903,Hydroelectric power station,,
Brazil,Q155,http://www.wikidata.org/entity/Q10348439,Q10348439,Hydroelectric power station,,
Brazil,Q155,http://www.wikidata.org/entity/Q10388347,Q10388347,Hydroelectric power station,,
Brazil,Q155,http://www.wikidata.org/entity/Q10388350,Q10388350,Hydroelectric power station,,
Brazil,Q155,http://www.wikidata.org/entity/Q10388352,Q10388352,Hydroelectric power station,,
Brazil,Q155,http://www.wikidata.org/entity/Q10388358,Q10388358,Hydroelectric power station,,
Brazil,Q155,http://www.wikidata.org/entity/Q10388366,Q10388366,Hydroelectric power station,,
Brazil,Q155,http://www.wikidata.org/entity/Q10388372,Q10388372,Hydroelectric power station,,
Brazil,Q155,http://www.wikidata.org/entity/Q10388381,Q10388381,Hydroelectric power station,,
Brazil,Q155,http://www.wikidata.org/entity/Q10388390,Q10388390,Hydroelectric power station,,
Brazil,Q155,http://www.wikidata.org/entity/Q10388388,Q10388388,Hydroelectric power station,,
Brazil,Q155,http://www.wikidata.org/entity/Q10388394,Q10388394,Hydroelectric power station,,
Brazil,Q155,http://www.wikidata.org/entity/Q10388392,Q10388392,Hydroelectric power station,,
Brazil,Q155,http://www.wikidata.org/entity/Q10388393,Q10388393,Hydroelectric power station,,
Brazil,Q155,http://www.wikidata.org/entity/Q10388430,Q10388430,Hydroelectric power station,,
Brazil,Q155,http://www.wikidata.org/entity/Q10388439,Q10388439,Hydroelectric power station,,
Brazil,Q155,http://www.wikidata.org/entity/Q10388445,Q10388445,Hydroelectric power station,,
Brazil,Q155,http://www.wikidata.org/entity/Q10388448,Q10388448,Hydroelectric power station,,
Brazil,Q155,http://www.wikidata.org/entity/Q10388415,Itapiranga Power Plant,Hydroelectric power station,,
Brazil,Q155,http://www.wikidata.org/entity/Q65174622,Q65174622,Hydroelectric power station,,
Brazil,Q155,http://www.wikidata.org/entity/Q65174620,Q65174620,Hydroelectric power station,,
Brazil,Q155,http://www.wikidata.org/entity/Q65174625,Q65174625,Hydroelectric power station,,
Brazil,Q155,http://www.wikidata.org/entity/Q65174631,Q65174631,Hydroelectric power station,,
Brazil,Q155,http://www.wikidata.org/entity/Q65174628,Q65174628,Hydroelectric power station,,
Brazil,Q155,http://www.wikidata.org/entity/Q65174633,Q65174633,Hydroelectric power station,,
Brazil,Q155,http://www.wikidata.org/entity/Q110496758,Usina do Carioca,Hydroelectric power station,,
Brazil,Q155,http://www.wikidata.org/entity/Q126500866,Q126500866,Hydroelectric power station,,
Brazil,Q155,http://www.wikidata.org/entity/Q126560029,Q126560029,Hydroelectric power station,,
Brazil,Q155,http://www.wikidata.org/entity/Q10388476,Q10388476,Hydroelectric power station,,
Brazil,Q155,http://www.wikidata.org/entity/Q18465415,Q18465415,Hydroelectric power station,,
Brazil,Q155,http://www.wikidata.org/entity/Q18469646,Q18469646,Hydroelectric power station,,
Brazil,Q155,http://www.wikidata.org/entity/Q18469677,Q18469677,Hydroelectric power station,,
Brazil,Q155,http://www.wikidata.org/entity/Q18469791,Q18469791,Hydroelectric power station,,
Brazil,Q155,http://www.wikidata.org/entity/Q20061065,Q20061065,Hydroelectric power station,,
Brazil,Q155,http://www.wikidata.org/entity/Q25448725,Q25448725,Hydroelectric power station,,
Brazil,Q155,http://www.wikidata.org/entity/Q30937329,Q30937329,Hydroelectric power station,,
Brazil,Q155,http://www.wikidata.org/entity/Q130493492,Itaipu Power Plant,Hydroelectric power station,,
Brazil,Q155,http://www.wikidata.org/entity/Q133842730,Guaporé Hydroelectric Plant,Hydroelectric power station,,
Brazil,Q155,http://www.wikidata.org/entity/Q133842735,Nova Guaporé Hydroelectric Plant,Hydroelectric power station,,
Brazil,Q155,http://www.wikidata.org/entity/Q133842762,Antônio Brennend Hydroelectric Plant,Hydroelectric power station,,
Brazil,Q155,http://www.wikidata.org/entity/Q133842772,Jauru hydroelectric plant,Hydroelectric power station,,
Brazil,Q155,http://www.wikidata.org/entity/Q133842796,Ombreiras hydroelectric plant,Hydroelectric power station,,
Brazil,Q155,http://www.wikidata.org/entity/Q133842833,Juba I Hydroelectric Plant,Hydroelectric power station,,
Brazil,Q155,http://www.wikidata.org/entity/Q133842856,Pampeana Hydroelectric Plant,Hydroelectric power station,,
Brazil,Q155,http://www.wikidata.org/entity/Q133842861,Cidezal hydroelectric plant,Hydroelectric power station,,
Brazil,Q155,http://www.wikidata.org/entity/Q133842868,Jesuita hydroelectric plant,Hydroelectric power station,,
Brazil,Q155,http://www.wikidata.org/entity/Q133842885,Juí 117 hydroelectric plant,Hydroelectric power station,,
Brazil,Q155,http://www.wikidata.org/entity/Q133842914,Segredo Hydroelectric Plant,Hydroelectric power station,,
Brazil,Q155,http://www.wikidata.org/entity/Q133842920,Ilha Comprida hydroelectric plant,Hydroelectric power station,,
Brazil,Q155,http://www.wikidata.org/entity/Q133842974,Bocaiúva hydroelectric power plant,Hydroelectric power station,,
Brazil,Q155,http://www.wikidata.org/entity/Q133842994,Garganta da Jararaca hydroelectric power plant,Hydroelectric power station,,
Brazil,Q155,http://www.wikidata.org/entity/Q133843002,Inxú hydroelectric power plant,Hydroelectric power station,,
Brazil,Q155,http://www.wikidata.org/entity/Q133843037,Baruíto Hydroelectric Power Plant,Hydroelectric power station,,
Switzerland,Q39,http://www.wikidata.org/entity/Q85786866,Mubisa power station,Hydroelectric power station,,
Switzerland,Q39,http://www.wikidata.org/entity/Q19384289,Q19384289,Hydroelectric power station,,
Switzerland,Q39,http://www.wikidata.org/entity/Q1371993,Etzelwerk,Hydroelectric power station,,
Switzerland,Q39,http://www.wikidata.org/entity/Q11977332,Innertkirchen Power Plant,Hydroelectric power station,,
Italy,Q38,http://www.wikidata.org/entity/Q3664543,Q3664543,Hydroelectric power station,,
Italy,Q38,http://www.wikidata.org/entity/Q3664546,Q3664546,Hydroelectric power station,,
Italy,Q38,http://www.wikidata.org/entity/Q3664551,Q3664551,Hydroelectric power station,,
Italy,Q38,http://www.wikidata.org/entity/Q3664562,Q3664562,Hydroelectric power station,,
Italy,Q38,http://www.wikidata.org/entity/Q3664575,Q3664575,Hydroelectric power station,,
Italy,Q38,http://www.wikidata.org/entity/Q3664573,Q3664573,Hydroelectric power station,,
Italy,Q38,http://www.wikidata.org/entity/Q3664577,Q3664577,Hydroelectric power station,,
Italy,Q38,http://www.wikidata.org/entity/Q3664584,Q3664584,Hydroelectric power station,,
Italy,Q38,http://www.wikidata.org/entity/Q3664590,Q3664590,Hydroelectric power station,,
Italy,Q38,http://www.wikidata.org/entity/Q3664588,Q3664588,Hydroelectric power station,,
Italy,Q38,http://www.wikidata.org/entity/Q3664596,Q3664596,Hydroelectric power station,,
Italy,Q38,http://www.wikidata.org/entity/Q3664605,Q3664605,Hydroelectric power station,,
Italy,Q38,http://www.wikidata.org/entity/Q3664550,Aymavilles power plant,Hydroelectric power station,,
Italy,Q38,http://www.wikidata.org/entity/Q3664572,centrale idroelettrica di Isollaz,Hydroelectric power station,,
Italy,Q38,http://www.wikidata.org/entity/Q3664594,Centrale idroelettrica di San Mauro Torinese,Hydroelectric power station,,
Italy,Q38,http://www.wikidata.org/entity/Q3664569,hydroelectric power station of Gressoney,Hydroelectric power station,,
Italy,Q38,http://www.wikidata.org/entity/Q3664574,Issime power plan,Hydroelectric power station,,
Italy,Q38,http://www.wikidata.org/entity/Q56404458,Galleto hydroelectric power station,Hydroelectric power station,,
Italy,Q38,http://www.wikidata.org/entity/Q58188365,Centrale Malga Mare,Hydroelectric power station,,
Italy,Q38,http://www.wikidata.org/entity/Q134577450,Q134577450,Hydroelectric power station,,
Italy,Q38,http://www.wikidata.org/entity/Q116763989,Q116763989,Hydroelectric power station,,
Italy,Q38,http://www.wikidata.org/entity/Q116763992,Q116763992,Hydroelectric power station,,
Italy,Q38,http://www.wikidata.org/entity/Q120752859,Forze Idrauliche dell'Appennino Centrale,Hydroelectric power station,,
Spain,Q29,http://www.wikidata.org/entity/Q97630776,Central Hidroeléctrica Eclectra Guzmán,Hydroelectric power station,,
Spain,Q29,http://www.wikidata.org/entity/Q97630777,Central Hidroeléctrica Piedra Romera,Hydroelectric power station,,
Spain,Q29,http://www.wikidata.org/entity/Q97630795,Central Hidroeléctrica Castillo de San Marcos,Hydroelectric power station,,
Spain,Q29,http://www.wikidata.org/entity/Q97630794,Central Hidroeléctrica San Manuel en Arbuniel,Hydroelectric power station,,
Spain,Q29,http://www.wikidata.org/entity/Q97630799,Central Hidroeléctrica Nuestra Señora de los Ángeles,Hydroelectric power station,,
Spain,Q29,http://www.wikidata.org/entity/Q97630802,Central Hidroeléctrica Palomarejo,Hydroelectric power station,,
Spain,Q29,http://www.wikidata.org/entity/Q97630800,Central Hidroeléctrica Molino Viejo,Hydroelectric power station,,
Spain,Q29,http://www.wikidata.org/entity/Q97630804,Central Hidroeléctrica Puente de la Sierra,Hydroelectric power station,,
Spain,Q29,http://www.wikidata.org/entity/Q97630811,Central Hidroeléctrica Las Veguetas,Hydroelectric power station,,
Spain,Q29,http://www.wikidata.org/entity/Q97630814,Central Hidroeléctrica Río Frío,Hydroelectric power station,,
Spain,Q29,http://www.wikidata.org/entity/Q97630815,Central Hidroeléctrica Garcíez,Hydroelectric power station,,
Spain,Q29,http://www.wikidata.org/entity/Q97630819,Central Hidroeléctrica Nuestra Señora de Tiscar,Hydroelectric power station,,
Spain,Q29,http://www.wikidata.org/entity/Q97630816,Central Hidroeléctrica El Arquillo,Hydroelectric power station,,
Spain,Q29,http://www.wikidata.org/entity/Q97630817,Central Hidroeléctrica La Canal,Hydroelectric power station,,
Spain,Q29,http://www.wikidata.org/entity/Q97630978,Central Hidroeléctrica El Despeñadero en Bobadilla,Hydroelectric power station,,
Spain,Q29,http://www.wikidata.org/entity/Q97630991,Central Hidroeléctrica Santísima Trinidad en Arbuniel,Hydroelectric power station,,
Spain,Q29,http://www.wikidata.org/entity/Q97630988,Central Hidroeléctrica San José,Hydroelectric power station,,
Spain,Q29,http://www.wikidata.org/entity/Q97652457,Central Hidroeléctrica Puente Nuevo,Hydroelectric power station,,
Spain,Q29,http://www.wikidata.org/entity/Q98059635,Q98059635,Hydroelectric power station,,
Spain,Q29,http://www.wikidata.org/entity/Q115185472,Q115185472,Hydroelectric power station,,
Spain,Q29,http://www.wikidata.org/entity/Q117770923,Q117770923,Hydroelectric power station,,
Spain,Q29,http://www.wikidata.org/entity/Q5760801,Q5760801,Hydroelectric power station,,
Spain,Q29,http://www.wikidata.org/entity/Q12262129,Q12262129,Hydroelectric power station,,
Spain,Q29,http://www.wikidata.org/entity/Q24279041,Q24279041,Hydroelectric power station,,
France,Q142,http://www.wikidata.org/entity/Q100968997,Barrage des Combes,Hydroelectric power station,,
France,Q142,http://www.wikidata.org/entity/Q124799011,Q124799011,Hydroelectric power station,,
Vietnam,Q881,http://www.wikidata.org/entity/Q30919639,Q30919639,Hydroelectric power station,,
Vietnam,Q881,http://www.wikidata.org/entity/Q30919659,Q30919659,Hydroelectric power station,,
Vietnam,Q881,http://www.wikidata.org/entity/Q30919698,Q30919698,Hydroelectric power station,,
Vietnam,Q881,http://www.wikidata.org/entity/Q30919703,Q30919703,Hydroelectric power station,,
Vietnam,Q881,http://www.wikidata.org/entity/Q30919706,Q30919706,Hydroelectric power station,,
Vietnam,Q881,http://www.wikidata.org/entity/Q30919713,Q30919713,Hydroelectric power station,,
Vietnam,Q881,http://www.wikidata.org/entity/Q30919718,Q30919718,Hydroelectric power station,,
Vietnam,Q881,http://www.wikidata.org/entity/Q30919719,Q30919719,Hydroelectric power station,,
Vietnam,Q881,http://www.wikidata.org/entity/Q30919726,Q30919726,Hydroelectric power station,,
Vietnam,Q881,http://www.wikidata.org/entity/Q30919729,Q30919729,Hydroelectric power station,,
Vietnam,Q881,http://www.wikidata.org/entity/Q30920179,Q30920179,Hydroelectric power station,,
Vietnam,Q881,http://www.wikidata.org/entity/Q30920290,Q30920290,Hydroelectric power station,,
Vietnam,Q881,http://www.wikidata.org/entity/Q30920295,Q30920295,Hydroelectric power station,,
Vietnam,Q881,http://www.wikidata.org/entity/Q30920347,Q30920347,Hydroelectric power station,,
Vietnam,Q881,http://www.wikidata.org/entity/Q30920359,Q30920359,Hydroelectric power station,,
Vietnam,Q881,http://www.wikidata.org/entity/Q30920382,Q30920382,Hydroelectric power station,,
Vietnam,Q881,http://www.wikidata.org/entity/Q30920383,Q30920383,Hydroelectric power station,,
Vietnam,Q881,http://www.wikidata.org/entity/Q30920386,Q30920386,Hydroelectric power station,,
Vietnam,Q881,http://www.wikidata.org/entity/Q30920403,Q30920403,Hydroelectric power station,,
Vietnam,Q881,http://www.wikidata.org/entity/Q30920416,Q30920416,Hydroelectric power station,,
Vietnam,Q881,http://www.wikidata.org/entity/Q30920447,Q30920447,Hydroelectric power station,,
Vietnam,Q881,http://www.wikidata.org/entity/Q30920455,Q30920455,Hydroelectric power station,,
Vietnam,Q881,http://www.wikidata.org/entity/Q30920453,Q30920453,Hydroelectric power station,,
Vietnam,Q881,http://www.wikidata.org/entity/Q30920459,Q30920459,Hydroelectric power station,,
Vietnam,Q881,http://www.wikidata.org/entity/Q30920460,Q30920460,Hydroelectric power station,,
Vietnam,Q881,http://www.wikidata.org/entity/Q30920464,Q30920464,Hydroelectric power station,,
Vietnam,Q881,http://www.wikidata.org/entity/Q30920468,Q30920468,Hydroelectric power station,,
Vietnam,Q881,http://www.wikidata.org/entity/Q30920502,Q30920502,Hydroelectric power station,,
Vietnam,Q881,http://www.wikidata.org/entity/Q30920501,Q30920501,Hydroelectric power station,,
Vietnam,Q881,http://www.wikidata.org/entity/Q30920507,Q30920507,Hydroelectric power station,,
Vietnam,Q881,http://www.wikidata.org/entity/Q30920518,Q30920518,Hydroelectric power station,,
Vietnam,Q881,http://www.wikidata.org/entity/Q30920523,Q30920523,Hydroelectric power station,,
Vietnam,Q881,http://www.wikidata.org/entity/Q30920536,Q30920536,Hydroelectric power station,,
Vietnam,Q881,http://www.wikidata.org/entity/Q30920717,Q30920717,Hydroelectric power station,,
Vietnam,Q881,http://www.wikidata.org/entity/Q30920772,Q30920772,Hydroelectric power station,,
Vietnam,Q881,http://www.wikidata.org/entity/Q30920773,Q30920773,Hydroelectric power station,,
Vietnam,Q881,http://www.wikidata.org/entity/Q30920785,Q30920785,Hydroelectric power station,,
Vietnam,Q881,http://www.wikidata.org/entity/Q30920873,Q30920873,Hydroelectric power station,,
Vietnam,Q881,http://www.wikidata.org/entity/Q30920913,Q30920913,Hydroelectric power station,,
Vietnam,Q881,http://www.wikidata.org/entity/Q30923402,Q30923402,Hydroelectric power station,,
Vietnam,Q881,http://www.wikidata.org/entity/Q86012207,Q86012207,Hydroelectric power station,,
Vietnam,Q881,http://www.wikidata.org/entity/Q86012204,Q86012204,Hydroelectric power station,,
Vietnam,Q881,http://www.wikidata.org/entity/Q86012205,Q86012205,Hydroelectric power station,,
Vietnam,Q881,http://www.wikidata.org/entity/Q86012209,Q86012209,Hydroelectric power station,,
Vietnam,Q881,http://www.wikidata.org/entity/Q86012215,Q86012215,Hydroelectric power station,,
Vietnam,Q881,http://www.wikidata.org/entity/Q86012212,Q86012212,Hydroelectric power station,,
Vietnam,Q881,http://www.wikidata.org/entity/Q97161432,Q97161432,Hydroelectric power station,,
Vietnam,Q881,http://www.wikidata.org/entity/Q97161442,Q97161442,Hydroelectric power station,,
Vietnam,Q881,http://www.wikidata.org/entity/Q97161448,Q97161448,Hydroelectric power station,,
Vietnam,Q881,http://www.wikidata.org/entity/Q97161462,Q97161462,Hydroelectric power station,,
Vietnam,Q881,http://www.wikidata.org/entity/Q97164497,Q97164497,Hydroelectric power station,,
Vietnam,Q881,http://www.wikidata.org/entity/Q97164506,Q97164506,Hydroelectric power station,,
Vietnam,Q881,http://www.wikidata.org/entity/Q97164521,Q97164521,Hydroelectric power station,,
Vietnam,Q881,http://www.wikidata.org/entity/Q97164530,Q97164530,Hydroelectric power station,,
Vietnam,Q881,http://www.wikidata.org/entity/Q97164537,Q97164537,Hydroelectric power station,,
Vietnam,Q881,http://www.wikidata.org/entity/Q97164550,Q97164550,Hydroelectric power station,,
Vietnam,Q881,http://www.wikidata.org/entity/Q97166232,Q97166232,Hydroelectric power station,,
Vietnam,Q881,http://www.wikidata.org/entity/Q97166243,Q97166243,Hydroelectric power station,,
Vietnam,Q881,http://www.wikidata.org/entity/Q97167376,Q97167376,Hydroelectric power station,,
Vietnam,Q881,http://www.wikidata.org/entity/Q97273560,Q97273560,Hydroelectric power station,,
Vietnam,Q881,http://www.wikidata.org/entity/Q97273567,Q97273567,Hydroelectric power station,,
Vietnam,Q881,http://www.wikidata.org/entity/Q97273573,Q97273573,Hydroelectric power station,,
Vietnam,Q881,http://www.wikidata.org/entity/Q109429741,Q109429741,Hydroelectric power station,,
Vietnam,Q881,http://www.wikidata.org/entity/Q109429771,Q109429771,Hydroelectric power station,,
Vietnam,Q881,http://www.wikidata.org/entity/Q109430199,Q109430199,Hydroelectric power station,,
Vietnam,Q881,http://www.wikidata.org/entity/Q109430205,Q109430205,Hydroelectric power station,,
Vietnam,Q881,http://www.wikidata.org/entity/Q109433999,Q109433999,Hydroelectric power station,,
Vietnam,Q881,http://www.wikidata.org/entity/Q109439469,Q109439469,Hydroelectric power station,,
Vietnam,Q881,http://www.wikidata.org/entity/Q109440948,Q109440948,Hydroelectric power station,,
Vietnam,Q881,http://www.wikidata.org/entity/Q109441168,Q109441168,Hydroelectric power station,,
Vietnam,Q881,http://www.wikidata.org/entity/Q109441182,Q109441182,Hydroelectric power station,,
Vietnam,Q881,http://www.wikidata.org/entity/Q49055448,Q49055448,Hydroelectric power station,,
Vietnam,Q881,http://www.wikidata.org/entity/Q49055459,Q49055459,Hydroelectric power station,,
Vietnam,Q881,http://www.wikidata.org/entity/Q49055465,Q49055465,Hydroelectric power station,,
Vietnam,Q881,http://www.wikidata.org/entity/Q49055540,Q49055540,Hydroelectric power station,,
Vietnam,Q881,http://www.wikidata.org/entity/Q49055552,Q49055552,Hydroelectric power station,,
Vietnam,Q881,http://www.wikidata.org/entity/Q49056190,Q49056190,Hydroelectric power station,,
Vietnam,Q881,http://www.wikidata.org/entity/Q49056201,Q49056201,Hydroelectric power station,,
Vietnam,Q881,http://www.wikidata.org/entity/Q49056237,Q49056237,Hydroelectric power station,,
Vietnam,Q881,http://www.wikidata.org/entity/Q49056250,Q49056250,Hydroelectric power station,,
Vietnam,Q881,http://www.wikidata.org/entity/Q49056255,Q49056255,Hydroelectric power station,,
Vietnam,Q881,http://www.wikidata.org/entity/Q49056263,Q49056263,Hydroelectric power station,,
Vietnam,Q881,http://www.wikidata.org/entity/Q49056264,Q49056264,Hydroelectric power station,,
Vietnam,Q881,http://www.wikidata.org/entity/Q49056269,Q49056269,Hydroelectric power station,,
Vietnam,Q881,http://www.wikidata.org/entity/Q49056282,Q49056282,Hydroelectric power station,,
Vietnam,Q881,http://www.wikidata.org/entity/Q61128133,Q61128133,Hydroelectric power station,,
Vietnam,Q881,http://www.wikidata.org/entity/Q61128137,Q61128137,Hydroelectric power station,,
Vietnam,Q881,http://www.wikidata.org/entity/Q61128219,Q61128219,Hydroelectric power station,,
Vietnam,Q881,http://www.wikidata.org/entity/Q61128225,Q61128225,Hydroelectric power station,,
Vietnam,Q881,http://www.wikidata.org/entity/Q61129047,Q61129047,Hydroelectric power station,,
Vietnam,Q881,http://www.wikidata.org/entity/Q61129044,Q61129044,Hydroelectric power station,,
Vietnam,Q881,http://www.wikidata.org/entity/Q61129090,Q61129090,Hydroelectric power station,,
Vietnam,Q881,http://www.wikidata.org/entity/Q61129095,Q61129095,Hydroelectric power station,,
Vietnam,Q881,http://www.wikidata.org/entity/Q61129099,Q61129099,Hydroelectric power station,,
Vietnam,Q881,http://www.wikidata.org/entity/Q61129101,Q61129101,Hydroelectric power station,,
Vietnam,Q881,http://www.wikidata.org/entity/Q61129122,Q61129122,Hydroelectric power station,,
Vietnam,Q881,http://www.wikidata.org/entity/Q61129371,Q61129371,Hydroelectric power station,,
Vietnam,Q881,http://www.wikidata.org/entity/Q61129408,Q61129408,Hydroelectric power station,,
Vietnam,Q881,http://www.wikidata.org/entity/Q61129423,Q61129423,Hydroelectric power station,,
Vietnam,Q881,http://www.wikidata.org/entity/Q61129429,Q61129429,Hydroelectric power station,,
Vietnam,Q881,http://www.wikidata.org/entity/Q61129444,Q61129444,Hydroelectric power station,,
Vietnam,Q881,http://www.wikidata.org/entity/Q61129493,Q61129493,Hydroelectric power station,,
Vietnam,Q881,http://www.wikidata.org/entity/Q61129500,Q61129500,Hydroelectric power station,,
Vietnam,Q881,http://www.wikidata.org/entity/Q61130509,Q61130509,Hydroelectric power station,,
Vietnam,Q881,http://www.wikidata.org/entity/Q61130572,Q61130572,Hydroelectric power station,,
Vietnam,Q881,http://www.wikidata.org/entity/Q61131385,Q61131385,Hydroelectric power station,,
Vietnam,Q881,http://www.wikidata.org/entity/Q61131404,Q61131404,Hydroelectric power station,,
Vietnam,Q881,http://www.wikidata.org/entity/Q61131424,Q61131424,Hydroelectric power station,,
Vietnam,Q881,http://www.wikidata.org/entity/Q61131590,Q61131590,Hydroelectric power station,,
Vietnam,Q881,http://www.wikidata.org/entity/Q61131596,Q61131596,Hydroelectric power station,,
Vietnam,Q881,http://www.wikidata.org/entity/Q61131603,Q61131603,Hydroelectric power station,,
Vietnam,Q881,http://www.wikidata.org/entity/Q61132463,Q61132463,Hydroelectric power station,,
Vietnam,Q881,http://www.wikidata.org/entity/Q61132460,Q61132460,Hydroelectric power station,,
Vietnam,Q881,http://www.wikidata.org/entity/Q61132525,Q61132525,Hydroelectric power station,,
Vietnam,Q881,http://www.wikidata.org/entity/Q61132543,Q61132543,Hydroelectric power station,,
Vietnam,Q881,http://www.wikidata.org/entity/Q61132544,Q61132544,Hydroelectric power station,,
Vietnam,Q881,http://www.wikidata.org/entity/Q61132549,Q61132549,Hydroelectric power station,,
Vietnam,Q881,http://www.wikidata.org/entity/Q61132554,Q61132554,Hydroelectric power station,,
Vietnam,Q881,http://www.wikidata.org/entity/Q61132570,Q61132570,Hydroelectric power station,,
Vietnam,Q881,http://www.wikidata.org/entity/Q61132572,Q61132572,Hydroelectric power station,,
Vietnam,Q881,http://www.wikidata.org/entity/Q61132582,Q61132582,Hydroelectric power station,,
Vietnam,Q881,http://www.wikidata.org/entity/Q61132607,Q61132607,Hydroelectric power station,,
Vietnam,Q881,http://www.wikidata.org/entity/Q65162178,Q65162178,Hydroelectric power station,,
Vietnam,Q881,http://www.wikidata.org/entity/Q65162181,Q65162181,Hydroelectric power station,,
Vietnam,Q881,http://www.wikidata.org/entity/Q65175276,Q65175276,Hydroelectric power station,,
Turkey,Q43,http://www.wikidata.org/entity/Q48837101,Silifke HES,Hydroelectric power station,,
People's Republic of China,Q148,http://www.wikidata.org/entity/Q11969416,Q11969416,Hydroelectric power station,,
People's Republic of China,Q148,http://www.wikidata.org/entity/Q11971546,Q11971546,Hydroelectric power station,,
People's Republic of China,Q148,http://www.wikidata.org/entity/Q11973113,Q11973113,Hydroelectric power station,,
People's Republic of China,Q148,http://www.wikidata.org/entity/Q11974924,Q11974924,Hydroelectric power station,,
People's Republic of China,Q148,http://www.wikidata.org/entity/Q11975784,Q11975784,Hydroelectric power station,,
People's Republic of China,Q148,http://www.wikidata.org/entity/Q11976197,Q11976197,Hydroelectric power station,,
People's Republic of China,Q148,http://www.wikidata.org/entity/Q11978561,Q11978561,Hydroelectric power station,,
People's Republic of China,Q148,http://www.wikidata.org/entity/Q11978606,Q11978606,Hydroelectric power station,,
People's Republic of China,Q148,http://www.wikidata.org/entity/Q11979560,Q11979560,Hydroelectric power station,,
People's Republic of China,Q148,http://www.wikidata.org/entity/Q11980495,Q11980495,Hydroelectric power station,,
People's Republic of China,Q148,http://www.wikidata.org/entity/Q11982979,Q11982979,Hydroelectric power station,,
People's Republic of China,Q148,http://www.wikidata.org/entity/Q11983142,Q11983142,Hydroelectric power station,,
People's Republic of China,Q148,http://www.wikidata.org/entity/Q11983898,Q11983898,Hydroelectric power station,,
People's Republic of China,Q148,http://www.wikidata.org/entity/Q11983901,Q11983901,Hydroelectric power station,,
People's Republic of China,Q148,http://www.wikidata.org/entity/Q11986515,Q11986515,Hydroelectric power station,,
People's Republic of China,Q148,http://www.wikidata.org/entity/Q11986519,Q11986519,Hydroelectric power station,,
People's Republic of China,Q148,http://www.wikidata.org/entity/Q11986754,Q11986754,Hydroelectric power station,,
People's Republic of China,Q148,http://www.wikidata.org/entity/Q11987039,Q11987039,Hydroelectric power station,,
People's Republic of China,Q148,http://www.wikidata.org/entity/Q11987057,Q11987057,Hydroelectric power station,,
People's Republic of China,Q148,http://www.wikidata.org/entity/Q11987727,Q11987727,Hydroelectric power station,,
People's Republic of China,Q148,http://www.wikidata.org/entity/Q11987867,Q11987867,Hydroelectric power station,,
People's Republic of China,Q148,http://www.wikidata.org/entity/Q11987893,Q11987893,Hydroelectric power station,,
People's Republic of China,Q148,http://www.wikidata.org/entity/Q11988086,Q11988086,Hydroelectric power station,,
People's Republic of China,Q148,http://www.wikidata.org/entity/Q11989033,Q11989033,Hydroelectric power station,,
People's Republic of China,Q148,http://www.wikidata.org/entity/Q11989241,Q11989241,Hydroelectric power station,,
People's Republic of China,Q148,http://www.wikidata.org/entity/Q11990830,Q11990830,Hydroelectric power station,,
People's Republic of China,Q148,http://www.wikidata.org/entity/Q11990851,Q11990851,Hydroelectric power station,,
People's Republic of China,Q148,http://www.wikidata.org/entity/Q11991595,Q11991595,Hydroelectric power station,,
People's Republic of China,Q148,http://www.wikidata.org/entity/Q11991596,Q11991596,Hydroelectric power station,,
People's Republic of China,Q148,http://www.wikidata.org/entity/Q11995736,Q11995736,Hydroelectric power station,,
People's Republic of China,Q148,http://www.wikidata.org/entity/Q11996699,Q11996699,Hydroelectric power station,,
People's Republic of China,Q148,http://www.wikidata.org/entity/Q11998390,Q11998390,Hydroelectric power station,,
People's Republic of China,Q148,http://www.wikidata.org/entity/Q11998391,Q11998391,Hydroelectric power station,,
People's Republic of China,Q148,http://www.wikidata.org/entity/Q11999106,Q11999106,Hydroelectric power station,,
People's Republic of China,Q148,http://www.wikidata.org/entity/Q12000110,Q12000110,Hydroelectric power station,,
People's Republic of China,Q148,http://www.wikidata.org/entity/Q12000116,Q12000116,Hydroelectric power station,,
People's Republic of China,Q148,http://www.wikidata.org/entity/Q12000142,Q12000142,Hydroelectric power station,,
People's Republic of China,Q148,http://www.wikidata.org/entity/Q12000156,Q12000156,Hydroelectric power station,,
People's Republic of China,Q148,http://www.wikidata.org/entity/Q12000208,Q12000208,Hydroelectric power station,,
People's Republic of China,Q148,http://www.wikidata.org/entity/Q12000229,Q12000229,Hydroelectric power station,,
People's Republic of China,Q148,http://www.wikidata.org/entity/Q12000254,Q12000254,Hydroelectric power station,,
People's Republic of China,Q148,http://www.wikidata.org/entity/Q12000256,Q12000256,Hydroelectric power station,,
People's Republic of China,Q148,http://www.wikidata.org/entity/Q12000257,Q12000257,Hydroelectric power station,,
People's Republic of China,Q148,http://www.wikidata.org/entity/Q12002008,Q12002008,Hydroelectric power station,,
People's Republic of China,Q148,http://www.wikidata.org/entity/Q12004032,Q12004032,Hydroelectric power station,,
People's Republic of China,Q148,http://www.wikidata.org/entity/Q12005182,Q12005182,Hydroelectric power station,,
People's Republic of China,Q148,http://www.wikidata.org/entity/Q11979924,Kala Dam,Hydroelectric power station,,
People's Republic of China,Q148,http://www.wikidata.org/entity/Q11973124,Guanting Hydropower Station,Hydroelectric power station,,
People's Republic of China,Q148,http://www.wikidata.org/entity/Q11983729,Lenggu Dam,Hydroelectric power station,,
People's Republic of China,Q148,http://www.wikidata.org/entity/Q11989032,Mengdigou Dam,Hydroelectric power station,,
People's Republic of China,Q148,http://www.wikidata.org/entity/Q12006471,Q12006471,Hydroelectric power station,,
People's Republic of China,Q148,http://www.wikidata.org/entity/Q12006768,Q12006768,Hydroelectric power station,,
People's Republic of China,Q148,http://www.wikidata.org/entity/Q12006773,Q12006773,Hydroelectric power station,,
People's Republic of China,Q148,http://www.wikidata.org/entity/Q12006776,Q12006776,Hydroelectric power station,,
People's Republic of China,Q148,http://www.wikidata.org/entity/Q12007884,Q12007884,Hydroelectric power station,,
People's Republic of China,Q148,http://www.wikidata.org/entity/Q12010470,Q12010470,Hydroelectric power station,,
People's Republic of China,Q148,http://www.wikidata.org/entity/Q12010509,Q12010509,Hydroelectric power station,,
People's Republic of China,Q148,http://www.wikidata.org/entity/Q12010512,Q12010512,Hydroelectric power station,,
People's Republic of China,Q148,http://www.wikidata.org/entity/Q12010513,Q12010513,Hydroelectric power station,,
People's Republic of China,Q148,http://www.wikidata.org/entity/Q12010860,Q12010860,Hydroelectric power station,,
People's Republic of China,Q148,http://www.wikidata.org/entity/Q12010867,Q12010867,Hydroelectric power station,,
People's Republic of China,Q148,http://www.wikidata.org/entity/Q12010871,Q12010871,Hydroelectric power station,,
People's Republic of China,Q148,http://www.wikidata.org/entity/Q12010886,Q12010886,Hydroelectric power station,,
People's Republic of China,Q148,http://www.wikidata.org/entity/Q12010891,Q12010891,Hydroelectric power station,,
People's Republic of China,Q148,http://www.wikidata.org/entity/Q12010920,Q12010920,Hydroelectric power station,,
People's Republic of China,Q148,http://www.wikidata.org/entity/Q12010936,Q12010936,Hydroelectric power station,,
People's Republic of China,Q148,http://www.wikidata.org/entity/Q12010974,Q12010974,Hydroelectric power station,,
People's Republic of China,Q148,http://www.wikidata.org/entity/Q12011018,Q12011018,Hydroelectric power station,,
People's Republic of China,Q148,http://www.wikidata.org/entity/Q12011104,Q12011104,Hydroelectric power station,,
People's Republic of China,Q148,http://www.wikidata.org/entity/Q12011117,Q12011117,Hydroelectric power station,,
People's Republic of China,Q148,http://www.wikidata.org/entity/Q12011202,Q12011202,Hydroelectric power station,,
People's Republic of China,Q148,http://www.wikidata.org/entity/Q12011217,Q12011217,Hydroelectric power station,,
People's Republic of China,Q148,http://www.wikidata.org/entity/Q12011225,Q12011225,Hydroelectric power station,,
People's Republic of China,Q148,http://www.wikidata.org/entity/Q17023711,Q17023711,Hydroelectric power station,,
People's Republic of China,Q148,http://www.wikidata.org/entity/Q17040456,Q17040456,Hydroelectric power station,,
People's Republic of China,Q148,http://www.wikidata.org/entity/Q17750358,Q17750358,Hydroelectric power station,,
People's Republic of China,Q148,http://www.wikidata.org/entity/Q17762112,Q17762112,Hydroelectric power station,,
People's Republic of China,Q148,http://www.wikidata.org/entity/Q17762468,Q17762468,Hydroelectric power station,,
People's Republic of China,Q148,http://www.wikidata.org/entity/Q17775437,Q17775437,Hydroelectric power station,,
People's Republic of China,Q148,http://www.wikidata.org/entity/Q17778228,Q17778228,Hydroelectric power station,,
People's Republic of China,Q148,http://www.wikidata.org/entity/Q17779495,Q17779495,Hydroelectric power station,,
People's Republic of China,Q148,http://www.wikidata.org/entity/Q18118886,Q18118886,Hydroelectric power station,,
People's Republic of China,Q148,http://www.wikidata.org/entity/Q19373273,Q19373273,Hydroelectric power station,,
People's Republic of China,Q148,http://www.wikidata.org/entity/Q19374873,Q19374873,Hydroelectric power station,,
People's Republic of China,Q148,http://www.wikidata.org/entity/Q19376308,Q19376308,Hydroelectric power station,,
People's Republic of China,Q148,http://www.wikidata.org/entity/Q19376318,Q19376318,Hydroelectric power station,,
People's Republic of China,Q148,http://www.wikidata.org/entity/Q19376320,Q19376320,Hydroelectric power station,,
People's Republic of China,Q148,http://www.wikidata.org/entity/Q19377069,Q19377069,Hydroelectric power station,,
People's Republic of China,Q148,http://www.wikidata.org/entity/Q19378973,Q19378973,Hydroelectric power station,,
People's Republic of China,Q148,http://www.wikidata.org/entity/Q19379506,Q19379506,Hydroelectric power station,,
People's Republic of China,Q148,http://www.wikidata.org/entity/Q19380007,Q19380007,Hydroelectric power station,,
People's Republic of China,Q148,http://www.wikidata.org/entity/Q19380008,Q19380008,Hydroelectric power station,,
People's Republic of China,Q148,http://www.wikidata.org/entity/Q19380058,Q19380058,Hydroelectric power station,,
People's Republic of China,Q148,http://www.wikidata.org/entity/Q19380277,Q19380277,Hydroelectric power station,,
People's Republic of China,Q148,http://www.wikidata.org/entity/Q19381005,Q19381005,Hydroelectric power station,,
People's Republic of China,Q148,http://www.wikidata.org/entity/Q19381674,Q19381674,Hydroelectric power station,,
People's Republic of China,Q148,http://www.wikidata.org/entity/Q19381989,Q19381989,Hydroelectric power station,,
People's Republic of China,Q148,http://www.wikidata.org/entity/Q19385849,Q19385849,Hydroelectric power station,,
People's Republic of China,Q148,http://www.wikidata.org/entity/Q19385956,Q19385956,Hydroelectric power station,,
People's Republic of China,Q148,http://www.wikidata.org/entity/Q19385960,Q19385960,Hydroelectric power station,,
People's Republic of China,Q148,http://www.wikidata.org/entity/Q19388321,Q19388321,Hydroelectric power station,,
People's Republic of China,Q148,http://www.wikidata.org/entity/Q19388324,Q19388324,Hydroelectric power station,,
People's Republic of China,Q148,http://www.wikidata.org/entity/Q19388371,Q19388371,Hydroelectric power station,,
People's Republic of China,Q148,http://www.wikidata.org/entity/Q19388373,Q19388373,Hydroelectric power station,,
People's Republic of China,Q148,http://www.wikidata.org/entity/Q19392441,Q19392441,Hydroelectric power station,,
People's Republic of China,Q148,http://www.wikidata.org/entity/Q19398538,Q19398538,Hydroelectric power station,,
People's Republic of China,Q148,http://www.wikidata.org/entity/Q19398761,Q19398761,Hydroelectric power station,,
People's Republic of China,Q148,http://www.wikidata.org/entity/Q19398778,Q19398778,Hydroelectric power station,,
People's Republic of China,Q148,http://www.wikidata.org/entity/Q19398796,Q19398796,Hydroelectric power station,,
People's Republic of China,Q148,http://www.wikidata.org/entity/Q19398818,Q19398818,Hydroelectric power station,,
People's Republic of China,Q148,http://www.wikidata.org/entity/Q19398897,Q19398897,Hydroelectric power station,,
People's Republic of China,Q148,http://www.wikidata.org/entity/Q104845918,Lawa Hydropower Station,Hydroelectric power station,,
People's Republic of China,Q148,http://www.wikidata.org/entity/Q104847985,Ngachen Hydropower Station,Hydroelectric power station,,
People's Republic of China,Q148,http://www.wikidata.org/entity/Q109344605,Q109344605,Hydroelectric power station,,
People's Republic of China,Q148,http://www.wikidata.org/entity/Q109345563,Q109345563,Hydroelectric power station,,
People's Republic of China,Q148,http://www.wikidata.org/entity/Q109347186,Q109347186,Hydroelectric power station,,
People's Republic of China,Q148,http://www.wikidata.org/entity/Q10297065,Q10297065,Hydroelectric power station,,
People's Republic of China,Q148,http://www.wikidata.org/entity/Q10319478,Q10319478,Hydroelectric power station,,
People's Republic of China,Q148,http://www.wikidata.org/entity/Q11084678,Q11084678,Hydroelectric power station,,
People's Republic of China,Q148,http://www.wikidata.org/entity/Q11959998,Q11959998,Hydroelectric power station,,
People's Republic of China,Q148,http://www.wikidata.org/entity/Q11960004,Q11960004,Hydroelectric power station,,
People's Republic of China,Q148,http://www.wikidata.org/entity/Q11960356,Q11960356,Hydroelectric power station,,
People's Republic of China,Q148,http://www.wikidata.org/entity/Q11961057,Q11961057,Hydroelectric power station,,
People's Republic of China,Q148,http://www.wikidata.org/entity/Q11963423,Q11963423,Hydroelectric power station,,
People's Republic of China,Q148,http://www.wikidata.org/entity/Q11964803,Q11964803,Hydroelectric power station,,
People's Republic of China,Q148,http://www.wikidata.org/entity/Q11968707,Q11968707,Hydroelectric power station,,
People's Republic of China,Q148,http://www.wikidata.org/entity/Q11968708,Q11968708,Hydroelectric power station,,
People's Republic of China,Q148,http://www.wikidata.org/entity/Q11968709,Q11968709,Hydroelectric power station,,
People's Republic of China,Q148,http://www.wikidata.org/entity/Q131619012,Medog Hydropower Station,Hydroelectric power station,,
People's Republic of China,Q148,http://www.wikidata.org/entity/Q126045437,Q126045437,Hydroelectric power station,,
Austria,Q40,http://www.wikidata.org/entity/Q100320569,Small hydropower plant Saint Martin,Hydroelectric power station,,
Austria,Q40,http://www.wikidata.org/entity/Q2118211,Q2118211,Hydroelectric power station,,
Austria,Q40,http://www.wikidata.org/entity/Q17750831,Q17750831,Hydroelectric power station,,
Austria,Q40,http://www.wikidata.org/entity/Q1376792,Tauernkraftwerk,Hydroelectric power station,,
Austria,Q40,http://www.wikidata.org/entity/Q100988974,Kraftwerksgruppe Zemm-Ziller,Hydroelectric power station,,
Russia,Q159,http://www.wikidata.org/entity/Q4304959,Q4304959,Hydroelectric power station,,
Russia,Q159,http://www.wikidata.org/entity/Q4288938,Q4288938,Hydroelectric power station,,
Russia,Q159,http://www.wikidata.org/entity/Q12009817,Q12009817,Hydroelectric power station,,
Russia,Q159,http://www.wikidata.org/entity/Q12011172,Q12011172,Hydroelectric power station,,
Russia,Q159,http://www.wikidata.org/entity/Q12106543,Q12106543,Hydroelectric power station,,
Russia,Q159,http://www.wikidata.org/entity/Q19380878,Q19380878,Hydroelectric power station,,
Russia,Q159,http://www.wikidata.org/entity/Q21635474,Q21635474,Hydroelectric power station,,
Russia,Q159,http://www.wikidata.org/entity/Q24931288,Q24931288,Hydroelectric power station,,
Russia,Q159,http://www.wikidata.org/entity/Q24931331,Q24931331,Hydroelectric power station,,
Russia,Q159,http://www.wikidata.org/entity/Q24931436,Q24931436,Hydroelectric power station,,
Russia,Q159,http://www.wikidata.org/entity/Q24931963,Q24931963,Hydroelectric power station,,
Russia,Q159,http://www.wikidata.org/entity/Q24931995,Q24931995,Hydroelectric power station,,
Russia,Q159,http://www.wikidata.org/entity/Q24932166,Q24932166,Hydroelectric power station,,
Russia,Q159,http://www.wikidata.org/entity/Q97913451,Barsuchki hydroelectric power plant,Hydroelectric power station,,
Russia,Q159,http://www.wikidata.org/entity/Q28666653,Lower Lena HPP,Hydroelectric power station,,
Russia,Q159,http://www.wikidata.org/entity/Q86663005,Q86663005,Hydroelectric power station,,
Russia,Q159,http://www.wikidata.org/entity/Q97164878,Q97164878,Hydroelectric power station,,
Russia,Q159,http://www.wikidata.org/entity/Q69039011,Nygri hydroelectric power plant,Hydroelectric power station,,
Finland,Q33,http://www.wikidata.org/entity/Q97204183,Q97204183,Hydroelectric power station,,
Finland,Q33,http://www.wikidata.org/entity/Q116926950,Q116926950,Hydroelectric power station,,
Finland,Q33,http://www.wikidata.org/entity/Q125830577,Q125830577,Hydroelectric power station,,
Finland,Q33,http://www.wikidata.org/entity/Q18662912,Myllytulli Power Plant,Hydroelectric power station,,
Finland,Q33,http://www.wikidata.org/entity/Q5475334,Q5475334,Hydroelectric power station,,
Finland,Q33,http://www.wikidata.org/entity/Q11894096,Q11894096,Hydroelectric power station,,
Finland,Q33,http://www.wikidata.org/entity/Q11981421,Q11981421,Hydroelectric power station,,
Finland,Q33,http://www.wikidata.org/entity/Q11982551,Q11982551,Hydroelectric power station,,
Finland,Q33,http://www.wikidata.org/entity/Q11982553,Q11982553,Hydroelectric power station,,
Finland,Q33,http://www.wikidata.org/entity/Q11996085,Q11996085,Hydroelectric power station,,
Finland,Q33,http://www.wikidata.org/entity/Q18659807,Q18659807,Hydroelectric power station,,
Finland,Q33,http://www.wikidata.org/entity/Q18660890,Q18660890,Hydroelectric power station,,
Finland,Q33,http://www.wikidata.org/entity/Q18660930,Q18660930,Hydroelectric power station,,
Finland,Q33,http://www.wikidata.org/entity/Q18663139,Q18663139,Hydroelectric power station,,
Finland,Q33,http://www.wikidata.org/entity/Q18682007,Q18682007,Hydroelectric power station,,
Finland,Q33,http://www.wikidata.org/entity/Q18759986,Q18759986,Hydroelectric power station,,
Finland,Q33,http://www.wikidata.org/entity/Q18760312,Q18760312,Hydroelectric power station,,
Finland,Q33,http://www.wikidata.org/entity/Q19310391,Q19310391,Hydroelectric power station,,
Finland,Q33,http://www.wikidata.org/entity/Q19377064,Q19377064,Hydroelectric power station,,
Finland,Q33,http://www.wikidata.org/entity/Q19381161,Q19381161,Hydroelectric power station,,
Finland,Q33,http://www.wikidata.org/entity/Q19385865,Q19385865,Hydroelectric power station,,
Finland,Q33,http://www.wikidata.org/entity/Q19387009,Q19387009,Hydroelectric power station,,
Finland,Q33,http://www.wikidata.org/entity/Q20736857,Q20736857,Hydroelectric power station,,
Finland,Q33,http://www.wikidata.org/entity/Q20737042,Q20737042,Hydroelectric power station,,
Finland,Q33,http://www.wikidata.org/entity/Q20962129,Q20962129,Hydroelectric power station,,
Finland,Q33,http://www.wikidata.org/entity/Q22681571,Q22681571,Hydroelectric power station,,
Finland,Q33,http://www.wikidata.org/entity/Q22681739,Q22681739,Hydroelectric power station,,
Finland,Q33,http://www.wikidata.org/entity/Q97203349,Kuhankoski power plant,Hydroelectric power station,,
Finland,Q33,http://www.wikidata.org/entity/Q25452515,Q25452515,Hydroelectric power station,,
Finland,Q33,http://www.wikidata.org/entity/Q27069738,Q27069738,Hydroelectric power station,,
Finland,Q33,http://www.wikidata.org/entity/Q41776578,Q41776578,Hydroelectric power station,,
Finland,Q33,http://www.wikidata.org/entity/Q18659562,Juntolankoski,Hydroelectric power station,,
Finland,Q33,http://www.wikidata.org/entity/Q18691379,Puhos Power Plant,Hydroelectric power station,,
Pakistan,Q843,http://www.wikidata.org/entity/Q122973498,Balakot Hydropower Project,Hydroelectric power station,,
Pakistan,Q843,http://www.wikidata.org/entity/Q96376144,Deg outfall hydropower project Sheikhupura,Hydroelectric power station,,
Pakistan,Q843,http://www.wikidata.org/entity/Q96385506,Katzarah Dam,Hydroelectric power station,,
Pakistan,Q843,http://www.wikidata.org/entity/Q17003531,Pelar Dam,Hydroelectric power station,,
Pakistan,Q843,http://www.wikidata.org/entity/Q4700783,Akhori Dam,Hydroelectric power station,,
Pakistan,Q843,http://www.wikidata.org/entity/Q4997718,Bunji Dam,Hydroelectric power station,,
Pakistan,Q843,http://www.wikidata.org/entity/Q20020400,Matiltan Hydropower Project,Hydroelectric power station,,
Pakistan,Q843,http://www.wikidata.org/entity/Q6446492,Kurram Tangi Dam,Hydroelectric power station,,
Pakistan,Q843,http://www.wikidata.org/entity/Q6981229,Naulong Dam,Hydroelectric power station,,
Pakistan,Q843,http://www.wikidata.org/entity/Q7635878,Sukleji Dam,Hydroelectric power station,,
Pakistan,Q843,http://www.wikidata.org/entity/Q28223499,Jabori hydro power project,Hydroelectric power station,,
Pakistan,Q843,http://www.wikidata.org/entity/Q109236413,Papin Dam,Hydroelectric power station,,
Pakistan,Q843,http://www.wikidata.org/entity/Q109238034,Murunj Dam,Hydroelectric power station,,
Pakistan,Q843,http://www.wikidata.org/entity/Q109238042,Shyok Dam,Hydroelectric power station,,
Pakistan,Q843,http://www.wikidata.org/entity/Q109254581,Daraban Zam Dam,Hydroelectric power station,,
Pakistan,Q843,http://www.wikidata.org/entity/Q109254576,Tank Zam Dam,Hydroelectric power station,,
Pakistan,Q843,http://www.wikidata.org/entity/Q109255048,Bhimber Dam,Hydroelectric power station,,
Pakistan,Q843,http://www.wikidata.org/entity/Q109258049,Chiniot Dam,Hydroelectric power station,,
Pakistan,Q843,http://www.wikidata.org/entity/Q113038895,Lawi Hydro Power Project,Hydroelectric power station,,
Pakistan,Q843,http://www.wikidata.org/entity/Q113468467,Chitral hydel power,Hydroelectric power station,,
Nepal,Q837,http://www.wikidata.org/entity/Q96410866,Trishuli Hydropower Station,Hydroelectric power station,,
Nepal,Q837,http://www.wikidata.org/entity/Q98078114,Upper Marsyandgi A Hydroelectric Station,Hydroelectric power station,,
Nepal,Q837,http://www.wikidata.org/entity/Q98099027,Modi Khola Hydroelectric Power Plant,Hydroelectric power station,,
Nepal,Q837,http://www.wikidata.org/entity/Q98113962,Lower Modi-1 Hydroelectric Power Plant,Hydroelectric power station,,
Nepal,Q837,http://www.wikidata.org/entity/Q98139954,Tinau Hydropower Plant,Hydroelectric power station,,
Nepal,Q837,http://www.wikidata.org/entity/Q104869826,Iwa Khola Hydropower Project,Hydroelectric power station,,
Nepal,Q837,http://www.wikidata.org/entity/Q104870228,Marsyangdi Hydropower Station,Hydroelectric power station,,
Nepal,Q837,http://www.wikidata.org/entity/Q104870610,Andhi Khola Hydropower Station,Hydroelectric power station,,
Nepal,Q837,http://www.wikidata.org/entity/Q104870626,Jhimruk Khola Hydropower Station,Hydroelectric power station,,
Nepal,Q837,http://www.wikidata.org/entity/Q104870439,Tatopani Hydropower Station,Hydroelectric power station,,
Nepal,Q837,http://www.wikidata.org/entity/Q104870444,Sunkoshi Hydropower Station,Hydroelectric power station,,
Nepal,Q837,http://www.wikidata.org/entity/Q104870662,Indrawati III Hydropower Station,Hydroelectric power station,,
Nepal,Q837,http://www.wikidata.org/entity/Q104871203,Piluwa Khola Hydropower Station,Hydroelectric power station,,
Nepal,Q837,http://www.wikidata.org/entity/Q104871706,Ankhu Khola-1 Hydropower Station,Hydroelectric power station,,
Nepal,Q837,http://www.wikidata.org/entity/Q104871653,Chameliya Khola Hydropower Station,Hydroelectric power station,,
Nepal,Q837,http://www.wikidata.org/entity/Q104871646,Khudi Khola Hydropower Station,Hydroelectric power station,,
Nepal,Q837,http://www.wikidata.org/entity/Q104871643,Mailung Khola Hydropower Station,Hydroelectric power station,,
Nepal,Q837,http://www.wikidata.org/entity/Q104871661,Lower Chaku Khola Hydropower Station,Hydroelectric power station,,
Nepal,Q837,http://www.wikidata.org/entity/Q104871659,Ridi Khola Hydropower Station,Hydroelectric power station,,
Nepal,Q837,http://www.wikidata.org/entity/Q104872050,Baramchi Khola Hydropower Station,Hydroelectric power station,,
Nepal,Q837,http://www.wikidata.org/entity/Q104871665,Sipring Khola Hydropower Station,Hydroelectric power station,,
Nepal,Q837,http://www.wikidata.org/entity/Q104871649,Thoppal Khola Hydropower Station,Hydroelectric power station,,
Nepal,Q837,http://www.wikidata.org/entity/Q104872264,Jiri Khola Small Hydropower Station,Hydroelectric power station,,
Nepal,Q837,http://www.wikidata.org/entity/Q104872122,Upper Madi Hydropower Station,Hydroelectric power station,,
Nepal,Q837,http://www.wikidata.org/entity/Q104872253,Phawa khola Hydropower Station,Hydroelectric power station,,
Nepal,Q837,http://www.wikidata.org/entity/Q104872248,Upper Mai Hydropower Station,Hydroelectric power station,,
Nepal,Q837,http://www.wikidata.org/entity/Q104872259,Upper Trishuli 3A Hydropower Station,Hydroelectric power station,,
Nepal,Q837,http://www.wikidata.org/entity/Q104872708,Jhyari Khola Hydropower Station,Hydroelectric power station,,
Nepal,Q837,http://www.wikidata.org/entity/Q104872692,Middle Chaku Khola Hydropower Station,Hydroelectric power station,,
Nepal,Q837,http://www.wikidata.org/entity/Q104872688,Pikhuwa Khola Hydropower Station,Hydroelectric power station,,
Nepal,Q837,http://www.wikidata.org/entity/Q104872701,Radhi Small Hydropower Station,Hydroelectric power station,,
Nepal,Q837,http://www.wikidata.org/entity/Q104872847,Jogmai Khola Hydropower Station,Hydroelectric power station,,
Nepal,Q837,http://www.wikidata.org/entity/Q104872716,Thapa Khola Hydropower Station,Hydroelectric power station,,
Nepal,Q837,http://www.wikidata.org/entity/Q104872838,Nau Gad Khola Hydropower Station,Hydroelectric power station,,
Nepal,Q837,http://www.wikidata.org/entity/Q104872843,Sabha Khola Hydropower Station,Hydroelectric power station,,
Nepal,Q837,http://www.wikidata.org/entity/Q104873215,Chhandi Khola Hydropower Station,Hydroelectric power station,,
Nepal,Q837,http://www.wikidata.org/entity/Q104872839,Upper Hugdi Hydropower Station,Hydroelectric power station,,
Nepal,Q837,http://www.wikidata.org/entity/Q104872844,Tungun - Thosne Khola Hydropower Station,Hydroelectric power station,,
Nepal,Q837,http://www.wikidata.org/entity/Q104873213,Kabeli B1 Hydropower Station,Hydroelectric power station,,
Nepal,Q837,http://www.wikidata.org/entity/Q104873210,Sardi Khola Hydropower Station,Hydroelectric power station,,
Nepal,Q837,http://www.wikidata.org/entity/Q104873217,Rudi A Hydropower Station,Hydroelectric power station,,
Nepal,Q837,http://www.wikidata.org/entity/Q104873209,Upper Puwa-1 Hydropower Station,Hydroelectric power station,,
Nepal,Q837,http://www.wikidata.org/entity/Q104879190,Chake Khola Hydropower Station,Hydroelectric power station,,
Nepal,Q837,http://www.wikidata.org/entity/Q104879184,Ghalemdi Khola Hydropower Station,Hydroelectric power station,,
Nepal,Q837,http://www.wikidata.org/entity/Q104879428,Bagmati Nadi Hydropower Station,Hydroelectric power station,,
Nepal,Q837,http://www.wikidata.org/entity/Q104879432,Upper Khorunga Hydropower Station,Hydroelectric power station,,
Nepal,Q837,http://www.wikidata.org/entity/Q104879436,Upper Naugad Hydropower Station,Hydroelectric power station,,
Nepal,Q837,http://www.wikidata.org/entity/Q104879722,Rudi Khola-B Hydropower Station,Hydroelectric power station,,
Nepal,Q837,http://www.wikidata.org/entity/Q104879719,Super Mai Hydropower Station,Hydroelectric power station,,
Nepal,Q837,http://www.wikidata.org/entity/Q104879731,Super Mai Khola Cascade Hydropower Station,Hydroelectric power station,,
Nepal,Q837,http://www.wikidata.org/entity/Q104879728,Super Mai-A Hydropower Station,Hydroelectric power station,,
Nepal,Q837,http://www.wikidata.org/entity/Q12012007,Q12012007,Hydroelectric power station,,
Nepal,Q837,http://www.wikidata.org/entity/Q17762230,Q17762230,Hydroelectric power station,,
Nepal,Q837,http://www.wikidata.org/entity/Q19377097,Q19377097,Hydroelectric power station,,
Nepal,Q837,http://www.wikidata.org/entity/Q19399502,Q19399502,Hydroelectric power station,,
Nepal,Q837,http://www.wikidata.org/entity/Q95997206,Chameliya Hydroelectric Project,Hydroelectric power station,,
Nepal,Q837,http://www.wikidata.org/entity/Q11994691,Pancheswar,Hydroelectric power station,,
Nepal,Q837,http://www.wikidata.org/entity/Q13182374,Devighat Hydropower Station,Hydroelectric power station,,
Nepal,Q837,http://www.wikidata.org/entity/Q28407157,Budhigandaki Hydroelectric Project,Hydroelectric power station,,
Nepal,Q837,http://www.wikidata.org/entity/Q104845907,Gandak Hydropower Station,Hydroelectric power station,,
Nepal,Q837,http://www.wikidata.org/entity/Q104870646,Puwa Khola Hydropower Station,Hydroelectric power station,,
Nepal,Q837,http://www.wikidata.org/entity/Q104871119,Middle Marsyangdi Hydropower Station,Hydroelectric power station,,
Nepal,Q837,http://www.wikidata.org/entity/Q104871696,Bhairab Kund Khola Hydropower Station,Hydroelectric power station,,
Nepal,Q837,http://www.wikidata.org/entity/Q104872053,Bijayapur-1 Hydropower Station,Hydroelectric power station,,
Nepal,Q837,http://www.wikidata.org/entity/Q104871705,Siuri Khola Hydropower Station,Hydroelectric power station,,
Nepal,Q837,http://www.wikidata.org/entity/Q104872846,Khani Khola Hydropower Station,Hydroelectric power station,,
Nepal,Q837,http://www.wikidata.org/entity/Q104872704,Tadi Khola Hydropower Station,Hydroelectric power station,,
Nepal,Q837,http://www.wikidata.org/entity/Q104872842,Midim Khola Hydropower Station,Hydroelectric power station,,
Nepal,Q837,http://www.wikidata.org/entity/Q104873214,Lower Hewa Hydropower Station,Hydroelectric power station,,
Nepal,Q837,http://www.wikidata.org/entity/Q104873216,Puwa Khola-1 Hydropower Station,Hydroelectric power station,,
Nepal,Q837,http://www.wikidata.org/entity/Q104879187,Kapadigad Hydropower Station,Hydroelectric power station,,
Nepal,Q837,http://www.wikidata.org/entity/Q104879426,Dwari Khola Small Hydropower Station,Hydroelectric power station,,
Nepal,Q837,http://www.wikidata.org/entity/Q104879191,Solu Hydropower Station,Hydroelectric power station,,
Nepal,Q837,http://www.wikidata.org/entity/Q104879430,Molun Khola Small Hydropower Station,Hydroelectric power station,,
Nepal,Q837,http://www.wikidata.org/entity/Q104879738,Chatara Hydropower Station,Hydroelectric power station,,
Nepal,Q837,http://www.wikidata.org/entity/Q104879431,Theule Khola Hydropower Station,Hydroelectric power station,,
Nepal,Q837,http://www.wikidata.org/entity/Q104879734,Mai Khola Small Hydropower Station,Hydroelectric power station,,
Nepal,Q837,http://www.wikidata.org/entity/Q104879725,Padam Khola Small Hydropower Station,Hydroelectric power station,,
Nepal,Q837,http://www.wikidata.org/entity/Q65398528,Bheri Babai Diversion Multipurpose Project,Hydroelectric power station,,
Nepal,Q837,http://www.wikidata.org/entity/Q113511503,Sundarijal Small Hydropower Station,Hydroelectric power station,,
Australia,Q408,http://www.wikidata.org/entity/Q125510400,Borumba Dam Pumped Hydro Power Station,Hydroelectric power station,,
Australia,Q408,http://www.wikidata.org/entity/Q7958955,Waddamana Power Stations,Hydroelectric power station,,
Australia,Q408,http://www.wikidata.org/entity/Q65640391,Murray Hydroelectric Power Station,Hydroelectric power station,,
Australia,Q408,http://www.wikidata.org/entity/Q115152095,Somerset Dam Power Station,Hydroelectric power station,,
Chile,Q298,http://www.wikidata.org/entity/Q83802995,Río Colorado hydroelectric power station,Hydroelectric power station,,
Chile,Q298,http://www.wikidata.org/entity/Q5760784,Laja hydroelectric power plant,Hydroelectric power station,,
Chile,Q298,http://www.wikidata.org/entity/Q21503402,Mediterráneo hydroelectric power plant,Hydroelectric power station,,
Chile,Q298,http://www.wikidata.org/entity/Q7194234,Pilmaiquén Hydroelectric Plant,Hydroelectric power station,,
Chile,Q298,http://www.wikidata.org/entity/Q7259472,Pullinque Hydroelectric Plant,Hydroelectric power station,,
Chile,Q298,http://www.wikidata.org/entity/Q42381166,Guayacán hydroelectric power plant,Hydroelectric power station,,
Chile,Q298,http://www.wikidata.org/entity/Q67753371,La Mina hydroelectric power plant,Hydroelectric power station,,
Chile,Q298,http://www.wikidata.org/entity/Q67759406,Chacabuquito hydroelectric power plant,Hydroelectric power station,,
Chile,Q298,http://www.wikidata.org/entity/Q67761328,San Ignacio hydroelectric power plant,Hydroelectric power station,,
Chile,Q298,http://www.wikidata.org/entity/Q67763466,Juncal hydroelectric power plant,Hydroelectric power station,,
Chile,Q298,http://www.wikidata.org/entity/Q67764155,Juncalito hydroelectric power plant,Hydroelectric power station,,
Chile,Q298,http://www.wikidata.org/entity/Q67765081,Blanco hydroelectric power plant,Hydroelectric power station,,
Chile,Q298,http://www.wikidata.org/entity/Q67769289,Los Quilos hydroelectric power plant,Hydroelectric power station,,
Chile,Q298,http://www.wikidata.org/entity/Q68017349,Itata hydroelectric power plant,Hydroelectric power station,,
Chile,Q298,http://www.wikidata.org/entity/Q68489820,Pangal hydroelectric power plant,Hydroelectric power station,,
Chile,Q298,http://www.wikidata.org/entity/Q68580118,Puntilla hydroelectric power station,Hydroelectric power station,,
Chile,Q298,http://www.wikidata.org/entity/Q76762848,Loma Alta hydroelectric power plant,Hydroelectric power station,,
United Kingdom,Q145,http://www.wikidata.org/entity/Q91663285,Seaflow,Hydroelectric power station,,
United Kingdom,Q145,http://www.wikidata.org/entity/Q106609751,Mersey Barrage,Hydroelectric power station,,
Iran,Q794,http://www.wikidata.org/entity/Q11995654,Q11995654,Hydroelectric power station,,
Iran,Q794,http://www.wikidata.org/entity/Q20110405,Q20110405,Hydroelectric power station,,
Iran,Q794,http://www.wikidata.org/entity/Q20110408,Q20110408,Hydroelectric power station,,
Iran,Q794,http://www.wikidata.org/entity/Q4787887,Ardeh Dam,Hydroelectric power station,,
Iran,Q794,http://www.wikidata.org/entity/Q20110404,Shot Moghan Dam,Hydroelectric power station,,
Iran,Q794,http://www.wikidata.org/entity/Q5519584,Gamasiab Dam,Hydroelectric power station,,
Iran,Q794,http://www.wikidata.org/entity/Q7461734,Shahid Talebi Dam,Hydroelectric power station,,
Czech Republic,Q213,http://www.wikidata.org/entity/Q28979398,Q28979398,Hydroelectric power station,,
Czech Republic,Q213,http://www.wikidata.org/entity/Q28979565,Q28979565,Hydroelectric power station,,
Czech Republic,Q213,http://www.wikidata.org/entity/Q28981971,Q28981971,Hydroelectric power station,,
Czech Republic,Q213,http://www.wikidata.org/entity/Q28982345,Q28982345,Hydroelectric power station,,
Czech Republic,Q213,http://www.wikidata.org/entity/Q29003390,Q29003390,Hydroelectric power station,,
Czech Republic,Q213,http://www.wikidata.org/entity/Q29003510,Q29003510,Hydroelectric power station,,
Czech Republic,Q213,http://www.wikidata.org/entity/Q29003553,Q29003553,Hydroelectric power station,,
Czech Republic,Q213,http://www.wikidata.org/entity/Q29003562,Q29003562,Hydroelectric power station,,
Czech Republic,Q213,http://www.wikidata.org/entity/Q29003573,Q29003573,Hydroelectric power station,,
Czech Republic,Q213,http://www.wikidata.org/entity/Q29052553,Q29052553,Hydroelectric power station,,
Czech Republic,Q213,http://www.wikidata.org/entity/Q29052594,Q29052594,Hydroelectric power station,,
Czech Republic,Q213,http://www.wikidata.org/entity/Q29052599,Q29052599,Hydroelectric power station,,
Czech Republic,Q213,http://www.wikidata.org/entity/Q29052602,Q29052602,Hydroelectric power station,,
Czech Republic,Q213,http://www.wikidata.org/entity/Q29052600,Q29052600,Hydroelectric power station,,
Czech Republic,Q213,http://www.wikidata.org/entity/Q29052608,Q29052608,Hydroelectric power station,,
Czech Republic,Q213,http://www.wikidata.org/entity/Q29052625,Q29052625,Hydroelectric power station,,
Czech Republic,Q213,http://www.wikidata.org/entity/Q29052629,Q29052629,Hydroelectric power station,,
Czech Republic,Q213,http://www.wikidata.org/entity/Q29052633,Q29052633,Hydroelectric power station,,
Czech Republic,Q213,http://www.wikidata.org/entity/Q29052642,Q29052642,Hydroelectric power station,,
Czech Republic,Q213,http://www.wikidata.org/entity/Q29052640,Q29052640,Hydroelectric power station,,
Czech Republic,Q213,http://www.wikidata.org/entity/Q29052645,Q29052645,Hydroelectric power station,,
Czech Republic,Q213,http://www.wikidata.org/entity/Q29052655,Q29052655,Hydroelectric power station,,
Czech Republic,Q213,http://www.wikidata.org/entity/Q29052652,Q29052652,Hydroelectric power station,,
Czech Republic,Q213,http://www.wikidata.org/entity/Q29052653,Q29052653,Hydroelectric power station,,
Czech Republic,Q213,http://www.wikidata.org/entity/Q29052657,Q29052657,Hydroelectric power station,,
Czech Republic,Q213,http://www.wikidata.org/entity/Q29052663,Q29052663,Hydroelectric power station,,
Czech Republic,Q213,http://www.wikidata.org/entity/Q29052665,Q29052665,Hydroelectric power station,,
Czech Republic,Q213,http://www.wikidata.org/entity/Q29052675,Q29052675,Hydroelectric power station,,
Czech Republic,Q213,http://www.wikidata.org/entity/Q29052680,Q29052680,Hydroelectric power station,,
Czech Republic,Q213,http://www.wikidata.org/entity/Q29052694,Q29052694,Hydroelectric power station,,
Czech Republic,Q213,http://www.wikidata.org/entity/Q29052701,Q29052701,Hydroelectric power station,,
Czech Republic,Q213,http://www.wikidata.org/entity/Q29052708,Q29052708,Hydroelectric power station,,
Czech Republic,Q213,http://www.wikidata.org/entity/Q29269146,Q29269146,Hydroelectric power station,,
Czech Republic,Q213,http://www.wikidata.org/entity/Q29269496,Q29269496,Hydroelectric power station,,
Czech Republic,Q213,http://www.wikidata.org/entity/Q29269548,Q29269548,Hydroelectric power station,,
Czech Republic,Q213,http://www.wikidata.org/entity/Q29269639,Q29269639,Hydroelectric power station,,
Czech Republic,Q213,http://www.wikidata.org/entity/Q28978930,Q28978930,Hydroelectric power station,,
Czech Republic,Q213,http://www.wikidata.org/entity/Q28979495,Q28979495,Hydroelectric power station,,
Czech Republic,Q213,http://www.wikidata.org/entity/Q28979557,Q28979557,Hydroelectric power station,,
Czech Republic,Q213,http://www.wikidata.org/entity/Q29269697,Q29269697,Hydroelectric power station,,
Czech Republic,Q213,http://www.wikidata.org/entity/Q29269771,Q29269771,Hydroelectric power station,,
Czech Republic,Q213,http://www.wikidata.org/entity/Q29269839,Q29269839,Hydroelectric power station,,
Czech Republic,Q213,http://www.wikidata.org/entity/Q29269879,Q29269879,Hydroelectric power station,,
Czech Republic,Q213,http://www.wikidata.org/entity/Q29270073,Q29270073,Hydroelectric power station,,
Czech Republic,Q213,http://www.wikidata.org/entity/Q29270155,Q29270155,Hydroelectric power station,,
Czech Republic,Q213,http://www.wikidata.org/entity/Q29270206,Q29270206,Hydroelectric power station,,
Czech Republic,Q213,http://www.wikidata.org/entity/Q29270332,Q29270332,Hydroelectric power station,,
Czech Republic,Q213,http://www.wikidata.org/entity/Q29270453,Q29270453,Hydroelectric power station,,
Czech Republic,Q213,http://www.wikidata.org/entity/Q29270507,Q29270507,Hydroelectric power station,,
Czech Republic,Q213,http://www.wikidata.org/entity/Q29270696,Q29270696,Hydroelectric power station,,
Czech Republic,Q213,http://www.wikidata.org/entity/Q29270742,Q29270742,Hydroelectric power station,,
Czech Republic,Q213,http://www.wikidata.org/entity/Q29271059,Q29271059,Hydroelectric power station,,
Czech Republic,Q213,http://www.wikidata.org/entity/Q29271182,Q29271182,Hydroelectric power station,,
Czech Republic,Q213,http://www.wikidata.org/entity/Q29271292,Q29271292,Hydroelectric power station,,
Czech Republic,Q213,http://www.wikidata.org/entity/Q29271339,Q29271339,Hydroelectric power station,,
Czech Republic,Q213,http://www.wikidata.org/entity/Q29271377,Q29271377,Hydroelectric power station,,
Czech Republic,Q213,http://www.wikidata.org/entity/Q12032301,Hydroelectric power plant in Pardubice,Hydroelectric power station,,
Taiwan,Q865,http://www.wikidata.org/entity/Q22774221,Q22774221,Hydroelectric power station,,
Taiwan,Q865,http://www.wikidata.org/entity/Q28412259,Q28412259,Hydroelectric power station,,
Taiwan,Q865,http://www.wikidata.org/entity/Q30946067,Q30946067,Hydroelectric power station,,
Taiwan,Q865,http://www.wikidata.org/entity/Q86729357,Q86729357,Hydroelectric power station,,
Taiwan,Q865,http://www.wikidata.org/entity/Q116694265,Q116694265,Hydroelectric power station,,
Taiwan,Q865,http://www.wikidata.org/entity/Q117316554,Q117316554,Hydroelectric power station,,
Taiwan,Q865,http://www.wikidata.org/entity/Q117316555,Q117316555,Hydroelectric power station,,
Taiwan,Q865,http://www.wikidata.org/entity/Q117316553,Q117316553,Hydroelectric power station,,
Taiwan,Q865,http://www.wikidata.org/entity/Q117316559,Q117316559,Hydroelectric power station,,
Taiwan,Q865,http://www.wikidata.org/entity/Q117316557,Q117316557,Hydroelectric power station,,
Taiwan,Q865,http://www.wikidata.org/entity/Q117316571,Q117316571,Hydroelectric power station,,
Taiwan,Q865,http://www.wikidata.org/entity/Q117316572,Q117316572,Hydroelectric power station,,
Taiwan,Q865,http://www.wikidata.org/entity/Q118145178,Q118145178,Hydroelectric power station,,
Iceland,Q189,http://www.wikidata.org/entity/Q12003934,Q12003934,Hydroelectric power station,,
Iceland,Q189,http://www.wikidata.org/entity/Q16419459,Q16419459,Hydroelectric power station,,
Iceland,Q189,http://www.wikidata.org/entity/Q16419488,Q16419488,Hydroelectric power station,,
Iceland,Q189,http://www.wikidata.org/entity/Q16419605,Q16419605,Hydroelectric power station,,
Iceland,Q189,http://www.wikidata.org/entity/Q16420165,Q16420165,Hydroelectric power station,,
Iceland,Q189,http://www.wikidata.org/entity/Q16420489,Q16420489,Hydroelectric power station,,
Iceland,Q189,http://www.wikidata.org/entity/Q16420845,Q16420845,Hydroelectric power station,,
Iceland,Q189,http://www.wikidata.org/entity/Q16421460,Q16421460,Hydroelectric power station,,
Iceland,Q189,http://www.wikidata.org/entity/Q16421655,Q16421655,Hydroelectric power station,,
Iceland,Q189,http://www.wikidata.org/entity/Q16422592,Q16422592,Hydroelectric power station,,
Iceland,Q189,http://www.wikidata.org/entity/Q16422820,Q16422820,Hydroelectric power station,,
Iceland,Q189,http://www.wikidata.org/entity/Q16422852,Q16422852,Hydroelectric power station,,
Iceland,Q189,http://www.wikidata.org/entity/Q16424023,Q16424023,Hydroelectric power station,,
Iceland,Q189,http://www.wikidata.org/entity/Q16424179,Q16424179,Hydroelectric power station,,
Iceland,Q189,http://www.wikidata.org/entity/Q16424373,Q16424373,Hydroelectric power station,,
Iceland,Q189,http://www.wikidata.org/entity/Q16425219,Q16425219,Hydroelectric power station,,
Iceland,Q189,http://www.wikidata.org/entity/Q16427351,Q16427351,Hydroelectric power station,,
Iceland,Q189,http://www.wikidata.org/entity/Q16427787,Q16427787,Hydroelectric power station,,
Iceland,Q189,http://www.wikidata.org/entity/Q16428212,Q16428212,Hydroelectric power station,,
Iceland,Q189,http://www.wikidata.org/entity/Q16428252,Q16428252,Hydroelectric power station,,
Iceland,Q189,http://www.wikidata.org/entity/Q16428339,Q16428339,Hydroelectric power station,,
Iceland,Q189,http://www.wikidata.org/entity/Q16428542,Q16428542,Hydroelectric power station,,
Iceland,Q189,http://www.wikidata.org/entity/Q16428593,Q16428593,Hydroelectric power station,,
Iceland,Q189,http://www.wikidata.org/entity/Q16429130,Q16429130,Hydroelectric power station,,
Iceland,Q189,http://www.wikidata.org/entity/Q16429151,Q16429151,Hydroelectric power station,,
Iceland,Q189,http://www.wikidata.org/entity/Q16429520,Q16429520,Hydroelectric power station,,
Iceland,Q189,http://www.wikidata.org/entity/Q16430210,Q16430210,Hydroelectric power station,,
Iceland,Q189,http://www.wikidata.org/entity/Q16430613,Q16430613,Hydroelectric power station,,
Iceland,Q189,http://www.wikidata.org/entity/Q19374850,Q19374850,Hydroelectric power station,,
Iceland,Q189,http://www.wikidata.org/entity/Q740329,Sog hydroelectric power station,Hydroelectric power station,,
Iceland,Q189,http://www.wikidata.org/entity/Q16426312,Skeiðsfoss power station,Hydroelectric power station,,
Iceland,Q189,http://www.wikidata.org/entity/Q114415924,Q114415924,Hydroelectric power station,,
Ukraine,Q212,http://www.wikidata.org/entity/Q124152922,Kanevskaya Hydroelectric Power Plant,Hydroelectric power station,,
Ukraine,Q212,http://www.wikidata.org/entity/Q12123539,Q12123539,Hydroelectric power station,,
Ukraine,Q212,http://www.wikidata.org/entity/Q12158966,Q12158966,Hydroelectric power station,,
Ukraine,Q212,http://www.wikidata.org/entity/Q12171937,Q12171937,Hydroelectric power station,,
Ukraine,Q212,http://www.wikidata.org/entity/Q25421634,Q25421634,Hydroelectric power station,,
Ukraine,Q212,http://www.wikidata.org/entity/Q30973610,Q30973610,Hydroelectric power station,,
Ukraine,Q212,http://www.wikidata.org/entity/Q20074188,Buchach HES,Hydroelectric power station,,
Ukraine,Q212,http://www.wikidata.org/entity/Q61116391,Q61116391,Hydroelectric power station,,
Ukraine,Q212,http://www.wikidata.org/entity/Q84814194,Q84814194,Hydroelectric power station,,
Ukraine,Q212,http://www.wikidata.org/entity/Q84814210,Q84814210,Hydroelectric power station,,
Ukraine,Q212,http://www.wikidata.org/entity/Q84814224,Q84814224,Hydroelectric power station,,
Ukraine,Q212,http://www.wikidata.org/entity/Q84814239,Q84814239,Hydroelectric power station,,
Ukraine,Q212,http://www.wikidata.org/entity/Q63226021,Dychkiv HES,Hydroelectric power station,,
Colombia,Q739,http://www.wikidata.org/entity/Q86660652,Niquía hydro power station,Hydroelectric power station,,
Colombia,Q739,http://www.wikidata.org/entity/Q12008834,Q12008834,Hydroelectric power station,,
Colombia,Q739,http://www.wikidata.org/entity/Q19381499,Q19381499,Hydroelectric power station,,
Indonesia,Q252,http://www.wikidata.org/entity/Q19730960,Q19730960,Hydroelectric power station,,
Indonesia,Q252,http://www.wikidata.org/entity/Q134727881,Q134727881,Hydroelectric power station,,
Indonesia,Q252,http://www.wikidata.org/entity/Q25456342,Q25456342,Hydroelectric power station,,
Indonesia,Q252,http://www.wikidata.org/entity/Q28725586,Q28725586,Hydroelectric power station,,
Indonesia,Q252,http://www.wikidata.org/entity/Q17750851,Brantas Power Plant,Hydroelectric power station,,
Indonesia,Q252,http://www.wikidata.org/entity/Q97217940,Q97217940,Hydroelectric power station,,
Indonesia,Q252,http://www.wikidata.org/entity/Q97218149,Q97218149,Hydroelectric power station,,
Indonesia,Q252,http://www.wikidata.org/entity/Q97218171,Q97218171,Hydroelectric power station,,
Indonesia,Q252,http://www.wikidata.org/entity/Q97308866,Q97308866,Hydroelectric power station,,
Indonesia,Q252,http://www.wikidata.org/entity/Q109442063,hydroelectric power station Tulis,Hydroelectric power station,,
Belarus,Q184,http://www.wikidata.org/entity/Q11158383,Q11158383,Hydroelectric power station,,
Belarus,Q184,http://www.wikidata.org/entity/Q13030267,Q13030267,Hydroelectric power station,,
Belarus,Q184,http://www.wikidata.org/entity/Q13030297,Q13030297,Hydroelectric power station,,
Belarus,Q184,http://www.wikidata.org/entity/Q13030943,Q13030943,Hydroelectric power station,,
Belarus,Q184,http://www.wikidata.org/entity/Q13031784,Q13031784,Hydroelectric power station,,
Belarus,Q184,http://www.wikidata.org/entity/Q17043351,Q17043351,Hydroelectric power station,,
Belarus,Q184,http://www.wikidata.org/entity/Q18401822,Q18401822,Hydroelectric power station,,
Belarus,Q184,http://www.wikidata.org/entity/Q47258752,Q47258752,Hydroelectric power station,,
Belarus,Q184,http://www.wikidata.org/entity/Q47388479,Q47388479,Hydroelectric power station,,
Belarus,Q184,http://www.wikidata.org/entity/Q47391530,Q47391530,Hydroelectric power station,,
Poland,Q36,http://www.wikidata.org/entity/Q11696587,Q11696587,Hydroelectric power station,,
Poland,Q36,http://www.wikidata.org/entity/Q16619264,Tresna Dam,Hydroelectric power station,,
Poland,Q36,http://www.wikidata.org/entity/Q132798508,Bobrowice I Dam,Hydroelectric power station,,
Romania,Q218,http://www.wikidata.org/entity/Q11998781,Q11998781,Hydroelectric power station,,
Romania,Q218,http://www.wikidata.org/entity/Q112113151,Uzina Electrică din Sibiu,Hydroelectric power station,,
Georgia,Q230,http://www.wikidata.org/entity/Q16366405,Borjomi Hydro Power Plant,Hydroelectric power station,,
Georgia,Q230,http://www.wikidata.org/entity/Q16366429,Bzhuzhi Hydroelectric Power Station,Hydroelectric power station,,
Georgia,Q230,http://www.wikidata.org/entity/Q4086156,Bzhuzha hydro power plant,Hydroelectric power station,,
Georgia,Q230,http://www.wikidata.org/entity/Q20576164,Kintrisha Hydro Power Plant,Hydroelectric power station,,
Georgia,Q230,http://www.wikidata.org/entity/Q132449727,Makhuntseti hydroelectric plant,Hydroelectric power station,,
Georgia,Q230,http://www.wikidata.org/entity/Q65293140,Skurhesi,Hydroelectric power station,,
Argentina,Q414,http://www.wikidata.org/entity/Q17762758,Q17762758,Hydroelectric power station,,
Argentina,Q414,http://www.wikidata.org/entity/Q19375967,Q19375967,Hydroelectric power station,,
North Macedonia,Q221,http://www.wikidata.org/entity/Q12911395,Q12911395,Hydroelectric power station,,
North Macedonia,Q221,http://www.wikidata.org/entity/Q12911392,Q12911392,Hydroelectric power station,,
North Macedonia,Q221,http://www.wikidata.org/entity/Q12911404,Mavrovo Hydropower System,Hydroelectric power station,,
North Macedonia,Q221,http://www.wikidata.org/entity/Q12911410,Popova Šapka Hydro Power Plant,Hydroelectric power station,,
North Macedonia,Q221,http://www.wikidata.org/entity/Q12911407,Turija Hydro Power Plant,Hydroelectric power station,,
North Macedonia,Q221,http://www.wikidata.org/entity/Q18350808,Lukovo pole hydro power project,Hydroelectric power station,,
North Macedonia,Q221,http://www.wikidata.org/entity/Q20568886,Zrnovci Hydro Power Plant,Hydroelectric power station,,
Slovenia,Q215,http://www.wikidata.org/entity/Q12790968,Q12790968,Hydroelectric power station,,
Slovenia,Q215,http://www.wikidata.org/entity/Q19933925,Q19933925,Hydroelectric power station,,
Slovenia,Q215,http://www.wikidata.org/entity/Q19934988,Q19934988,Hydroelectric power station,,
Slovenia,Q215,http://www.wikidata.org/entity/Q131704648,Q131704648,Hydroelectric power station,,
Mexico,Q96,http://www.wikidata.org/entity/Q109311137,Q109311137,Hydroelectric power station,,
Mexico,Q96,http://www.wikidata.org/entity/Q111782044,Q111782044,Hydroelectric power station,,
Mexico,Q96,http://www.wikidata.org/entity/Q133838495,Q133838495,Hydroelectric power station,,
North Korea,Q423,http://www.wikidata.org/entity/Q16185170,Huichon Power Plant,Hydroelectric power station,,
North Korea,Q423,http://www.wikidata.org/entity/Q131344688,Sŏdu-su hydroelectric power station,Hydroelectric power station,,
North Korea,Q423,http://www.wikidata.org/entity/Q12624918,Hochon-gang hydroelectric power station,Hydroelectric power station,,
North Korea,Q423,http://www.wikidata.org/entity/Q109076576,Q109076576,Hydroelectric power station,,
South Korea,Q884,http://www.wikidata.org/entity/Q21060856,Q21060856,Hydroelectric power station,,
Serbia,Q403,http://www.wikidata.org/entity/Q10982911,Q10982911,Hydroelectric power station,,
Serbia,Q403,http://www.wikidata.org/entity/Q20438232,Q20438232,Hydroelectric power station,,
Serbia,Q403,http://www.wikidata.org/entity/Q25463713,Q25463713,Hydroelectric power station,,
Serbia,Q403,http://www.wikidata.org/entity/Q31183288,Q31183288,Hydroelectric power station,,
Serbia,Q403,http://www.wikidata.org/entity/Q52162217,Q52162217,Hydroelectric power station,,
Serbia,Q403,http://www.wikidata.org/entity/Q61126575,Q61126575,Hydroelectric power station,,
Serbia,Q403,http://www.wikidata.org/entity/Q61126590,Q61126590,Hydroelectric power station,,
Serbia,Q403,http://www.wikidata.org/entity/Q61126613,Q61126613,Hydroelectric power station,,
Serbia,Q403,http://www.wikidata.org/entity/Q61126684,Q61126684,Hydroelectric power station,,
Serbia,Q403,http://www.wikidata.org/entity/Q61128480,Q61128480,Hydroelectric power station,,
Serbia,Q403,http://www.wikidata.org/entity/Q61128583,Q61128583,Hydroelectric power station,,
Serbia,Q403,http://www.wikidata.org/entity/Q61128719,Q61128719,Hydroelectric power station,,
Serbia,Q403,http://www.wikidata.org/entity/Q61133709,Q61133709,Hydroelectric power station,,
Serbia,Q403,http://www.wikidata.org/entity/Q12760846,Hydroelectric power plant Vučje,Hydroelectric power station,,
Ethiopia,Q115,http://www.wikidata.org/entity/Q11959851,Q11959851,Hydroelectric power station,,
Democratic Republic of the Congo,Q974,http://www.wikidata.org/entity/Q106915512,Matebe dam,Hydroelectric power station,,
Croatia,Q224,http://www.wikidata.org/entity/Q11981880,Q11981880,Hydroelectric power station,,
Peru,Q419,http://www.wikidata.org/entity/Q84954004,Cahua Hydro Power Station,Hydroelectric power station,,
Peru,Q419,http://www.wikidata.org/entity/Q84954053,Carhuac Hydro Power Station,Hydroelectric power station,,
Peru,Q419,http://www.wikidata.org/entity/Q84954078,Yarucaya Hydro Power Station,Hydroelectric power station,,
Peru,Q419,http://www.wikidata.org/entity/Q84954115,Q84954115,Hydroelectric power station,,
Sri Lanka,Q854,http://www.wikidata.org/entity/Q11999225,Q11999225,Hydroelectric power station,,
Uzbekistan,Q265,http://www.wikidata.org/entity/Q86677653,Ak-Kavak HPP-1,Hydroelectric power station,,
Uzbekistan,Q265,http://www.wikidata.org/entity/Q12829280,Q12829280,Hydroelectric power station,,
Uzbekistan,Q265,http://www.wikidata.org/entity/Q20536162,Q20536162,Hydroelectric power station,,
Uzbekistan,Q265,http://www.wikidata.org/entity/Q25528295,Q25528295,Hydroelectric power station,,
Uzbekistan,Q265,http://www.wikidata.org/entity/Q25531863,Q25531863,Hydroelectric power station,,
Uzbekistan,Q265,http://www.wikidata.org/entity/Q97189997,Q97189997,Hydroelectric power station,,
Uzbekistan,Q265,http://www.wikidata.org/entity/Q97211200,Q97211200,Hydroelectric power station,,
Uzbekistan,Q265,http://www.wikidata.org/entity/Q110259598,Nizhnechatkalskaya HPP,Hydroelectric power station,,
Bulgaria,Q219,http://www.wikidata.org/entity/Q115857828,Usteto Hydro Power Plant,Hydroelectric power station,,
Bosnia and Herzegovina,Q225,http://www.wikidata.org/entity/Q31082695,Q31082695,Hydroelectric power station,,
Bosnia and Herzegovina,Q225,http://www.wikidata.org/entity/Q31365342,Q31365342,Hydroelectric power station,,
Bosnia and Herzegovina,Q225,http://www.wikidata.org/entity/Q4986791,Buk Bijela Hydro Power Plant,Hydroelectric power station,,
Bosnia and Herzegovina,Q225,http://www.wikidata.org/entity/Q6429451,Konjic Hydro Power Plant,Hydroelectric power station,,
Bosnia and Herzegovina,Q225,http://www.wikidata.org/entity/Q7127068,Pale Hydro Power Plant,Hydroelectric power station,,
Bosnia and Herzegovina,Q225,http://www.wikidata.org/entity/Q114976013,Q114976013,Hydroelectric power station,,
Bosnia and Herzegovina,Q225,http://www.wikidata.org/entity/Q114976503,Q114976503,Hydroelectric power station,,
Costa Rica,Q800,http://www.wikidata.org/entity/Q11958609,Q11958609,Hydroelectric power station,,
Costa Rica,Q800,http://www.wikidata.org/entity/Q96405665,Sigifredo Solís Solís Hydroelectric Center,Hydroelectric power station,,
Estonia,Q191,http://www.wikidata.org/entity/Q111722148,Nõmmeveski hydroelectric power station,Hydroelectric power station,,
Estonia,Q191,http://www.wikidata.org/entity/Q20530855,Q20530855,Hydroelectric power station,,
Estonia,Q191,http://www.wikidata.org/entity/Q65264891,Q65264891,Hydroelectric power station,,
Angola,Q916,http://www.wikidata.org/entity/Q11960557,Q11960557,Hydroelectric power station,,
Angola,Q916,http://www.wikidata.org/entity/Q11975974,Q11975974,Hydroelectric power station,,
Afghanistan,Q889,http://www.wikidata.org/entity/Q4155535,Q4155535,Hydroelectric power station,,
Myanmar,Q836,http://www.wikidata.org/entity/Q11975964,Q11975964,Hydroelectric power station,,
Myanmar,Q836,http://www.wikidata.org/entity/Q11988757,Q11988757,Hydroelectric power station,,
Myanmar,Q836,http://www.wikidata.org/entity/Q12000265,Q12000265,Hydroelectric power station,,
Myanmar,Q836,http://www.wikidata.org/entity/Q19382702,Q19382702,Hydroelectric power station,,
Myanmar,Q836,http://www.wikidata.org/entity/Q19399515,Q19399515,Hydroelectric power station,,
Cameroon,Q1009,http://www.wikidata.org/entity/Q56372673,Q56372673,Hydroelectric power station,,
Armenia,Q399,http://www.wikidata.org/entity/Q21699669,Q21699669,Hydroelectric power station,,
Armenia,Q399,http://www.wikidata.org/entity/Q43089638,Q43089638,Hydroelectric power station,,
Kyrgyzstan,Q813,http://www.wikidata.org/entity/Q19391984,Q19391984,Hydroelectric power station,,
Kyrgyzstan,Q813,http://www.wikidata.org/entity/Q20622133,Q20622133,Hydroelectric power station,,
Kyrgyzstan,Q813,http://www.wikidata.org/entity/Q117360626,Kambaratinskaya HPP-1,Hydroelectric power station,,
Kazakhstan,Q232,http://www.wikidata.org/entity/Q16693428,Q16693428,Hydroelectric power station,,
Kazakhstan,Q232,http://www.wikidata.org/entity/Q6452938,Kyzylbulak Hydroelectric Power Plant,Hydroelectric power station,,
Kazakhstan,Q232,http://www.wikidata.org/entity/Q6452950,Kyzylkungei Hydroelectric Power Plant,Hydroelectric power station,,
Kazakhstan,Q232,http://www.wikidata.org/entity/Q7853264,Tunkuruz Hydroelectric Power Plant,Hydroelectric power station,,
Kazakhstan,Q232,http://www.wikidata.org/entity/Q134311101,Category:Almaty 2 CHP station,Hydroelectric power station,,
Azerbaijan,Q227,http://www.wikidata.org/entity/Q25540886,"""Ismayilli-1"" Hydroelectric Power Station",Hydroelectric power station,,
Azerbaijan,Q227,http://www.wikidata.org/entity/Q25539222,Arpachay-1,Hydroelectric power station,,
Azerbaijan,Q227,http://www.wikidata.org/entity/Q59155378,hydroelectric power stations in Azerbaijan,Hydroelectric power station,,
Cambodia,Q424,http://www.wikidata.org/entity/Q17332368,Cheay Areng Dam,Hydroelectric power station,,
Cambodia,Q424,http://www.wikidata.org/entity/Q6693840,Lower Sre Pok 2 Dam,Hydroelectric power station,,
Cambodia,Q424,http://www.wikidata.org/entity/Q7628734,Stung Battambang 1 Dam,Hydroelectric power station,,
Tajikistan,Q863,http://www.wikidata.org/entity/Q4155535,Q4155535,Hydroelectric power station,,
Tajikistan,Q863,http://www.wikidata.org/entity/Q4527925,Q4527925,Hydroelectric power station,,
Nigeria,Q1033,http://www.wikidata.org/entity/Q116692479,Zamfara Power Station,Hydroelectric power station,,
Albania,Q222,http://www.wikidata.org/entity/Q7353104,Skavica Hydro Power Plant,Hydroelectric power station,,
Venezuela,Q717,http://www.wikidata.org/entity/Q12174718,Estación El Encantado,Hydroelectric power station,,
Philippines,Q928,http://www.wikidata.org/entity/Q11963250,Q11963250,Hydroelectric power station,,
Philippines,Q928,http://www.wikidata.org/entity/Q12717605,Q12717605,Hydroelectric power station,,
Ivory Coast,Q1008,http://www.wikidata.org/entity/Q126475953,Q126475953,Hydroelectric power station,,
El Salvador,Q792,http://www.wikidata.org/entity/Q5120096,Cimarron Hydroelectric Power Project,Hydroelectric power station,,
Guinea,Q1006,http://www.wikidata.org/entity/Q11965941,Donkéa Power Plant,Hydroelectric power station,,
Guinea,Q1006,http://www.wikidata.org/entity/Q104876442,Souapiti Hydropower Station,Hydroelectric power station,,
Guinea,Q1006,http://www.wikidata.org/entity/Q129256570,Q129256570,Hydroelectric power station,,
Ghana,Q117,http://www.wikidata.org/entity/Q12713273,Q12713273,Hydroelectric power station,,
Ghana,Q117,http://www.wikidata.org/entity/Q103926925,"Micro-Hydro Power Station, Ghana",Hydroelectric power station,,
Paraguay,Q733,http://www.wikidata.org/entity/Q130493492,Itaipu Power Plant,Hydroelectric power station,,
Sudan,Q1049,http://www.wikidata.org/entity/Q7494822,Shereyk Power Station,Hydroelectric power station,,
Lithuania,Q37,http://www.wikidata.org/entity/Q13030336,Q13030336,Hydroelectric power station,,
Israel,Q801,http://www.wikidata.org/entity/Q17009869,Mediterranean–Dead Sea Canal,Hydroelectric power station,,
Faroe Islands,Q4628,http://www.wikidata.org/entity/Q9252542,Q9252542,Hydroelectric power station,,
Jordan,Q810,http://www.wikidata.org/entity/Q84761098,Q84761098,Hydroelectric power station,,
Wales,Q25,http://www.wikidata.org/entity/Q126012764,ruins of Cwm Ystwyth Hydro-Electricity plant,Hydroelectric power station,,
Haiti,Q790,http://www.wikidata.org/entity/Q17779290,Q17779290,Hydroelectric power station,,
Tibet Autonomous Region,Q17269,http://www.wikidata.org/entity/Q104847288,Manla Water Control Project,Hydroelectric power station,,
