country_name,country_qid,entity,label,type,latitude,longitude
Germany,Q183,http://www.wikidata.org/entity/Q11962531,Q11962531,Thermal power station,,
Germany,Q183,http://www.wikidata.org/entity/Q11973845,Q11973845,Thermal power station,,
Germany,Q183,http://www.wikidata.org/entity/Q11975147,Q11975147,Thermal power station,,
Germany,Q183,http://www.wikidata.org/entity/Q11987879,Q11987879,Thermal power station,,
Germany,Q183,http://www.wikidata.org/entity/Q12010473,Q12010473,Thermal power station,,
Germany,Q183,http://www.wikidata.org/entity/Q17781992,Q17781992,Thermal power station,,
Germany,Q183,http://www.wikidata.org/entity/Q19398629,Q19398629,Thermal power station,,
Germany,Q183,http://www.wikidata.org/entity/Q105453404,Q105453404,Thermal power station,,
Germany,Q183,http://www.wikidata.org/entity/Q122570232,Q122570232,Thermal power station,,
People's Republic of China,Q148,http://www.wikidata.org/entity/Q11990161,Q11990161,Thermal power station,,
People's Republic of China,Q148,http://www.wikidata.org/entity/Q11990822,Q11990822,Thermal power station,,
People's Republic of China,Q148,http://www.wikidata.org/entity/Q11990827,Q11990827,Thermal power station,,
People's Republic of China,Q148,http://www.wikidata.org/entity/Q11990838,Q11990838,Thermal power station,,
People's Republic of China,Q148,http://www.wikidata.org/entity/Q11990848,Q11990848,Thermal power station,,
People's Republic of China,Q148,http://www.wikidata.org/entity/Q11990849,Q11990849,Thermal power station,,
People's Republic of China,Q148,http://www.wikidata.org/entity/Q11991090,Q11991090,Thermal power station,,
People's Republic of China,Q148,http://www.wikidata.org/entity/Q11991559,Q11991559,Thermal power station,,
People's Republic of China,Q148,http://www.wikidata.org/entity/Q11995092,Q11995092,Thermal power station,,
People's Republic of China,Q148,http://www.wikidata.org/entity/Q11995719,Q11995719,Thermal power station,,
People's Republic of China,Q148,http://www.wikidata.org/entity/Q11995716,Q11995716,Thermal power station,,
People's Republic of China,Q148,http://www.wikidata.org/entity/Q11995723,Q11995723,Thermal power station,,
People's Republic of China,Q148,http://www.wikidata.org/entity/Q11995720,Q11995720,Thermal power station,,
People's Republic of China,Q148,http://www.wikidata.org/entity/Q11996450,Q11996450,Thermal power station,,
People's Republic of China,Q148,http://www.wikidata.org/entity/Q11996464,Q11996464,Thermal power station,,
People's Republic of China,Q148,http://www.wikidata.org/entity/Q11996496,Q11996496,Thermal power station,,
People's Republic of China,Q148,http://www.wikidata.org/entity/Q11996694,Q11996694,Thermal power station,,
People's Republic of China,Q148,http://www.wikidata.org/entity/Q11996702,Q11996702,Thermal power station,,
People's Republic of China,Q148,http://www.wikidata.org/entity/Q11996704,Q11996704,Thermal power station,,
People's Republic of China,Q148,http://www.wikidata.org/entity/Q11996708,Q11996708,Thermal power station,,
People's Republic of China,Q148,http://www.wikidata.org/entity/Q11996735,Q11996735,Thermal power station,,
People's Republic of China,Q148,http://www.wikidata.org/entity/Q12000144,Q12000144,Thermal power station,,
People's Republic of China,Q148,http://www.wikidata.org/entity/Q12000170,Q12000170,Thermal power station,,
People's Republic of China,Q148,http://www.wikidata.org/entity/Q12000186,Q12000186,Thermal power station,,
People's Republic of China,Q148,http://www.wikidata.org/entity/Q12000185,Q12000185,Thermal power station,,
People's Republic of China,Q148,http://www.wikidata.org/entity/Q12000190,Q12000190,Thermal power station,,
People's Republic of China,Q148,http://www.wikidata.org/entity/Q12000199,Q12000199,Thermal power station,,
People's Republic of China,Q148,http://www.wikidata.org/entity/Q12000200,Q12000200,Thermal power station,,
People's Republic of China,Q148,http://www.wikidata.org/entity/Q12000231,Q12000231,Thermal power station,,
People's Republic of China,Q148,http://www.wikidata.org/entity/Q12000253,Q12000253,Thermal power station,,
People's Republic of China,Q148,http://www.wikidata.org/entity/Q12004107,Q12004107,Thermal power station,,
People's Republic of China,Q148,http://www.wikidata.org/entity/Q12004105,Q12004105,Thermal power station,,
People's Republic of China,Q148,http://www.wikidata.org/entity/Q12005077,Q12005077,Thermal power station,,
People's Republic of China,Q148,http://www.wikidata.org/entity/Q12005083,Q12005083,Thermal power station,,
People's Republic of China,Q148,http://www.wikidata.org/entity/Q12006269,Q12006269,Thermal power station,,
People's Republic of China,Q148,http://www.wikidata.org/entity/Q12006315,Q12006315,Thermal power station,,
People's Republic of China,Q148,http://www.wikidata.org/entity/Q12006770,Q12006770,Thermal power station,,
People's Republic of China,Q148,http://www.wikidata.org/entity/Q12006775,Q12006775,Thermal power station,,
People's Republic of China,Q148,http://www.wikidata.org/entity/Q12010395,Q12010395,Thermal power station,,
People's Republic of China,Q148,http://www.wikidata.org/entity/Q12010396,Q12010396,Thermal power station,,
People's Republic of China,Q148,http://www.wikidata.org/entity/Q12010401,Q12010401,Thermal power station,,
People's Republic of China,Q148,http://www.wikidata.org/entity/Q12010809,Q12010809,Thermal power station,,
People's Republic of China,Q148,http://www.wikidata.org/entity/Q12010816,Q12010816,Thermal power station,,
People's Republic of China,Q148,http://www.wikidata.org/entity/Q12010817,Q12010817,Thermal power station,,
People's Republic of China,Q148,http://www.wikidata.org/entity/Q12010858,Q12010858,Thermal power station,,
People's Republic of China,Q148,http://www.wikidata.org/entity/Q12010861,Q12010861,Thermal power station,,
People's Republic of China,Q148,http://www.wikidata.org/entity/Q12010866,Q12010866,Thermal power station,,
People's Republic of China,Q148,http://www.wikidata.org/entity/Q12010870,Q12010870,Thermal power station,,
People's Republic of China,Q148,http://www.wikidata.org/entity/Q12010869,Q12010869,Thermal power station,,
People's Republic of China,Q148,http://www.wikidata.org/entity/Q12010875,Q12010875,Thermal power station,,
People's Republic of China,Q148,http://www.wikidata.org/entity/Q12010880,Q12010880,Thermal power station,,
People's Republic of China,Q148,http://www.wikidata.org/entity/Q12010895,Q12010895,Thermal power station,,
People's Republic of China,Q148,http://www.wikidata.org/entity/Q12010898,Q12010898,Thermal power station,,
People's Republic of China,Q148,http://www.wikidata.org/entity/Q12010899,Q12010899,Thermal power station,,
People's Republic of China,Q148,http://www.wikidata.org/entity/Q12010900,Q12010900,Thermal power station,,
People's Republic of China,Q148,http://www.wikidata.org/entity/Q12010934,Q12010934,Thermal power station,,
People's Republic of China,Q148,http://www.wikidata.org/entity/Q12010940,Q12010940,Thermal power station,,
People's Republic of China,Q148,http://www.wikidata.org/entity/Q12010941,Q12010941,Thermal power station,,
People's Republic of China,Q148,http://www.wikidata.org/entity/Q12010948,Q12010948,Thermal power station,,
People's Republic of China,Q148,http://www.wikidata.org/entity/Q12010976,Q12010976,Thermal power station,,
People's Republic of China,Q148,http://www.wikidata.org/entity/Q12011014,Q12011014,Thermal power station,,
People's Republic of China,Q148,http://www.wikidata.org/entity/Q12011017,Q12011017,Thermal power station,,
People's Republic of China,Q148,http://www.wikidata.org/entity/Q11960155,Q11960155,Thermal power station,,
People's Republic of China,Q148,http://www.wikidata.org/entity/Q11960152,Q11960152,Thermal power station,,
People's Republic of China,Q148,http://www.wikidata.org/entity/Q11960158,Q11960158,Thermal power station,,
People's Republic of China,Q148,http://www.wikidata.org/entity/Q11960156,Q11960156,Thermal power station,,
People's Republic of China,Q148,http://www.wikidata.org/entity/Q11960157,Q11960157,Thermal power station,,
People's Republic of China,Q148,http://www.wikidata.org/entity/Q11960160,Q11960160,Thermal power station,,
People's Republic of China,Q148,http://www.wikidata.org/entity/Q11960443,Q11960443,Thermal power station,,
People's Republic of China,Q148,http://www.wikidata.org/entity/Q11960445,Q11960445,Thermal power station,,
People's Republic of China,Q148,http://www.wikidata.org/entity/Q11960552,Q11960552,Thermal power station,,
People's Republic of China,Q148,http://www.wikidata.org/entity/Q11961047,Q11961047,Thermal power station,,
People's Republic of China,Q148,http://www.wikidata.org/entity/Q11963078,Q11963078,Thermal power station,,
People's Republic of China,Q148,http://www.wikidata.org/entity/Q11963437,Q11963437,Thermal power station,,
People's Republic of China,Q148,http://www.wikidata.org/entity/Q11963509,Q11963509,Thermal power station,,
People's Republic of China,Q148,http://www.wikidata.org/entity/Q11964557,Q11964557,Thermal power station,,
People's Republic of China,Q148,http://www.wikidata.org/entity/Q11964593,Q11964593,Thermal power station,,
People's Republic of China,Q148,http://www.wikidata.org/entity/Q11964669,Q11964669,Thermal power station,,
People's Republic of China,Q148,http://www.wikidata.org/entity/Q11965710,Q11965710,Thermal power station,,
People's Republic of China,Q148,http://www.wikidata.org/entity/Q11965712,Q11965712,Thermal power station,,
People's Republic of China,Q148,http://www.wikidata.org/entity/Q11965934,Q11965934,Thermal power station,,
People's Republic of China,Q148,http://www.wikidata.org/entity/Q11965972,Q11965972,Thermal power station,,
People's Republic of China,Q148,http://www.wikidata.org/entity/Q11968279,Q11968279,Thermal power station,,
People's Republic of China,Q148,http://www.wikidata.org/entity/Q11968706,Q11968706,Thermal power station,,
People's Republic of China,Q148,http://www.wikidata.org/entity/Q11970494,Q11970494,Thermal power station,,
People's Republic of China,Q148,http://www.wikidata.org/entity/Q11973175,Q11973175,Thermal power station,,
People's Republic of China,Q148,http://www.wikidata.org/entity/Q11973366,Q11973366,Thermal power station,,
People's Republic of China,Q148,http://www.wikidata.org/entity/Q11973365,Q11973365,Thermal power station,,
People's Republic of China,Q148,http://www.wikidata.org/entity/Q11973368,Q11973368,Thermal power station,,
People's Republic of China,Q148,http://www.wikidata.org/entity/Q11974995,Q11974995,Thermal power station,,
People's Republic of China,Q148,http://www.wikidata.org/entity/Q11975307,Q11975307,Thermal power station,,
People's Republic of China,Q148,http://www.wikidata.org/entity/Q11975778,Q11975778,Thermal power station,,
People's Republic of China,Q148,http://www.wikidata.org/entity/Q11975967,Q11975967,Thermal power station,,
People's Republic of China,Q148,http://www.wikidata.org/entity/Q11975968,Q11975968,Thermal power station,,
People's Republic of China,Q148,http://www.wikidata.org/entity/Q11975996,Q11975996,Thermal power station,,
People's Republic of China,Q148,http://www.wikidata.org/entity/Q11964809,Datong 2nd Power Station,Thermal power station,,
People's Republic of China,Q148,http://www.wikidata.org/entity/Q11973876,Hanchuan Power Station,Thermal power station,,
People's Republic of China,Q148,http://www.wikidata.org/entity/Q11976001,Q11976001,Thermal power station,,
People's Republic of China,Q148,http://www.wikidata.org/entity/Q11976007,Q11976007,Thermal power station,,
People's Republic of China,Q148,http://www.wikidata.org/entity/Q11976009,Q11976009,Thermal power station,,
People's Republic of China,Q148,http://www.wikidata.org/entity/Q11976019,Q11976019,Thermal power station,,
People's Republic of China,Q148,http://www.wikidata.org/entity/Q11976016,Q11976016,Thermal power station,,
People's Republic of China,Q148,http://www.wikidata.org/entity/Q11976136,Q11976136,Thermal power station,,
People's Republic of China,Q148,http://www.wikidata.org/entity/Q11976137,Q11976137,Thermal power station,,
People's Republic of China,Q148,http://www.wikidata.org/entity/Q11978565,Q11978565,Thermal power station,,
People's Republic of China,Q148,http://www.wikidata.org/entity/Q11978571,Q11978571,Thermal power station,,
People's Republic of China,Q148,http://www.wikidata.org/entity/Q11978594,Q11978594,Thermal power station,,
People's Republic of China,Q148,http://www.wikidata.org/entity/Q11979912,Q11979912,Thermal power station,,
People's Republic of China,Q148,http://www.wikidata.org/entity/Q11982357,Q11982357,Thermal power station,,
People's Republic of China,Q148,http://www.wikidata.org/entity/Q11983221,Q11983221,Thermal power station,,
People's Republic of China,Q148,http://www.wikidata.org/entity/Q11983772,Q11983772,Thermal power station,,
People's Republic of China,Q148,http://www.wikidata.org/entity/Q11983897,Q11983897,Thermal power station,,
People's Republic of China,Q148,http://www.wikidata.org/entity/Q11983905,Q11983905,Thermal power station,,
People's Republic of China,Q148,http://www.wikidata.org/entity/Q11984126,Q11984126,Thermal power station,,
People's Republic of China,Q148,http://www.wikidata.org/entity/Q11984127,Q11984127,Thermal power station,,
People's Republic of China,Q148,http://www.wikidata.org/entity/Q11986517,Q11986517,Thermal power station,,
People's Republic of China,Q148,http://www.wikidata.org/entity/Q11986625,Q11986625,Thermal power station,,
People's Republic of China,Q148,http://www.wikidata.org/entity/Q11986760,Q11986760,Thermal power station,,
People's Republic of China,Q148,http://www.wikidata.org/entity/Q11987029,Q11987029,Thermal power station,,
People's Republic of China,Q148,http://www.wikidata.org/entity/Q11987058,Q11987058,Thermal power station,,
People's Republic of China,Q148,http://www.wikidata.org/entity/Q11978604,Jinneng power station,Thermal power station,,
People's Republic of China,Q148,http://www.wikidata.org/entity/Q12011088,Q12011088,Thermal power station,,
People's Republic of China,Q148,http://www.wikidata.org/entity/Q12011098,Q12011098,Thermal power station,,
People's Republic of China,Q148,http://www.wikidata.org/entity/Q12011099,Q12011099,Thermal power station,,
People's Republic of China,Q148,http://www.wikidata.org/entity/Q12011097,Q12011097,Thermal power station,,
People's Republic of China,Q148,http://www.wikidata.org/entity/Q12011110,Q12011110,Thermal power station,,
People's Republic of China,Q148,http://www.wikidata.org/entity/Q12011112,Q12011112,Thermal power station,,
People's Republic of China,Q148,http://www.wikidata.org/entity/Q12011198,Q12011198,Thermal power station,,
People's Republic of China,Q148,http://www.wikidata.org/entity/Q12011203,Q12011203,Thermal power station,,
People's Republic of China,Q148,http://www.wikidata.org/entity/Q12011201,Q12011201,Thermal power station,,
People's Republic of China,Q148,http://www.wikidata.org/entity/Q12011205,Q12011205,Thermal power station,,
People's Republic of China,Q148,http://www.wikidata.org/entity/Q12011213,Q12011213,Thermal power station,,
People's Republic of China,Q148,http://www.wikidata.org/entity/Q12011237,Q12011237,Thermal power station,,
People's Republic of China,Q148,http://www.wikidata.org/entity/Q17749778,Q17749778,Thermal power station,,
People's Republic of China,Q148,http://www.wikidata.org/entity/Q17749786,Q17749786,Thermal power station,,
People's Republic of China,Q148,http://www.wikidata.org/entity/Q17764716,Q17764716,Thermal power station,,
People's Republic of China,Q148,http://www.wikidata.org/entity/Q17769770,Q17769770,Thermal power station,,
People's Republic of China,Q148,http://www.wikidata.org/entity/Q17770836,Q17770836,Thermal power station,,
People's Republic of China,Q148,http://www.wikidata.org/entity/Q17775439,Q17775439,Thermal power station,,
People's Republic of China,Q148,http://www.wikidata.org/entity/Q17779293,Q17779293,Thermal power station,,
People's Republic of China,Q148,http://www.wikidata.org/entity/Q17779474,Q17779474,Thermal power station,,
People's Republic of China,Q148,http://www.wikidata.org/entity/Q17779475,Q17779475,Thermal power station,,
People's Republic of China,Q148,http://www.wikidata.org/entity/Q17779476,Q17779476,Thermal power station,,
People's Republic of China,Q148,http://www.wikidata.org/entity/Q17779484,Q17779484,Thermal power station,,
People's Republic of China,Q148,http://www.wikidata.org/entity/Q17779746,Q17779746,Thermal power station,,
People's Republic of China,Q148,http://www.wikidata.org/entity/Q19373520,Q19373520,Thermal power station,,
People's Republic of China,Q148,http://www.wikidata.org/entity/Q19373541,Q19373541,Thermal power station,,
People's Republic of China,Q148,http://www.wikidata.org/entity/Q19373968,Q19373968,Thermal power station,,
People's Republic of China,Q148,http://www.wikidata.org/entity/Q19374174,Q19374174,Thermal power station,,
People's Republic of China,Q148,http://www.wikidata.org/entity/Q19374295,Q19374295,Thermal power station,,
People's Republic of China,Q148,http://www.wikidata.org/entity/Q19374521,Q19374521,Thermal power station,,
People's Republic of China,Q148,http://www.wikidata.org/entity/Q19374855,Q19374855,Thermal power station,,
People's Republic of China,Q148,http://www.wikidata.org/entity/Q19374858,Q19374858,Thermal power station,,
People's Republic of China,Q148,http://www.wikidata.org/entity/Q19374872,Q19374872,Thermal power station,,
People's Republic of China,Q148,http://www.wikidata.org/entity/Q17764508,Dalate power station,Thermal power station,,
People's Republic of China,Q148,http://www.wikidata.org/entity/Q19374870,Huangdao Power Plant,Thermal power station,,
People's Republic of China,Q148,http://www.wikidata.org/entity/Q19376293,Q19376293,Thermal power station,,
People's Republic of China,Q148,http://www.wikidata.org/entity/Q19376296,Q19376296,Thermal power station,,
People's Republic of China,Q148,http://www.wikidata.org/entity/Q19376297,Q19376297,Thermal power station,,
People's Republic of China,Q148,http://www.wikidata.org/entity/Q19376310,Q19376310,Thermal power station,,
People's Republic of China,Q148,http://www.wikidata.org/entity/Q19376311,Q19376311,Thermal power station,,
People's Republic of China,Q148,http://www.wikidata.org/entity/Q19376315,Q19376315,Thermal power station,,
People's Republic of China,Q148,http://www.wikidata.org/entity/Q19376319,Q19376319,Thermal power station,,
People's Republic of China,Q148,http://www.wikidata.org/entity/Q19376316,Q19376316,Thermal power station,,
People's Republic of China,Q148,http://www.wikidata.org/entity/Q19376533,Q19376533,Thermal power station,,
People's Republic of China,Q148,http://www.wikidata.org/entity/Q19378739,Q19378739,Thermal power station,,
People's Republic of China,Q148,http://www.wikidata.org/entity/Q19378971,Q19378971,Thermal power station,,
People's Republic of China,Q148,http://www.wikidata.org/entity/Q19379300,Q19379300,Thermal power station,,
People's Republic of China,Q148,http://www.wikidata.org/entity/Q19380155,Q19380155,Thermal power station,,
People's Republic of China,Q148,http://www.wikidata.org/entity/Q19380158,Q19380158,Thermal power station,,
People's Republic of China,Q148,http://www.wikidata.org/entity/Q19380156,Q19380156,Thermal power station,,
People's Republic of China,Q148,http://www.wikidata.org/entity/Q19381190,Q19381190,Thermal power station,,
People's Republic of China,Q148,http://www.wikidata.org/entity/Q19381299,Q19381299,Thermal power station,,
People's Republic of China,Q148,http://www.wikidata.org/entity/Q19381564,Q19381564,Thermal power station,,
People's Republic of China,Q148,http://www.wikidata.org/entity/Q19382528,Q19382528,Thermal power station,,
People's Republic of China,Q148,http://www.wikidata.org/entity/Q19385954,Q19385954,Thermal power station,,
People's Republic of China,Q148,http://www.wikidata.org/entity/Q19387687,Q19387687,Thermal power station,,
People's Republic of China,Q148,http://www.wikidata.org/entity/Q19388325,Q19388325,Thermal power station,,
People's Republic of China,Q148,http://www.wikidata.org/entity/Q19388346,Q19388346,Thermal power station,,
People's Republic of China,Q148,http://www.wikidata.org/entity/Q19388366,Q19388366,Thermal power station,,
People's Republic of China,Q148,http://www.wikidata.org/entity/Q19391854,Q19391854,Thermal power station,,
People's Republic of China,Q148,http://www.wikidata.org/entity/Q19391938,Q19391938,Thermal power station,,
People's Republic of China,Q148,http://www.wikidata.org/entity/Q19391937,Q19391937,Thermal power station,,
People's Republic of China,Q148,http://www.wikidata.org/entity/Q19392438,Q19392438,Thermal power station,,
People's Republic of China,Q148,http://www.wikidata.org/entity/Q19398591,Q19398591,Thermal power station,,
People's Republic of China,Q148,http://www.wikidata.org/entity/Q19398624,Q19398624,Thermal power station,,
People's Republic of China,Q148,http://www.wikidata.org/entity/Q19398755,Q19398755,Thermal power station,,
People's Republic of China,Q148,http://www.wikidata.org/entity/Q19398760,Q19398760,Thermal power station,,
People's Republic of China,Q148,http://www.wikidata.org/entity/Q19398774,Q19398774,Thermal power station,,
People's Republic of China,Q148,http://www.wikidata.org/entity/Q19398773,Q19398773,Thermal power station,,
People's Republic of China,Q148,http://www.wikidata.org/entity/Q19398781,Q19398781,Thermal power station,,
People's Republic of China,Q148,http://www.wikidata.org/entity/Q19398787,Q19398787,Thermal power station,,
People's Republic of China,Q148,http://www.wikidata.org/entity/Q19398784,Q19398784,Thermal power station,,
People's Republic of China,Q148,http://www.wikidata.org/entity/Q19398789,Q19398789,Thermal power station,,
People's Republic of China,Q148,http://www.wikidata.org/entity/Q19398810,Q19398810,Thermal power station,,
People's Republic of China,Q148,http://www.wikidata.org/entity/Q19398814,Q19398814,Thermal power station,,
People's Republic of China,Q148,http://www.wikidata.org/entity/Q19398816,Q19398816,Thermal power station,,
People's Republic of China,Q148,http://www.wikidata.org/entity/Q19398846,Q19398846,Thermal power station,,
People's Republic of China,Q148,http://www.wikidata.org/entity/Q19398895,Q19398895,Thermal power station,,
People's Republic of China,Q148,http://www.wikidata.org/entity/Q19398927,Q19398927,Thermal power station,,
People's Republic of China,Q148,http://www.wikidata.org/entity/Q19398928,Q19398928,Thermal power station,,
People's Republic of China,Q148,http://www.wikidata.org/entity/Q111912161,Jurong power station,Thermal power station,,
People's Republic of China,Q148,http://www.wikidata.org/entity/Q10905839,Q10905839,Thermal power station,,
People's Republic of China,Q148,http://www.wikidata.org/entity/Q11104378,Q11104378,Thermal power station,,
People's Republic of China,Q148,http://www.wikidata.org/entity/Q11133418,Q11133418,Thermal power station,,
People's Republic of China,Q148,http://www.wikidata.org/entity/Q11960439,Q11960439,Thermal power station,,
People's Republic of China,Q148,http://www.wikidata.org/entity/Q11963087,Q11963087,Thermal power station,,
People's Republic of China,Q148,http://www.wikidata.org/entity/Q11963421,Q11963421,Thermal power station,,
People's Republic of China,Q148,http://www.wikidata.org/entity/Q11965926,Q11965926,Thermal power station,,
People's Republic of China,Q148,http://www.wikidata.org/entity/Q11969746,Q11969746,Thermal power station,,
People's Republic of China,Q148,http://www.wikidata.org/entity/Q11971555,Q11971555,Thermal power station,,
People's Republic of China,Q148,http://www.wikidata.org/entity/Q11973906,Q11973906,Thermal power station,,
People's Republic of China,Q148,http://www.wikidata.org/entity/Q11975304,Q11975304,Thermal power station,,
People's Republic of China,Q148,http://www.wikidata.org/entity/Q11978563,Q11978563,Thermal power station,,
People's Republic of China,Q148,http://www.wikidata.org/entity/Q11990797,Q11990797,Thermal power station,,
People's Republic of China,Q148,http://www.wikidata.org/entity/Q12000184,Q12000184,Thermal power station,,
People's Republic of China,Q148,http://www.wikidata.org/entity/Q12000204,Q12000204,Thermal power station,,
People's Republic of China,Q148,http://www.wikidata.org/entity/Q12010399,Q12010399,Thermal power station,,
People's Republic of China,Q148,http://www.wikidata.org/entity/Q12010894,Q12010894,Thermal power station,,
People's Republic of China,Q148,http://www.wikidata.org/entity/Q12010938,Q12010938,Thermal power station,,
People's Republic of China,Q148,http://www.wikidata.org/entity/Q10379675,Shajiao power plant,Thermal power station,,
People's Republic of China,Q148,http://www.wikidata.org/entity/Q15928922,Q15928922,Thermal power station,,
People's Republic of China,Q148,http://www.wikidata.org/entity/Q10905880,Huaneng power plant,Thermal power station,,
People's Republic of China,Q148,http://www.wikidata.org/entity/Q19372311,Q19372311,Thermal power station,,
People's Republic of China,Q148,http://www.wikidata.org/entity/Q19373548,Q19373548,Thermal power station,,
People's Republic of China,Q148,http://www.wikidata.org/entity/Q19378972,Q19378972,Thermal power station,,
People's Republic of China,Q148,http://www.wikidata.org/entity/Q19388353,Q19388353,Thermal power station,,
People's Republic of China,Q148,http://www.wikidata.org/entity/Q19391190,Q19391190,Thermal power station,,
People's Republic of China,Q148,http://www.wikidata.org/entity/Q19398754,Q19398754,Thermal power station,,
People's Republic of China,Q148,http://www.wikidata.org/entity/Q19398803,Q19398803,Thermal power station,,
People's Republic of China,Q148,http://www.wikidata.org/entity/Q19398930,Q19398930,Thermal power station,,
People's Republic of China,Q148,http://www.wikidata.org/entity/Q19398929,Q19398929,Thermal power station,,
People's Republic of China,Q148,http://www.wikidata.org/entity/Q19398935,Q19398935,Thermal power station,,
People's Republic of China,Q148,http://www.wikidata.org/entity/Q19398942,Q19398942,Thermal power station,,
People's Republic of China,Q148,http://www.wikidata.org/entity/Q19398941,Q19398941,Thermal power station,,
People's Republic of China,Q148,http://www.wikidata.org/entity/Q15940606,Wan Chai Power Station,Thermal power station,,
People's Republic of China,Q148,http://www.wikidata.org/entity/Q17065664,Yangbajain Geothermal Power Station,Thermal power station,,
People's Republic of China,Q148,http://www.wikidata.org/entity/Q48935851,Q48935851,Thermal power station,,
People's Republic of China,Q148,http://www.wikidata.org/entity/Q107450009,Q107450009,Thermal power station,,
People's Republic of China,Q148,http://www.wikidata.org/entity/Q9881381,Datang Leiyang Power Plant,Thermal power station,,
People's Republic of China,Q148,http://www.wikidata.org/entity/Q104830451,Laibin Power Station,Thermal power station,,
People's Republic of China,Q148,http://www.wikidata.org/entity/Q104876655,Golmud Gas-fire Power Station,Thermal power station,,
People's Republic of China,Q148,http://www.wikidata.org/entity/Q104876685,Wenchang Natural Gas Power Station,Thermal power station,,
People's Republic of China,Q148,http://www.wikidata.org/entity/Q104879484,Wujing Power Station,Thermal power station,,
People's Republic of China,Q148,http://www.wikidata.org/entity/Q111181247,Xiantao Power Station,Thermal power station,,
United Kingdom,Q145,http://www.wikidata.org/entity/Q11972431,Q11972431,Thermal power station,,
United Kingdom,Q145,http://www.wikidata.org/entity/Q11998416,Q11998416,Thermal power station,,
United Kingdom,Q145,http://www.wikidata.org/entity/Q17762809,Q17762809,Thermal power station,,
United Kingdom,Q145,http://www.wikidata.org/entity/Q132860987,Hirwaun Power Station,Thermal power station,,
United Kingdom,Q145,http://www.wikidata.org/entity/Q132861010,Millbrook Power,Thermal power station,,
United Kingdom,Q145,http://www.wikidata.org/entity/Q132861016,Progress Power,Thermal power station,,
United Kingdom,Q145,http://www.wikidata.org/entity/Q104867034,Macclesfield group power stations,Thermal power station,,
United Kingdom,Q145,http://www.wikidata.org/entity/Q116886710,Red Scar Peaking Plant,Thermal power station,,
United Kingdom,Q145,http://www.wikidata.org/entity/Q117262064,Bispham Flexible Generation,Thermal power station,,
United Kingdom,Q145,http://www.wikidata.org/entity/Q116861425,Grangemouth CHP,Thermal power station,,
United Kingdom,Q145,http://www.wikidata.org/entity/Q116861380,Severn Power Station,Thermal power station,,
United Kingdom,Q145,http://www.wikidata.org/entity/Q116861411,West Burton B Power Station,Thermal power station,,
United Kingdom,Q145,http://www.wikidata.org/entity/Q116863673,Fellside Power Station,Thermal power station,,
United Kingdom,Q145,http://www.wikidata.org/entity/Q116875442,Fawley Cogen Power Station,Thermal power station,,
United Kingdom,Q145,http://www.wikidata.org/entity/Q116884110,Redfield Road Gas Generation Plant,Thermal power station,,
United Kingdom,Q145,http://www.wikidata.org/entity/Q116886641,Lester Way Power Plant,Thermal power station,,
United Kingdom,Q145,http://www.wikidata.org/entity/Q116886687,The Drove Power Plant,Thermal power station,,
United Kingdom,Q145,http://www.wikidata.org/entity/Q116899982,Derby Gas Power Station,Thermal power station,,
United Kingdom,Q145,http://www.wikidata.org/entity/Q116900565,Exeter Gas Power Station,Thermal power station,,
United Kingdom,Q145,http://www.wikidata.org/entity/Q116901037,Heartlands Power Station,Thermal power station,,
United Kingdom,Q145,http://www.wikidata.org/entity/Q116904528,Trafalgar Park Gas Peaking Plant,Thermal power station,,
United Kingdom,Q145,http://www.wikidata.org/entity/Q116907489,Chickerell Power Station,Thermal power station,,
United Kingdom,Q145,http://www.wikidata.org/entity/Q116910963,Burghfield Power Station,Thermal power station,,
United Kingdom,Q145,http://www.wikidata.org/entity/Q116912418,Keadby Three Power Station,Thermal power station,,
United Kingdom,Q145,http://www.wikidata.org/entity/Q117036082,Goose House Lane Power Station,Thermal power station,,
United Kingdom,Q145,http://www.wikidata.org/entity/Q117036012,Moorfield Drive Power Station,Thermal power station,,
United Kingdom,Q145,http://www.wikidata.org/entity/Q117035975,Solutia District Energy,Thermal power station,,
United Kingdom,Q145,http://www.wikidata.org/entity/Q117035982,Sevington District Energy,Thermal power station,,
United Kingdom,Q145,http://www.wikidata.org/entity/Q117035993,Sudmeadow Road Power Station,Thermal power station,,
United Kingdom,Q145,http://www.wikidata.org/entity/Q117036041,Rake Lane Power Station,Thermal power station,,
United Kingdom,Q145,http://www.wikidata.org/entity/Q117036789,Bridgwater Power Station,Thermal power station,,
United Kingdom,Q145,http://www.wikidata.org/entity/Q117037261,Chatterley Power Station,Thermal power station,,
United Kingdom,Q145,http://www.wikidata.org/entity/Q117423985,Gowerton East Power Station,Thermal power station,,
United Kingdom,Q145,http://www.wikidata.org/entity/Q30673453,White Rose Project,Thermal power station,,
United Kingdom,Q145,http://www.wikidata.org/entity/Q132798429,Shoreditch Power Station,Thermal power station,,
United Kingdom,Q145,http://www.wikidata.org/entity/Q115952916,Runcorn Energy from Waste,Thermal power station,,
United Kingdom,Q145,http://www.wikidata.org/entity/Q116861396,West Burton A Power Station,Thermal power station,,
United Kingdom,Q145,http://www.wikidata.org/entity/Q116869638,Rothes Bio-Plant,Thermal power station,,
United Kingdom,Q145,http://www.wikidata.org/entity/Q116869960,Tilbury Green Power,Thermal power station,,
United Kingdom,Q145,http://www.wikidata.org/entity/Q116875500,Markinch Biomass Plant,Thermal power station,,
United Kingdom,Q145,http://www.wikidata.org/entity/Q116876924,Dunbar Energy Recovery Facility,Thermal power station,,
United Kingdom,Q145,http://www.wikidata.org/entity/Q116884029,Rugeley A Power Station,Thermal power station,,
United Kingdom,Q145,http://www.wikidata.org/entity/Q116884040,Rugeley B Power Station,Thermal power station,,
United Kingdom,Q145,http://www.wikidata.org/entity/Q116904187,Letchworth STOR,Thermal power station,,
United Kingdom,Q145,http://www.wikidata.org/entity/Q116911299,Keadby Coal Power Station,Thermal power station,,
United Kingdom,Q145,http://www.wikidata.org/entity/Q116913510,JG Pears Newark CHP,Thermal power station,,
United Kingdom,Q145,http://www.wikidata.org/entity/Q117196782,Barking A Power Station,Thermal power station,,
United Kingdom,Q145,http://www.wikidata.org/entity/Q117196790,Barking C Power Station,Thermal power station,,
United Kingdom,Q145,http://www.wikidata.org/entity/Q117196788,Barking B Power Station,Thermal power station,,
United Kingdom,Q145,http://www.wikidata.org/entity/Q117202123,Croydon A Power Station,Thermal power station,,
United Kingdom,Q145,http://www.wikidata.org/entity/Q117202130,Croydon B Power Station,Thermal power station,,
United Kingdom,Q145,http://www.wikidata.org/entity/Q117800616,Pembroke A Power Station,Thermal power station,,
United Kingdom,Q145,http://www.wikidata.org/entity/Q117804611,Ironbridge A Power Station,Thermal power station,,
United Kingdom,Q145,http://www.wikidata.org/entity/Q117804630,Ironbridge B Power Station,Thermal power station,,
India,Q668,http://www.wikidata.org/entity/Q11999611,Q11999611,Thermal power station,,
India,Q668,http://www.wikidata.org/entity/Q12000117,Q12000117,Thermal power station,,
India,Q668,http://www.wikidata.org/entity/Q12005046,Q12005046,Thermal power station,,
India,Q668,http://www.wikidata.org/entity/Q12006358,Q12006358,Thermal power station,,
India,Q668,http://www.wikidata.org/entity/Q19380906,Q19380906,Thermal power station,,
India,Q668,http://www.wikidata.org/entity/Q15991748,New Cossipore Thermal Power Station,Thermal power station,,
India,Q668,http://www.wikidata.org/entity/Q16845776,Hussain Sagar Thermal Power Station,Thermal power station,,
India,Q668,http://www.wikidata.org/entity/Q18111486,Dada Dhuniwale Thermal Power Plant,Thermal power station,,
India,Q668,http://www.wikidata.org/entity/Q18126596,Karchana Thermal Power Station,Thermal power station,,
India,Q668,http://www.wikidata.org/entity/Q18357740,VS Lignite Power Plant,Thermal power station,,
India,Q668,http://www.wikidata.org/entity/Q11982002,Q11982002,Thermal power station,,
India,Q668,http://www.wikidata.org/entity/Q11957104,Akaltara Ultra Mega Power Plant,Thermal power station,,
India,Q668,http://www.wikidata.org/entity/Q17750345,Q17750345,Thermal power station,,
India,Q668,http://www.wikidata.org/entity/Q97186310,Agartala GT CCPP,Thermal power station,,
India,Q668,http://www.wikidata.org/entity/Q97187723,Tripura Gas based CCPP,Thermal power station,,
India,Q668,http://www.wikidata.org/entity/Q15991692,Maithon Gas Turbine Station,Thermal power station,,
India,Q668,http://www.wikidata.org/entity/Q15991744,Kasba Thermal Power Station,Thermal power station,,
India,Q668,http://www.wikidata.org/entity/Q16894638,Essar Bhander Power Plant,Thermal power station,,
India,Q668,http://www.wikidata.org/entity/Q17088295,Sakthan Thampuran Bio-Waste Treatment Plant,Thermal power station,,
India,Q668,http://www.wikidata.org/entity/Q28169379,Surguja Ultra Mega Power Project,Thermal power station,,
Russia,Q159,http://www.wikidata.org/entity/Q4294188,Q4294188,Thermal power station,,
Russia,Q159,http://www.wikidata.org/entity/Q4466594,Q4466594,Thermal power station,,
Russia,Q159,http://www.wikidata.org/entity/Q11977514,Q11977514,Thermal power station,,
Russia,Q159,http://www.wikidata.org/entity/Q11990778,Q11990778,Thermal power station,,
Russia,Q159,http://www.wikidata.org/entity/Q11991144,Q11991144,Thermal power station,,
Russia,Q159,http://www.wikidata.org/entity/Q11991598,Q11991598,Thermal power station,,
Russia,Q159,http://www.wikidata.org/entity/Q11995116,Q11995116,Thermal power station,,
Russia,Q159,http://www.wikidata.org/entity/Q19376057,Q19376057,Thermal power station,,
Russia,Q159,http://www.wikidata.org/entity/Q19381906,Q19381906,Thermal power station,,
Russia,Q159,http://www.wikidata.org/entity/Q19384738,Q19384738,Thermal power station,,
Russia,Q159,http://www.wikidata.org/entity/Q25426949,Q25426949,Thermal power station,,
Russia,Q159,http://www.wikidata.org/entity/Q55658469,Q55658469,Thermal power station,,
Russia,Q159,http://www.wikidata.org/entity/Q65175141,Q65175141,Thermal power station,,
Russia,Q159,http://www.wikidata.org/entity/Q66488879,Q66488879,Thermal power station,,
Russia,Q159,http://www.wikidata.org/entity/Q86663084,Q86663084,Thermal power station,,
Russia,Q159,http://www.wikidata.org/entity/Q86663188,Q86663188,Thermal power station,,
Russia,Q159,http://www.wikidata.org/entity/Q86666646,Q86666646,Thermal power station,,
Russia,Q159,http://www.wikidata.org/entity/Q86667203,Q86667203,Thermal power station,,
Russia,Q159,http://www.wikidata.org/entity/Q86667773,Q86667773,Thermal power station,,
Russia,Q159,http://www.wikidata.org/entity/Q86669012,Q86669012,Thermal power station,,
Russia,Q159,http://www.wikidata.org/entity/Q86669078,Q86669078,Thermal power station,,
Russia,Q159,http://www.wikidata.org/entity/Q109358900,Q109358900,Thermal power station,,
Russia,Q159,http://www.wikidata.org/entity/Q110259606,Q110259606,Thermal power station,,
Russia,Q159,http://www.wikidata.org/entity/Q110259609,Q110259609,Thermal power station,,
Japan,Q17,http://www.wikidata.org/entity/Q11225731,JFE Chiba Clean Power Station,Thermal power station,,
Japan,Q17,http://www.wikidata.org/entity/Q11305139,Summit Mihama Power,Thermal power station,,
Japan,Q17,http://www.wikidata.org/entity/Q11336773,Zero Watt Power Ichihara Power Station,Thermal power station,,
Japan,Q17,http://www.wikidata.org/entity/Q11364080,Funamachi Power Plant,Thermal power station,,
Japan,Q17,http://www.wikidata.org/entity/Q11449450,Uji Energy Center,Thermal power station,,
Japan,Q17,http://www.wikidata.org/entity/Q11480021,Ichihara Power,Thermal power station,,
Japan,Q17,http://www.wikidata.org/entity/Q11496836,Ohgishima Power,Thermal power station,,
Japan,Q17,http://www.wikidata.org/entity/Q11498545,Settsu Energy Center,Thermal power station,,
Japan,Q17,http://www.wikidata.org/entity/Q11506612,Japan Techno Sodegaura Green Power,Thermal power station,,
Japan,Q17,http://www.wikidata.org/entity/Q11543510,Yokosuka Power Station,Thermal power station,,
Japan,Q17,http://www.wikidata.org/entity/Q11554736,Senboku Natural Gas Power Generation,Thermal power station,,
Japan,Q17,http://www.wikidata.org/entity/Q11609172,Zero Watt Power Mihama Power Station,Thermal power station,,
Japan,Q17,http://www.wikidata.org/entity/Q11643941,Torishima Energy Center,Thermal power station,,
Japan,Q17,http://www.wikidata.org/entity/Q11677103,South Kashima Power Plant,Thermal power station,,
Japan,Q17,http://www.wikidata.org/entity/Q11305137,Q11305137,Thermal power station,,
Japan,Q17,http://www.wikidata.org/entity/Q11429503,Q11429503,Thermal power station,,
Japan,Q17,http://www.wikidata.org/entity/Q11501959,Q11501959,Thermal power station,,
Japan,Q17,http://www.wikidata.org/entity/Q11501956,Q11501956,Thermal power station,,
Japan,Q17,http://www.wikidata.org/entity/Q11529904,Q11529904,Thermal power station,,
Japan,Q17,http://www.wikidata.org/entity/Q11565159,Q11565159,Thermal power station,,
Japan,Q17,http://www.wikidata.org/entity/Q11603460,Q11603460,Thermal power station,,
Japan,Q17,http://www.wikidata.org/entity/Q11345936,UBI Power Center,Thermal power station,,
Japan,Q17,http://www.wikidata.org/entity/Q11423043,Tosa Power Plant,Thermal power station,,
Japan,Q17,http://www.wikidata.org/entity/Q11430657,Q11430657,Thermal power station,,
Japan,Q17,http://www.wikidata.org/entity/Q11465005,Q11465005,Thermal power station,,
Japan,Q17,http://www.wikidata.org/entity/Q11980452,Q11980452,Thermal power station,,
Japan,Q17,http://www.wikidata.org/entity/Q17218769,Q17218769,Thermal power station,,
Japan,Q17,http://www.wikidata.org/entity/Q18337522,Q18337522,Thermal power station,,
Japan,Q17,http://www.wikidata.org/entity/Q19398519,Q19398519,Thermal power station,,
Japan,Q17,http://www.wikidata.org/entity/Q11225732,JFE Chiba Nishi Power Station,Thermal power station,,
Japan,Q17,http://www.wikidata.org/entity/Q11441559,Osaka Power Station,Thermal power station,,
Japan,Q17,http://www.wikidata.org/entity/Q11503880,Shin-Tanegashima Power Station,Thermal power station,,
Japan,Q17,http://www.wikidata.org/entity/Q38276268,Q38276268,Thermal power station,,
Japan,Q17,http://www.wikidata.org/entity/Q85877859,Q85877859,Thermal power station,,
Japan,Q17,http://www.wikidata.org/entity/Q97163111,Q97163111,Thermal power station,,
Japan,Q17,http://www.wikidata.org/entity/Q60985637,Minamihayakita Power Station,Thermal power station,,
Japan,Q17,http://www.wikidata.org/entity/Q130744656,Q130744656,Thermal power station,,
United States,Q30,http://www.wikidata.org/entity/Q5046472,Carrizo Energy Solar Farm,Thermal power station,,
United States,Q30,http://www.wikidata.org/entity/Q11959573,Quantum Auburndale Power Plant,Thermal power station,,
United States,Q30,http://www.wikidata.org/entity/Q11963000,Caledonia Power Facility,Thermal power station,,
United States,Q30,http://www.wikidata.org/entity/Q17761601,Q17761601,Thermal power station,,
United States,Q30,http://www.wikidata.org/entity/Q11997782,Q11997782,Thermal power station,,
United States,Q30,http://www.wikidata.org/entity/Q11991251,New Albany Energy Facility,Thermal power station,,
United States,Q30,http://www.wikidata.org/entity/Q11994826,Quantum Pasco Power Plant,Thermal power station,,
United States,Q30,http://www.wikidata.org/entity/Q11999024,SRW Cogen,Thermal power station,,
United States,Q30,http://www.wikidata.org/entity/Q116697798,Connecticut College,Thermal power station,,
United States,Q30,http://www.wikidata.org/entity/Q116697797,CoreSite - Somerville,Thermal power station,,
United States,Q30,http://www.wikidata.org/entity/Q116697796,Equinix - Elmsford,Thermal power station,,
United States,Q30,http://www.wikidata.org/entity/Q116697790,Kaiser - Harbor City,Thermal power station,,
United States,Q30,http://www.wikidata.org/entity/Q116697794,Kaiser - LA,Thermal power station,,
United States,Q30,http://www.wikidata.org/entity/Q116697795,Kaiser - Woodland Hills,Thermal power station,,
United States,Q30,http://www.wikidata.org/entity/Q116697793,Life Technologies - Fremont,Thermal power station,,
United States,Q30,http://www.wikidata.org/entity/Q116697791,San Diego Community College,Thermal power station,,
United States,Q30,http://www.wikidata.org/entity/Q11992653,NRG Norwalk Harbor Power Plant,Thermal power station,,
United States,Q30,http://www.wikidata.org/entity/Q133308258,Eastern Illinois University Plant,Thermal power station,,
United States,Q30,http://www.wikidata.org/entity/Q19378744,Quantum Lake Power Plant,Thermal power station,,
United States,Q30,http://www.wikidata.org/entity/Q19385380,Pittsburg Power Plant,Thermal power station,,
United States,Q30,http://www.wikidata.org/entity/Q12005482,Q12005482,Thermal power station,,
United States,Q30,http://www.wikidata.org/entity/Q19385379,Q19385379,Thermal power station,,
United States,Q30,http://www.wikidata.org/entity/Q19393522,Turkey Point Power Station,Thermal power station,,
United States,Q30,http://www.wikidata.org/entity/Q19398630,Werner Power Plant,Thermal power station,,
United States,Q30,http://www.wikidata.org/entity/Q19393035,Trimble County Power Plant,Thermal power station,,
United States,Q30,http://www.wikidata.org/entity/Q17779529,Q17779529,Thermal power station,,
United States,Q30,http://www.wikidata.org/entity/Q48836218,Ely Energy Center,Thermal power station,,
United States,Q30,http://www.wikidata.org/entity/Q11956640,Q11956640,Thermal power station,,
United States,Q30,http://www.wikidata.org/entity/Q11956642,GMMM Westover Power Plant,Thermal power station,,
United States,Q30,http://www.wikidata.org/entity/Q7707579,Texas Clean Energy Project,Thermal power station,,
United States,Q30,http://www.wikidata.org/entity/Q11976134,C R Huntley Generating Station,Thermal power station,,
United States,Q30,http://www.wikidata.org/entity/Q11996124,Potomac River Power Plant,Thermal power station,,
United States,Q30,http://www.wikidata.org/entity/Q11998041,Roanoke Valley Energy Facility I,Thermal power station,,
United States,Q30,http://www.wikidata.org/entity/Q11957058,Q11957058,Thermal power station,,
United States,Q30,http://www.wikidata.org/entity/Q19385228,Q19385228,Thermal power station,,
Australia,Q408,http://www.wikidata.org/entity/Q81895744,Ravensthorpe Power Station,Thermal power station,,
Australia,Q408,http://www.wikidata.org/entity/Q81895741,Sunshine Power Station,Thermal power station,,
Australia,Q408,http://www.wikidata.org/entity/Q125688488,WEST KALGOORLIE GT3,Thermal power station,,
Australia,Q408,http://www.wikidata.org/entity/Q131429367,PHOENIX KWINANA WTE G1,Thermal power station,,
Australia,Q408,http://www.wikidata.org/entity/Q96397927,Owen Springs Power Station,Thermal power station,,
Australia,Q408,http://www.wikidata.org/entity/Q110639880,Katherine Power Station,Thermal power station,,
Australia,Q408,http://www.wikidata.org/entity/Q17011174,Lithgow power station,Thermal power station,,
Australia,Q408,http://www.wikidata.org/entity/Q19384029,Augusta power stations,Thermal power station,,
Turkey,Q43,http://www.wikidata.org/entity/Q123924828,Kömürcüoda,Thermal power station,,
Turkey,Q43,http://www.wikidata.org/entity/Q97613554,Ada Seker power station,Thermal power station,,
Turkey,Q43,http://www.wikidata.org/entity/Q97613575,Albayrak Balıkesir Cogeneration,Thermal power station,,
Turkey,Q43,http://www.wikidata.org/entity/Q97613731,Tarım Kredi Dairy Cogeneration,Thermal power station,,
Turkey,Q43,http://www.wikidata.org/entity/Q97639898,Bandirma Borax,Thermal power station,,
Turkey,Q43,http://www.wikidata.org/entity/Q97640404,Beypazarı ETİ Soda Cogeneration,Thermal power station,,
Turkey,Q43,http://www.wikidata.org/entity/Q97640613,Bolluk power station,Thermal power station,,
Turkey,Q43,http://www.wikidata.org/entity/Q97641301,Çankırı Salt Factory Cogeneration,Thermal power station,,
Turkey,Q43,http://www.wikidata.org/entity/Q97641756,Çolakoğlu power station,Thermal power station,,
Turkey,Q43,http://www.wikidata.org/entity/Q97641818,Dazkırı Cogeneration,Thermal power station,,
Turkey,Q43,http://www.wikidata.org/entity/Q97641967,Göknur power station,Thermal power station,,
Turkey,Q43,http://www.wikidata.org/entity/Q97642262,Kahramanmaraş Paper Factory power station,Thermal power station,,
Turkey,Q43,http://www.wikidata.org/entity/Q97642268,Kardemir power station,Thermal power station,,
Turkey,Q43,http://www.wikidata.org/entity/Q97666342,Kipaş paper factory power station,Thermal power station,,
Turkey,Q43,http://www.wikidata.org/entity/Q97666345,Küçüker cogeneration power station,Thermal power station,,
Turkey,Q43,http://www.wikidata.org/entity/Q97666375,Kütahya sugar factory power station,Thermal power station,,
Turkey,Q43,http://www.wikidata.org/entity/Q97666391,Petlas tyres power station,Thermal power station,,
Turkey,Q43,http://www.wikidata.org/entity/Q97666417,Seydişehir power station,Thermal power station,,
Turkey,Q43,http://www.wikidata.org/entity/Q97718243,Çobanyıldızı (Cumra) power station,Thermal power station,,
Turkey,Q43,http://www.wikidata.org/entity/Q97718681,Çumra power station,Thermal power station,,
Turkey,Q43,http://www.wikidata.org/entity/Q97722952,Çayırhan Sodium Sulphate Cogeneration power station,Thermal power station,,
Turkey,Q43,http://www.wikidata.org/entity/Q105700892,Amasya sugar factory power plant,Thermal power station,,
Turkey,Q43,http://www.wikidata.org/entity/Q106674849,Lüleburgaz Cogeneration Power Plant,Thermal power station,,
Turkey,Q43,http://www.wikidata.org/entity/Q106769961,Aksa Acrylic Chemicals power plant,Thermal power station,,
Turkey,Q43,http://www.wikidata.org/entity/Q107477888,MMP Cogeneration,Thermal power station,,
Turkey,Q43,http://www.wikidata.org/entity/Q107605712,Ilgın sugar factory power station,Thermal power station,,
Turkey,Q43,http://www.wikidata.org/entity/Q107605618,Yozgat sugar factory power station,Thermal power station,,
Turkey,Q43,http://www.wikidata.org/entity/Q107605875,Susurluk sugar factory power station,Thermal power station,,
Turkey,Q43,http://www.wikidata.org/entity/Q108093025,Çaycuma power plant,Thermal power station,,
Turkey,Q43,http://www.wikidata.org/entity/Q112577798,Çoban Yıldızı power stations,Thermal power station,,
Turkey,Q43,http://www.wikidata.org/entity/Q6094211,Q6094211,Thermal power station,,
Turkey,Q43,http://www.wikidata.org/entity/Q97613566,Afyon Şeker power station,Thermal power station,,
Turkey,Q43,http://www.wikidata.org/entity/Q11980527,Kentsa power plant,Thermal power station,,
Turkey,Q43,http://www.wikidata.org/entity/Q106673460,Bilgin Samsun gas power station,Thermal power station,,
Turkey,Q43,http://www.wikidata.org/entity/Q106675759,Samsun Natural Gas Combined Cycle Power Plant,Thermal power station,,
Turkey,Q43,http://www.wikidata.org/entity/Q106692442,Denizli CCGT power plant,Thermal power station,,
Turkey,Q43,http://www.wikidata.org/entity/Q106696131,Mersin Cogeneration plant,Thermal power station,,
Turkey,Q43,http://www.wikidata.org/entity/Q106697259,ODAS I gas power plant,Thermal power station,,
Turkey,Q43,http://www.wikidata.org/entity/Q106697380,Taha gas power plant,Thermal power station,,
Turkey,Q43,http://www.wikidata.org/entity/Q106697757,Çorlu gas power station,Thermal power station,,
Turkey,Q43,http://www.wikidata.org/entity/Q106697785,Tekirdağ power plant,Thermal power station,,
Turkey,Q43,http://www.wikidata.org/entity/Q106727813,Gebze-Dilovası power plant,Thermal power station,,
Turkey,Q43,http://www.wikidata.org/entity/Q106763327,İskenderun power plant,Thermal power station,,
Turkey,Q43,http://www.wikidata.org/entity/Q106763390,Petkim cogeneration power plant,Thermal power station,,
Turkey,Q43,http://www.wikidata.org/entity/Q106765254,AGE gas power plant I,Thermal power station,,
Turkey,Q43,http://www.wikidata.org/entity/Q106765282,İzmit refinery power station,Thermal power station,,
Turkey,Q43,http://www.wikidata.org/entity/Q106769871,Karadeniz Ereğli-Zonguldak power plant,Thermal power station,,
Turkey,Q43,http://www.wikidata.org/entity/Q106782066,Çolakoğlu-1 power plant,Thermal power station,,
Turkey,Q43,http://www.wikidata.org/entity/Q106782044,İzmit-Köseköy power plant,Thermal power station,,
Turkey,Q43,http://www.wikidata.org/entity/Q112034287,Tufanbeyli power station,Thermal power station,,
Poland,Q36,http://www.wikidata.org/entity/Q9252395,Q9252395,Thermal power station,,
Poland,Q36,http://www.wikidata.org/entity/Q9252392,Q9252392,Thermal power station,,
Poland,Q36,http://www.wikidata.org/entity/Q9252398,Q9252398,Thermal power station,,
Poland,Q36,http://www.wikidata.org/entity/Q11696549,Elektrociepłownia EC Nowa,Thermal power station,,
Poland,Q36,http://www.wikidata.org/entity/Q11696555,Elektrociepłownia Zabrze,Thermal power station,,
Poland,Q36,http://www.wikidata.org/entity/Q11696584,Skawina Power Station,Thermal power station,,
Poland,Q36,http://www.wikidata.org/entity/Q11801817,Elektrociepłownia Lublin-Wrotków,Thermal power station,,
Poland,Q36,http://www.wikidata.org/entity/Q6382640,Kedzierzyn Zero-Emission Plant,Thermal power station,,
Poland,Q36,http://www.wikidata.org/entity/Q9252384,Będzin Power Station,Thermal power station,,
Poland,Q36,http://www.wikidata.org/entity/Q9252393,Elektrociepłownia Marcel,Thermal power station,,
Poland,Q36,http://www.wikidata.org/entity/Q97173317,Q97173317,Thermal power station,,
Poland,Q36,http://www.wikidata.org/entity/Q97173334,Q97173334,Thermal power station,,
Poland,Q36,http://www.wikidata.org/entity/Q97173354,Q97173354,Thermal power station,,
Poland,Q36,http://www.wikidata.org/entity/Q97173521,Q97173521,Thermal power station,,
Poland,Q36,http://www.wikidata.org/entity/Q97175498,Q97175498,Thermal power station,,
Poland,Q36,http://www.wikidata.org/entity/Q97175509,Q97175509,Thermal power station,,
Poland,Q36,http://www.wikidata.org/entity/Q97177549,Q97177549,Thermal power station,,
Poland,Q36,http://www.wikidata.org/entity/Q97275773,Q97275773,Thermal power station,,
Poland,Q36,http://www.wikidata.org/entity/Q97275782,Q97275782,Thermal power station,,
Poland,Q36,http://www.wikidata.org/entity/Q97275802,Q97275802,Thermal power station,,
Poland,Q36,http://www.wikidata.org/entity/Q97305546,Q97305546,Thermal power station,,
Poland,Q36,http://www.wikidata.org/entity/Q97305551,Q97305551,Thermal power station,,
Bangladesh,Q902,http://www.wikidata.org/entity/Q11963570,Q11963570,Thermal power station,,
Bangladesh,Q902,http://www.wikidata.org/entity/Q21447946,Q21447946,Thermal power station,,
Bangladesh,Q902,http://www.wikidata.org/entity/Q25426589,Q25426589,Thermal power station,,
Bangladesh,Q902,http://www.wikidata.org/entity/Q111265809,Q111265809,Thermal power station,,
Spain,Q29,http://www.wikidata.org/entity/Q12005252,Q12005252,Thermal power station,,
Spain,Q29,http://www.wikidata.org/entity/Q17748179,Q17748179,Thermal power station,,
Spain,Q29,http://www.wikidata.org/entity/Q17748180,Q17748180,Thermal power station,,
Spain,Q29,http://www.wikidata.org/entity/Q17748399,Q17748399,Thermal power station,,
Spain,Q29,http://www.wikidata.org/entity/Q97633472,Central Térmica de la Misericordia,Thermal power station,,
Spain,Q29,http://www.wikidata.org/entity/Q47068188,Q47068188,Thermal power station,,
Spain,Q29,http://www.wikidata.org/entity/Q24808983,Central tèrmica del Besòs,Thermal power station,,
Spain,Q29,http://www.wikidata.org/entity/Q98502705,Q98502705,Thermal power station,,
Spain,Q29,http://www.wikidata.org/entity/Q111210955,Q111210955,Thermal power station,,
Italy,Q38,http://www.wikidata.org/entity/Q11963002,Q11963002,Thermal power station,,
Italy,Q38,http://www.wikidata.org/entity/Q19381523,Q19381523,Thermal power station,,
Italy,Q38,http://www.wikidata.org/entity/Q11989857,Monfalcone power plant,Thermal power station,,
Italy,Q38,http://www.wikidata.org/entity/Q24053015,Thermal power station Regina Margherita,Thermal power station,,
Iran,Q794,http://www.wikidata.org/entity/Q20111253,Q20111253,Thermal power station,,
Iran,Q794,http://www.wikidata.org/entity/Q16053560,South Ahvaz power plant,Thermal power station,,
Iran,Q794,http://www.wikidata.org/entity/Q16053727,West Mazandaran combined cycle power plant,Thermal power station,,
Iran,Q794,http://www.wikidata.org/entity/Q11960119,Q11960119,Thermal power station,,
Iran,Q794,http://www.wikidata.org/entity/Q12000125,Q12000125,Thermal power station,,
Iran,Q794,http://www.wikidata.org/entity/Q12000228,Q12000228,Thermal power station,,
Iran,Q794,http://www.wikidata.org/entity/Q17994525,Q17994525,Thermal power station,,
Iran,Q794,http://www.wikidata.org/entity/Q5870444,Q5870444,Thermal power station,,
Iran,Q794,http://www.wikidata.org/entity/Q25423376,Moghan and Ardabil diesel power plants,Thermal power station,,
Iran,Q794,http://www.wikidata.org/entity/Q7498338,Shiraz solar power plant,Thermal power station,,
Iran,Q794,http://www.wikidata.org/entity/Q109547733,Sirik Power Plant,Thermal power station,,
Brazil,Q155,http://www.wikidata.org/entity/Q11960183,Q11960183,Thermal power station,,
Brazil,Q155,http://www.wikidata.org/entity/Q11996073,Q11996073,Thermal power station,,
Indonesia,Q252,http://www.wikidata.org/entity/Q11959267,Q11959267,Thermal power station,,
Indonesia,Q252,http://www.wikidata.org/entity/Q12501587,Q12501587,Thermal power station,,
Indonesia,Q252,http://www.wikidata.org/entity/Q17760654,Q17760654,Thermal power station,,
Indonesia,Q252,http://www.wikidata.org/entity/Q19376786,Q19376786,Thermal power station,,
Indonesia,Q252,http://www.wikidata.org/entity/Q19384533,Q19384533,Thermal power station,,
Indonesia,Q252,http://www.wikidata.org/entity/Q19385028,Q19385028,Thermal power station,,
Indonesia,Q252,http://www.wikidata.org/entity/Q25476627,Q25476627,Thermal power station,,
Indonesia,Q252,http://www.wikidata.org/entity/Q25476639,Q25476639,Thermal power station,,
Indonesia,Q252,http://www.wikidata.org/entity/Q25476663,Q25476663,Thermal power station,,
Indonesia,Q252,http://www.wikidata.org/entity/Q25476679,Q25476679,Thermal power station,,
Indonesia,Q252,http://www.wikidata.org/entity/Q31172910,Q31172910,Thermal power station,,
Indonesia,Q252,http://www.wikidata.org/entity/Q31172912,Q31172912,Thermal power station,,
Indonesia,Q252,http://www.wikidata.org/entity/Q31172971,Q31172971,Thermal power station,,
Indonesia,Q252,http://www.wikidata.org/entity/Q31173390,Q31173390,Thermal power station,,
Indonesia,Q252,http://www.wikidata.org/entity/Q97307657,Q97307657,Thermal power station,,
Indonesia,Q252,http://www.wikidata.org/entity/Q116792084,Q116792084,Thermal power station,,
Canada,Q16,http://www.wikidata.org/entity/Q11962274,Q11962274,Thermal power station,,
Canada,Q16,http://www.wikidata.org/entity/Q11962601,Q11962601,Thermal power station,,
Canada,Q16,http://www.wikidata.org/entity/Q11963004,Q11963004,Thermal power station,,
Canada,Q16,http://www.wikidata.org/entity/Q11977591,Q11977591,Thermal power station,,
Canada,Q16,http://www.wikidata.org/entity/Q17776622,Q17776622,Thermal power station,,
Canada,Q16,http://www.wikidata.org/entity/Q28233488,Fort Saskatchewan Cogeneration Plant,Thermal power station,,
Taiwan,Q865,http://www.wikidata.org/entity/Q28415560,Q28415560,Thermal power station,,
Taiwan,Q865,http://www.wikidata.org/entity/Q48928437,Q48928437,Thermal power station,,
Taiwan,Q865,http://www.wikidata.org/entity/Q113960956,Q113960956,Thermal power station,,
Taiwan,Q865,http://www.wikidata.org/entity/Q116170290,Q116170290,Thermal power station,,
Taiwan,Q865,http://www.wikidata.org/entity/Q116188943,Q116188943,Thermal power station,,
Taiwan,Q865,http://www.wikidata.org/entity/Q116758163,Q116758163,Thermal power station,,
Taiwan,Q865,http://www.wikidata.org/entity/Q117316592,Q117316592,Thermal power station,,
Taiwan,Q865,http://www.wikidata.org/entity/Q117817786,Q117817786,Thermal power station,,
Taiwan,Q865,http://www.wikidata.org/entity/Q119215754,Q119215754,Thermal power station,,
Taiwan,Q865,http://www.wikidata.org/entity/Q119216184,Q119216184,Thermal power station,,
Taiwan,Q865,http://www.wikidata.org/entity/Q119216396,Q119216396,Thermal power station,,
Taiwan,Q865,http://www.wikidata.org/entity/Q117771871,Chung Chia Power Plant,Thermal power station,,
Romania,Q218,http://www.wikidata.org/entity/Q6699066,Q6699066,Thermal power station,,
Romania,Q218,http://www.wikidata.org/entity/Q19392540,Q19392540,Thermal power station,,
Romania,Q218,http://www.wikidata.org/entity/Q4946928,Borzești II Power Station,Thermal power station,,
Romania,Q218,http://www.wikidata.org/entity/Q4958603,Brazi Power Station,Thermal power station,,
Romania,Q218,http://www.wikidata.org/entity/Q4958600,Brazi II Power Station,Thermal power station,,
Romania,Q218,http://www.wikidata.org/entity/Q4959056,Brașov Power Station,Thermal power station,,
Romania,Q218,http://www.wikidata.org/entity/Q5181792,Craiova II Power Station,Thermal power station,,
Romania,Q218,http://www.wikidata.org/entity/Q5511443,Fântânele Power Station,Thermal power station,,
Romania,Q218,http://www.wikidata.org/entity/Q5565304,Giurgiu Power Station,Thermal power station,,
Romania,Q218,http://www.wikidata.org/entity/Q5878665,Holboca Power Station,Thermal power station,,
Romania,Q218,http://www.wikidata.org/entity/Q5983515,Iași II Power Station,Thermal power station,,
Romania,Q218,http://www.wikidata.org/entity/Q7099318,Oradea Power Station,Thermal power station,,
Romania,Q218,http://www.wikidata.org/entity/Q7632745,Suceava Power Station,Thermal power station,,
Romania,Q218,http://www.wikidata.org/entity/Q7666896,Sărdănești Power Station,Thermal power station,,
France,Q142,http://www.wikidata.org/entity/Q60847995,Q60847995,Thermal power station,,
France,Q142,http://www.wikidata.org/entity/Q108509670,Q108509670,Thermal power station,,
France,Q142,http://www.wikidata.org/entity/Q110736218,Q110736218,Thermal power station,,
France,Q142,http://www.wikidata.org/entity/Q125504252,Q125504252,Thermal power station,,
South Korea,Q884,http://www.wikidata.org/entity/Q11973451,Q11973451,Thermal power station,,
South Korea,Q884,http://www.wikidata.org/entity/Q11977023,Q11977023,Thermal power station,,
South Korea,Q884,http://www.wikidata.org/entity/Q17764358,Q17764358,Thermal power station,,
South Korea,Q884,http://www.wikidata.org/entity/Q19376686,Q19376686,Thermal power station,,
South Korea,Q884,http://www.wikidata.org/entity/Q19398896,Q19398896,Thermal power station,,
United Arab Emirates,Q878,http://www.wikidata.org/entity/Q11966161,Q11966161,Thermal power station,,
Nigeria,Q1033,http://www.wikidata.org/entity/Q11965055,Q11965055,Thermal power station,,
Nigeria,Q1033,http://www.wikidata.org/entity/Q17748240,Q17748240,Thermal power station,,
Nigeria,Q1033,http://www.wikidata.org/entity/Q19377650,Q19377650,Thermal power station,,
South Africa,Q258,http://www.wikidata.org/entity/Q19382928,Q19382928,Thermal power station,,
South Africa,Q258,http://www.wikidata.org/entity/Q17083839,"President Street Power Station, Johannesburg",Thermal power station,,
South Africa,Q258,http://www.wikidata.org/entity/Q111943078,Kibo Gauteng Thermal Power Station,Thermal power station,,
Ukraine,Q212,http://www.wikidata.org/entity/Q16698913,Power station of Zasyadko coal mine,Thermal power station,,
Ukraine,Q212,http://www.wikidata.org/entity/Q11982541,Q11982541,Thermal power station,,
Ukraine,Q212,http://www.wikidata.org/entity/Q12086812,Q12086812,Thermal power station,,
Ukraine,Q212,http://www.wikidata.org/entity/Q12101385,Q12101385,Thermal power station,,
Ukraine,Q212,http://www.wikidata.org/entity/Q12107862,Q12107862,Thermal power station,,
Ukraine,Q212,http://www.wikidata.org/entity/Q12114144,Q12114144,Thermal power station,,
Ukraine,Q212,http://www.wikidata.org/entity/Q12119090,Q12119090,Thermal power station,,
Ukraine,Q212,http://www.wikidata.org/entity/Q12158666,Q12158666,Thermal power station,,
Ukraine,Q212,http://www.wikidata.org/entity/Q12169757,Q12169757,Thermal power station,,
Ukraine,Q212,http://www.wikidata.org/entity/Q16704414,Q16704414,Thermal power station,,
Ukraine,Q212,http://www.wikidata.org/entity/Q16710581,Q16710581,Thermal power station,,
Ukraine,Q212,http://www.wikidata.org/entity/Q16716990,Q16716990,Thermal power station,,
Ukraine,Q212,http://www.wikidata.org/entity/Q23769548,Q23769548,Thermal power station,,
Ukraine,Q212,http://www.wikidata.org/entity/Q11965827,Dobrotvir power station,Thermal power station,,
Ukraine,Q212,http://www.wikidata.org/entity/Q11982929,Ladyzhyn power plant,Thermal power station,,
Ukraine,Q212,http://www.wikidata.org/entity/Q12099561,Darnytska TEC,Thermal power station,,
Ukraine,Q212,http://www.wikidata.org/entity/Q12110202,Kyiv CHP-5,Thermal power station,,
Ukraine,Q212,http://www.wikidata.org/entity/Q12110203,Kyiv TEC 6,Thermal power station,,
Ukraine,Q212,http://www.wikidata.org/entity/Q12114491,Kremenchuk thermal power station,Thermal power station,,
Ukraine,Q212,http://www.wikidata.org/entity/Q12135205,Odesa heat and power plant,Thermal power station,,
Ukraine,Q212,http://www.wikidata.org/entity/Q12166921,Kharkiv CHP-3,Thermal power station,,
Ukraine,Q212,http://www.wikidata.org/entity/Q122579199,First power-station in Zaporizhzhia,Thermal power station,,
Ukraine,Q212,http://www.wikidata.org/entity/Q55663131,Q55663131,Thermal power station,,
Ukraine,Q212,http://www.wikidata.org/entity/Q106414233,Q106414233,Thermal power station,,
Finland,Q33,http://www.wikidata.org/entity/Q11991638,Q11991638,Thermal power station,,
Finland,Q33,http://www.wikidata.org/entity/Q11991954,Q11991954,Thermal power station,,
Finland,Q33,http://www.wikidata.org/entity/Q18660336,Q18660336,Thermal power station,,
Finland,Q33,http://www.wikidata.org/entity/Q23040145,Q23040145,Thermal power station,,
Finland,Q33,http://www.wikidata.org/entity/Q23040368,Q23040368,Thermal power station,,
Finland,Q33,http://www.wikidata.org/entity/Q19388106,Seinäjoki power plant,Thermal power station,,
Finland,Q33,http://www.wikidata.org/entity/Q5494085,Vaskiluoto 1 power plant,Thermal power station,,
Finland,Q33,http://www.wikidata.org/entity/Q11900620,Vaskiluoto 3 power plant,Thermal power station,,
Finland,Q33,http://www.wikidata.org/entity/Q11900621,Vaskiluoto 2 power plant,Thermal power station,,
Finland,Q33,http://www.wikidata.org/entity/Q65238011,Q65238011,Thermal power station,,
Finland,Q33,http://www.wikidata.org/entity/Q116926948,Q116926948,Thermal power station,,
Finland,Q33,http://www.wikidata.org/entity/Q124957220,Q124957220,Thermal power station,,
Malaysia,Q833,http://www.wikidata.org/entity/Q7331800,Q7331800,Thermal power station,,
Malaysia,Q833,http://www.wikidata.org/entity/Q12709664,Q12709664,Thermal power station,,
Mexico,Q96,http://www.wikidata.org/entity/Q11999227,Q11999227,Thermal power station,,
Mexico,Q96,http://www.wikidata.org/entity/Q12007948,Q12007948,Thermal power station,,
Mexico,Q96,http://www.wikidata.org/entity/Q131832366,Dos Bocas power station,Thermal power station,,
Mexico,Q96,http://www.wikidata.org/entity/Q134315886,Q134315886,Thermal power station,,
Mexico,Q96,http://www.wikidata.org/entity/Q134383724,Q134383724,Thermal power station,,
Thailand,Q869,http://www.wikidata.org/entity/Q11960134,Q11960134,Thermal power station,,
Thailand,Q869,http://www.wikidata.org/entity/Q11991653,Q11991653,Thermal power station,,
Thailand,Q869,http://www.wikidata.org/entity/Q11997248,Q11997248,Thermal power station,,
Thailand,Q869,http://www.wikidata.org/entity/Q19386301,Q19386301,Thermal power station,,
Thailand,Q869,http://www.wikidata.org/entity/Q19391790,Q19391790,Thermal power station,,
Sri Lanka,Q854,http://www.wikidata.org/entity/Q11979926,Q11979926,Thermal power station,,
Sri Lanka,Q854,http://www.wikidata.org/entity/Q96398999,Pettah Power Station,Thermal power station,,
Sri Lanka,Q854,http://www.wikidata.org/entity/Q48727212,KCHT Power Station,Thermal power station,,
Saudi Arabia,Q851,http://www.wikidata.org/entity/Q11957203,Q11957203,Thermal power station,,
Saudi Arabia,Q851,http://www.wikidata.org/entity/Q11957211,Q11957211,Thermal power station,,
Saudi Arabia,Q851,http://www.wikidata.org/entity/Q12000232,Q12000232,Thermal power station,,
Saudi Arabia,Q851,http://www.wikidata.org/entity/Q17748361,Q17748361,Thermal power station,,
Saudi Arabia,Q851,http://www.wikidata.org/entity/Q19386039,Q19386039,Thermal power station,,
Saudi Arabia,Q851,http://www.wikidata.org/entity/Q96150070,Sakaka solar plant,Thermal power station,,
Philippines,Q928,http://www.wikidata.org/entity/Q11962996,Q11962996,Thermal power station,,
Philippines,Q928,http://www.wikidata.org/entity/Q11984065,Q11984065,Thermal power station,,
Philippines,Q928,http://www.wikidata.org/entity/Q113457448,Palinpinon Power Plant,Thermal power station,,
Czech Republic,Q213,http://www.wikidata.org/entity/Q11989685,Q11989685,Thermal power station,,
Czech Republic,Q213,http://www.wikidata.org/entity/Q19398385,Q19398385,Thermal power station,,
Netherlands,Q55,http://www.wikidata.org/entity/Q2431879,Minewater Project,Thermal power station,,
Pakistan,Q843,http://www.wikidata.org/entity/Q123085059,Gwadar Coal–Power Plant,Thermal power station,,
Pakistan,Q843,http://www.wikidata.org/entity/Q17060563,Gadani Energy Park,Thermal power station,,
Pakistan,Q843,http://www.wikidata.org/entity/Q110975775,Port Qasim Coal Power Plant,Thermal power station,,
Hungary,Q28,http://www.wikidata.org/entity/Q909185,Dorog Power Plant,Thermal power station,,
Bulgaria,Q219,http://www.wikidata.org/entity/Q11965698,Q11965698,Thermal power station,,
Bulgaria,Q219,http://www.wikidata.org/entity/Q12295924,Q12295924,Thermal power station,,
Chile,Q298,http://www.wikidata.org/entity/Q6142832,Q6142832,Thermal power station,,
Chile,Q298,http://www.wikidata.org/entity/Q4774882,Antilhue II Power Plant,Thermal power station,,
Chile,Q298,http://www.wikidata.org/entity/Q4774883,Antilhue I Power Plant,Thermal power station,,
Chile,Q298,http://www.wikidata.org/entity/Q6987923,Nehuenco II Power Plant,Thermal power station,,
Chile,Q298,http://www.wikidata.org/entity/Q6987931,Nehuenco Power Plant,Thermal power station,,
Chile,Q298,http://www.wikidata.org/entity/Q118488414,Q118488414,Thermal power station,,
Denmark,Q35,http://www.wikidata.org/entity/Q11997920,Q11997920,Thermal power station,,
Denmark,Q35,http://www.wikidata.org/entity/Q19374485,Q19374485,Thermal power station,,
Kazakhstan,Q232,http://www.wikidata.org/entity/Q134342437,Q134342437,Thermal power station,,
Kazakhstan,Q232,http://www.wikidata.org/entity/Q19380573,Q19380573,Thermal power station,,
Greece,Q41,http://www.wikidata.org/entity/Q19379098,Q19379098,Thermal power station,,
Greece,Q41,http://www.wikidata.org/entity/Q19379096,Q19379096,Thermal power station,,
Belgium,Q31,http://www.wikidata.org/entity/Q19397749,Q19397749,Thermal power station,,
Morocco,Q1028,http://www.wikidata.org/entity/Q133728951,Noor I,Thermal power station,,
Morocco,Q1028,http://www.wikidata.org/entity/Q133728955,Noor II,Thermal power station,,
Morocco,Q1028,http://www.wikidata.org/entity/Q133728961,Noor III,Thermal power station,,
Argentina,Q414,http://www.wikidata.org/entity/Q5760836,Q5760836,Thermal power station,,
Argentina,Q414,http://www.wikidata.org/entity/Q4736821,Alto Valle thermal power plant,Thermal power station,,
Libya,Q1016,http://www.wikidata.org/entity/Q133043217,Abu Kammash Power Station,Thermal power station,,
Portugal,Q45,http://www.wikidata.org/entity/Q11983224,Q11983224,Thermal power station,,
Portugal,Q45,http://www.wikidata.org/entity/Q11995064,Q11995064,Thermal power station,,
Portugal,Q45,http://www.wikidata.org/entity/Q11997744,Q11997744,Thermal power station,,
Portugal,Q45,http://www.wikidata.org/entity/Q12000569,Q12000569,Thermal power station,,
Portugal,Q45,http://www.wikidata.org/entity/Q17761900,Q17761900,Thermal power station,,
Portugal,Q45,http://www.wikidata.org/entity/Q18483250,Q18483250,Thermal power station,,
Portugal,Q45,http://www.wikidata.org/entity/Q96870972,Central Termoelétrica de Sines,Thermal power station,,
Portugal,Q45,http://www.wikidata.org/entity/Q18483259,Central Termoelétrica de Setúbal,Thermal power station,,
Portugal,Q45,http://www.wikidata.org/entity/Q7695247,Tejo Energia,Thermal power station,,
Portugal,Q45,http://www.wikidata.org/entity/Q9720561,Central Termoelétrica do Carregado,Thermal power station,,
Norway,Q20,http://www.wikidata.org/entity/Q11968462,Q11968462,Thermal power station,,
Norway,Q20,http://www.wikidata.org/entity/Q11998788,Q11998788,Thermal power station,,
Norway,Q20,http://www.wikidata.org/entity/Q19377645,Q19377645,Thermal power station,,
Norway,Q20,http://www.wikidata.org/entity/Q19386527,Returkraft waste-to-energy plant,Thermal power station,,
Norway,Q20,http://www.wikidata.org/entity/Q106465475,Q106465475,Thermal power station,,
Estonia,Q191,http://www.wikidata.org/entity/Q31271930,Q31271930,Thermal power station,,
Estonia,Q191,http://www.wikidata.org/entity/Q97286449,Q97286449,Thermal power station,,
Estonia,Q191,http://www.wikidata.org/entity/Q58024513,Tartu Power Plant,Thermal power station,,
Serbia,Q403,http://www.wikidata.org/entity/Q61129188,Q61129188,Thermal power station,,
Serbia,Q403,http://www.wikidata.org/entity/Q61129256,Q61129256,Thermal power station,,
Serbia,Q403,http://www.wikidata.org/entity/Q65203098,Q65203098,Thermal power station,,
Serbia,Q403,http://www.wikidata.org/entity/Q106414235,Q106414235,Thermal power station,,
Ireland,Q27,http://www.wikidata.org/entity/Q19393617,Q19393617,Thermal power station,,
Mongolia,Q711,http://www.wikidata.org/entity/Q12008259,Q12008259,Thermal power station,,
Mongolia,Q711,http://www.wikidata.org/entity/Q131388006,Tavantolgoi Thermal Power Plant,Thermal power station,,
Uzbekistan,Q265,http://www.wikidata.org/entity/Q12005260,Q12005260,Thermal power station,,
Venezuela,Q717,http://www.wikidata.org/entity/Q11963105,Q11963105,Thermal power station,,
Venezuela,Q717,http://www.wikidata.org/entity/Q11963269,Q11963269,Thermal power station,,
Venezuela,Q717,http://www.wikidata.org/entity/Q11995800,Q11995800,Thermal power station,,
Venezuela,Q717,http://www.wikidata.org/entity/Q11997754,Q11997754,Thermal power station,,
Venezuela,Q717,http://www.wikidata.org/entity/Q12005585,Q12005585,Thermal power station,,
Azerbaijan,Q227,http://www.wikidata.org/entity/Q31306473,Q31306473,Thermal power station,,
Mauritius,Q1027,http://www.wikidata.org/entity/Q2944696,Q2944696,Thermal power station,,
Mauritius,Q1027,http://www.wikidata.org/entity/Q2944723,Q2944723,Thermal power station,,
Mauritius,Q1027,http://www.wikidata.org/entity/Q11960504,Q11960504,Thermal power station,,
Slovenia,Q215,http://www.wikidata.org/entity/Q12804024,Q12804024,Thermal power station,,
Peru,Q419,http://www.wikidata.org/entity/Q6077792,Q6077792,Thermal power station,,
Sweden,Q34,http://www.wikidata.org/entity/Q11959174,Västerås Kraftvärmeverk,Thermal power station,,
Switzerland,Q39,http://www.wikidata.org/entity/Q120790836,Neuchâtel gas turbine,Thermal power station,,
Iraq,Q796,http://www.wikidata.org/entity/Q11990174,Q11990174,Thermal power station,,
Iraq,Q796,http://www.wikidata.org/entity/Q12011121,Q12011121,Thermal power station,,
Iraq,Q796,http://www.wikidata.org/entity/Q17749787,Q17749787,Thermal power station,,
Niger,Q1032,http://www.wikidata.org/entity/Q125813946,Soraz Thermal Power Station,Thermal power station,,
Niger,Q1032,http://www.wikidata.org/entity/Q125815577,Salkadamna Thermal Power Station,Thermal power station,,
Croatia,Q224,http://www.wikidata.org/entity/Q12011138,Q12011138,Thermal power station,,
Croatia,Q224,http://www.wikidata.org/entity/Q19388555,Q19388555,Thermal power station,,
Soviet Union,Q15180,http://www.wikidata.org/entity/Q65150337,Q65150337,Thermal power station,,
Belarus,Q184,http://www.wikidata.org/entity/Q23072172,Q23072172,Thermal power station,,
Armenia,Q399,http://www.wikidata.org/entity/Q16966355,Jermaghbyur Geothermal Power Plant,Thermal power station,,
Honduras,Q783,http://www.wikidata.org/entity/Q11994971,Q11994971,Thermal power station,,
Honduras,Q783,http://www.wikidata.org/entity/Q17762247,Q17762247,Thermal power station,,
Ecuador,Q736,http://www.wikidata.org/entity/Q19380795,Q19380795,Thermal power station,,
Ecuador,Q736,http://www.wikidata.org/entity/Q11967597,Enrique García Power Plant,Thermal power station,,
Ecuador,Q736,http://www.wikidata.org/entity/Q12007454,Trinitaria Power Plant,Thermal power station,,
Trinidad and Tobago,Q754,http://www.wikidata.org/entity/Q19375657,Q19375657,Thermal power station,,
Trinidad and Tobago,Q754,http://www.wikidata.org/entity/Q19385446,Q19385446,Thermal power station,,
Trinidad and Tobago,Q754,http://www.wikidata.org/entity/Q11996068,Port of Spain Power Plant,Thermal power station,,
North Korea,Q423,http://www.wikidata.org/entity/Q11996466,Q11996466,Thermal power station,,
North Korea,Q423,http://www.wikidata.org/entity/Q16184322,Pyongyang Thermal Power Plant,Thermal power station,,
Gabon,Q1000,http://www.wikidata.org/entity/Q56372602,Q56372602,Thermal power station,,
Gabon,Q1000,http://www.wikidata.org/entity/Q56372601,Q56372601,Thermal power station,,
Zambia,Q953,http://www.wikidata.org/entity/Q127922602,Maamba Coal Power Station,Thermal power station,,
Somalia,Q1045,http://www.wikidata.org/entity/Q56374146,Q56374146,Thermal power station,,
Cuba,Q241,http://www.wikidata.org/entity/Q131398265,Q131398265,Thermal power station,,
State of Palestine,Q219060,http://www.wikidata.org/entity/Q11992752,Q11992752,Thermal power station,,
Afghanistan,Q889,http://www.wikidata.org/entity/Q108559333,Tarakhil Power Plant,Thermal power station,,
Nicaragua,Q811,http://www.wikidata.org/entity/Q111938346,San Jacinto Tizate Geothermal Power Plant,Thermal power station,,
Guatemala,Q774,http://www.wikidata.org/entity/Q20668322,Jaguar Energy,Thermal power station,,
