country_name,country_qid,entity,label,type,latitude,longitude
Slovakia,Q214,http://www.wikidata.org/entity/Q88968804,Križovany–Bystričany power line (V484/V274),Underground power cable,,
Slovakia,Q214,http://www.wikidata.org/entity/Q88968849,Križovany–Horná Ždaňa power line (V483),Underground power cable,,
Slovakia,Q214,http://www.wikidata.org/entity/Q88975244,Stupava–Podunajské Biskupice double circuit line (V498 and V499),Underground power cable,,
Slovakia,Q214,http://www.wikidata.org/entity/Q55619263,Sokolnice–Stupava power line,Underground power cable,,
Slovakia,Q214,http://www.wikidata.org/entity/Q55619705,Sokolnice–Križovany power line,Underground power cable,,
Slovakia,Q214,http://www.wikidata.org/entity/Q56151604,Sučany–Lemešany power line,Underground power cable,,
Slovakia,Q214,http://www.wikidata.org/entity/Q56151669,Nošovice–Varín power line,Underground power cable,,
Slovakia,Q214,http://www.wikidata.org/entity/Q59192558,Čierny Váh–Liptovská Mara power line,Underground power cable,,
Slovakia,Q214,http://www.wikidata.org/entity/Q59192755,Bystričany–Sučany power line,Underground power cable,,
Slovakia,Q214,http://www.wikidata.org/entity/Q59193201,Križovany–Podunajské Biskupice power line (V439),Underground power cable,,
Slovakia,Q214,http://www.wikidata.org/entity/Q59193434,Sučany–Medzibrod power line,Underground power cable,,
Slovakia,Q214,http://www.wikidata.org/entity/Q59193591,Medzibrod–Liptovská Mara power line,Underground power cable,,
Slovakia,Q214,http://www.wikidata.org/entity/Q59194093,Liptovská Mara–Spišská Nová Ves power line,Underground power cable,,
Slovakia,Q214,http://www.wikidata.org/entity/Q59193984,Spišská Nová Ves–Lemešany power line,Underground power cable,,
Slovakia,Q214,http://www.wikidata.org/entity/Q59194205,Varín–Liptovská Mara power line,Underground power cable,,
Slovakia,Q214,http://www.wikidata.org/entity/Q59194343,Varín–Sučany power line,Underground power cable,,
Slovakia,Q214,http://www.wikidata.org/entity/Q59195082,Lemešany-Krosno power line (V477),Underground power cable,,
Slovakia,Q214,http://www.wikidata.org/entity/Q59195144,Lemešany-Krosno power line (V478),Underground power cable,,
Slovakia,Q214,http://www.wikidata.org/entity/Q59195401,Horná Ždaňa–Sučany power line,Underground power cable,,
Slovakia,Q214,http://www.wikidata.org/entity/Q59195606,Veľký Ďur-Horná Ždaňa power line (V492),Underground power cable,,
Slovakia,Q214,http://www.wikidata.org/entity/Q59213556,Križovany-Veľký Ďur power line (V425),Underground power cable,,
Slovakia,Q214,http://www.wikidata.org/entity/Q59215747,Veľký Ďur-Levice power line (V491),Underground power cable,,
Slovakia,Q214,http://www.wikidata.org/entity/Q59216566,Veľký Ďur-Levice power line (V490),Underground power cable,,
Slovakia,Q214,http://www.wikidata.org/entity/Q60050827,Levice-Rimavská Sobota power line (V426),Underground power cable,,
Slovakia,Q214,http://www.wikidata.org/entity/Q60188868,Rimavská Sobota-Moldava power line (V427),Underground power cable,,
Slovakia,Q214,http://www.wikidata.org/entity/Q60189167,Moldava-Veľké Kapušany power line (V428),Underground power cable,,
Slovakia,Q214,http://www.wikidata.org/entity/Q60189273,Lemešany-Košice power line (V488),Underground power cable,,
Slovakia,Q214,http://www.wikidata.org/entity/Q60189258,Moldava-Lemešany power line (V487),Underground power cable,,
Slovakia,Q214,http://www.wikidata.org/entity/Q60189785,Moldava-Košice power line (V489),Underground power cable,,
Slovakia,Q214,http://www.wikidata.org/entity/Q64223425,Považská Bystrica-Bystričany power line (V275),Underground power cable,,
Slovakia,Q214,http://www.wikidata.org/entity/Q65553235,Bohunice-Križovany power line (V044),Underground power cable,,
Slovakia,Q214,http://www.wikidata.org/entity/Q65553188,Križovany-Bošáca power line (V496),Underground power cable,,
Slovakia,Q214,http://www.wikidata.org/entity/Q65553262,Malženice-Križovany power line (V050),Underground power cable,,
Slovakia,Q214,http://www.wikidata.org/entity/Q65553718,Bohunice-Bošáca power line (V043),Underground power cable,,
Slovakia,Q214,http://www.wikidata.org/entity/Q65553681,Varín–Bošáca power line (V495),Underground power cable,,
Australia,Q408,http://www.wikidata.org/entity/Q29022680,879,Underground power cable,,
Australia,Q408,http://www.wikidata.org/entity/Q29020914,7206,Underground power cable,,
Australia,Q408,http://www.wikidata.org/entity/Q29022193,7276,Underground power cable,,
Australia,Q408,http://www.wikidata.org/entity/Q29022854,607,Underground power cable,,
Australia,Q408,http://www.wikidata.org/entity/Q29022116,858,Underground power cable,,
Australia,Q408,http://www.wikidata.org/entity/Q29020767,7143,Underground power cable,,
Australia,Q408,http://www.wikidata.org/entity/Q29020765,7184,Underground power cable,,
Australia,Q408,http://www.wikidata.org/entity/Q29020769,7141,Underground power cable,,
Australia,Q408,http://www.wikidata.org/entity/Q29020772,7142,Underground power cable,,
Australia,Q408,http://www.wikidata.org/entity/Q29020846,7133,Underground power cable,,
Australia,Q408,http://www.wikidata.org/entity/Q29020899,7132,Underground power cable,,
Australia,Q408,http://www.wikidata.org/entity/Q29020895,7389,Underground power cable,,
Australia,Q408,http://www.wikidata.org/entity/Q29020897,7301,Underground power cable,,
Australia,Q408,http://www.wikidata.org/entity/Q29020900,7254,Underground power cable,,
Australia,Q408,http://www.wikidata.org/entity/Q29020902,7333,Underground power cable,,
Australia,Q408,http://www.wikidata.org/entity/Q29020912,7225,Underground power cable,,
Australia,Q408,http://www.wikidata.org/entity/Q29020916,7332,Underground power cable,,
Australia,Q408,http://www.wikidata.org/entity/Q29020924,7226,Underground power cable,,
Australia,Q408,http://www.wikidata.org/entity/Q29020925,7284,Underground power cable,,
Australia,Q408,http://www.wikidata.org/entity/Q29022068,7166,Underground power cable,,
Australia,Q408,http://www.wikidata.org/entity/Q29022072,7165,Underground power cable,,
Australia,Q408,http://www.wikidata.org/entity/Q29022078,7191,Underground power cable,,
Australia,Q408,http://www.wikidata.org/entity/Q29022084,7192,Underground power cable,,
Australia,Q408,http://www.wikidata.org/entity/Q29022174,7241,Underground power cable,,
Australia,Q408,http://www.wikidata.org/entity/Q29022180,7325,Underground power cable,,
Australia,Q408,http://www.wikidata.org/entity/Q29022217,7263,Underground power cable,,
Australia,Q408,http://www.wikidata.org/entity/Q29022266,7239,Underground power cable,,
Australia,Q408,http://www.wikidata.org/entity/Q29022269,7240,Underground power cable,,
Australia,Q408,http://www.wikidata.org/entity/Q29022344,7277,Underground power cable,,
Australia,Q408,http://www.wikidata.org/entity/Q29022482,7255,Underground power cable,,
Australia,Q408,http://www.wikidata.org/entity/Q29022539,7327,Underground power cable,,
Australia,Q408,http://www.wikidata.org/entity/Q29022554,7326,Underground power cable,,
Australia,Q408,http://www.wikidata.org/entity/Q29022570,7158,Underground power cable,,
Australia,Q408,http://www.wikidata.org/entity/Q29022587,7216,Underground power cable,,
Australia,Q408,http://www.wikidata.org/entity/Q29022598,7182,Underground power cable,,
Australia,Q408,http://www.wikidata.org/entity/Q29022642,7156,Underground power cable,,
Australia,Q408,http://www.wikidata.org/entity/Q29022659,7249,Underground power cable,,
Australia,Q408,http://www.wikidata.org/entity/Q29022828,7236,Underground power cable,,
Australia,Q408,http://www.wikidata.org/entity/Q29022841,7237,Underground power cable,,
Australia,Q408,http://www.wikidata.org/entity/Q29022935,7243,Underground power cable,,
Australia,Q408,http://www.wikidata.org/entity/Q29022945,7242,Underground power cable,,
Australia,Q408,http://www.wikidata.org/entity/Q29023017,7131,Underground power cable,,
Australia,Q408,http://www.wikidata.org/entity/Q29022737,8857,Underground power cable,,
Australia,Q408,http://www.wikidata.org/entity/Q29022741,8858,Underground power cable,,
Australia,Q408,http://www.wikidata.org/entity/Q29020904,7227/1,Underground power cable,,
Australia,Q408,http://www.wikidata.org/entity/Q29022008,7200/2,Underground power cable,,
Australia,Q408,http://www.wikidata.org/entity/Q29022014,7200/3,Underground power cable,,
Australia,Q408,http://www.wikidata.org/entity/Q29022034,7201/1,Underground power cable,,
Australia,Q408,http://www.wikidata.org/entity/Q29022044,7201/2,Underground power cable,,
Australia,Q408,http://www.wikidata.org/entity/Q29022055,7201/3,Underground power cable,,
Australia,Q408,http://www.wikidata.org/entity/Q29022100,857,Underground power cable,,
Australia,Q408,http://www.wikidata.org/entity/Q29022285,7151/2,Underground power cable,,
Australia,Q408,http://www.wikidata.org/entity/Q29022295,7151/1,Underground power cable,,
Australia,Q408,http://www.wikidata.org/entity/Q29022304,7151/3,Underground power cable,,
Australia,Q408,http://www.wikidata.org/entity/Q29022360,7144/2,Underground power cable,,
Australia,Q408,http://www.wikidata.org/entity/Q29022367,7144/1,Underground power cable,,
Australia,Q408,http://www.wikidata.org/entity/Q29022371,7144/3,Underground power cable,,
Australia,Q408,http://www.wikidata.org/entity/Q29022866,608,Underground power cable,,
Australia,Q408,http://www.wikidata.org/entity/Q29022886,7303/1,Underground power cable,,
Australia,Q408,http://www.wikidata.org/entity/Q29022900,7303/2,Underground power cable,,
Australia,Q408,http://www.wikidata.org/entity/Q29022914,7303/3,Underground power cable,,
Australia,Q408,http://www.wikidata.org/entity/Q29022969,7130/2,Underground power cable,,
Australia,Q408,http://www.wikidata.org/entity/Q29022975,7130/1,Underground power cable,,
Australia,Q408,http://www.wikidata.org/entity/Q29022981,7130/3,Underground power cable,,
Australia,Q408,http://www.wikidata.org/entity/Q29588373,7128/1,Underground power cable,,
Australia,Q408,http://www.wikidata.org/entity/Q29588386,7128/2,Underground power cable,,
Australia,Q408,http://www.wikidata.org/entity/Q29843317,601,Underground power cable,,
Australia,Q408,http://www.wikidata.org/entity/Q29843307,831,Underground power cable,,
Australia,Q408,http://www.wikidata.org/entity/Q29843337,825,Underground power cable,,
Australia,Q408,http://www.wikidata.org/entity/Q29843295,843,Underground power cable,,
Australia,Q408,http://www.wikidata.org/entity/Q29843294,842,Underground power cable,,
Australia,Q408,http://www.wikidata.org/entity/Q29843333,824,Underground power cable,,
Australia,Q408,http://www.wikidata.org/entity/Q29843292,841,Underground power cable,,
Australia,Q408,http://www.wikidata.org/entity/Q29843405,835,Underground power cable,,
Australia,Q408,http://www.wikidata.org/entity/Q29843290,808,Underground power cable,,
Australia,Q408,http://www.wikidata.org/entity/Q29843349,741,Underground power cable,,
Australia,Q408,http://www.wikidata.org/entity/Q29843354,743,Underground power cable,,
Australia,Q408,http://www.wikidata.org/entity/Q29843323,606,Underground power cable,,
Australia,Q408,http://www.wikidata.org/entity/Q29843340,8823,Underground power cable,,
Australia,Q408,http://www.wikidata.org/entity/Q29843298,875,Underground power cable,,
Australia,Q408,http://www.wikidata.org/entity/Q29843617,7400,Underground power cable,,
Australia,Q408,http://www.wikidata.org/entity/Q29843353,740,Underground power cable,,
Australia,Q408,http://www.wikidata.org/entity/Q29843319,602,Underground power cable,,
Australia,Q408,http://www.wikidata.org/entity/Q29843322,605,Underground power cable,,
Australia,Q408,http://www.wikidata.org/entity/Q29843325,604,Underground power cable,,
Australia,Q408,http://www.wikidata.org/entity/Q29843350,742,Underground power cable,,
Australia,Q408,http://www.wikidata.org/entity/Q29843351,739,Underground power cable,,
Australia,Q408,http://www.wikidata.org/entity/Q29843358,744,Underground power cable,,
Australia,Q408,http://www.wikidata.org/entity/Q29843364,738,Underground power cable,,
Australia,Q408,http://www.wikidata.org/entity/Q29843365,737,Underground power cable,,
Australia,Q408,http://www.wikidata.org/entity/Q29843416,8888,Underground power cable,,
Australia,Q408,http://www.wikidata.org/entity/Q29843342,838,Underground power cable,,
Australia,Q408,http://www.wikidata.org/entity/Q29843297,844,Underground power cable,,
Australia,Q408,http://www.wikidata.org/entity/Q29843301,832,Underground power cable,,
Australia,Q408,http://www.wikidata.org/entity/Q29843305,837,Underground power cable,,
Australia,Q408,http://www.wikidata.org/entity/Q29843409,836,Underground power cable,,
Australia,Q408,http://www.wikidata.org/entity/Q29843328,8815,Underground power cable,,
Australia,Q408,http://www.wikidata.org/entity/Q29843314,7183,Underground power cable,,
Australia,Q408,http://www.wikidata.org/entity/Q29843316,7168,Underground power cable,,
Australia,Q408,http://www.wikidata.org/entity/Q29843302,8828,Underground power cable,,
Australia,Q408,http://www.wikidata.org/entity/Q29843304,8812,Underground power cable,,
Australia,Q408,http://www.wikidata.org/entity/Q29843356,7342,Underground power cable,,
Australia,Q408,http://www.wikidata.org/entity/Q29843357,7341,Underground power cable,,
Australia,Q408,http://www.wikidata.org/entity/Q29843360,7299,Underground power cable,,
Australia,Q408,http://www.wikidata.org/entity/Q29843363,7345,Underground power cable,,
Australia,Q408,http://www.wikidata.org/entity/Q29843361,7344,Underground power cable,,
Australia,Q408,http://www.wikidata.org/entity/Q29843327,8814,Underground power cable,,
Australia,Q408,http://www.wikidata.org/entity/Q29843373,7358,Underground power cable,,
Australia,Q408,http://www.wikidata.org/entity/Q29843376,7338,Underground power cable,,
Australia,Q408,http://www.wikidata.org/entity/Q29843383,7257,Underground power cable,,
Australia,Q408,http://www.wikidata.org/entity/Q29843386,7258,Underground power cable,,
Australia,Q408,http://www.wikidata.org/entity/Q29843380,7337,Underground power cable,,
Australia,Q408,http://www.wikidata.org/entity/Q29843385,7256,Underground power cable,,
Australia,Q408,http://www.wikidata.org/entity/Q29843343,8818,Underground power cable,,
Australia,Q408,http://www.wikidata.org/entity/Q29843346,8819,Underground power cable,,
Australia,Q408,http://www.wikidata.org/entity/Q29843347,8821,Underground power cable,,
Australia,Q408,http://www.wikidata.org/entity/Q29843420,7174,Underground power cable,,
Australia,Q408,http://www.wikidata.org/entity/Q29843426,7164,Underground power cable,,
Australia,Q408,http://www.wikidata.org/entity/Q29843433,7350,Underground power cable,,
Australia,Q408,http://www.wikidata.org/entity/Q29843438,7349,Underground power cable,,
Australia,Q408,http://www.wikidata.org/entity/Q29843442,7399,Underground power cable,,
Australia,Q408,http://www.wikidata.org/entity/Q29843396,8824,Underground power cable,,
Australia,Q408,http://www.wikidata.org/entity/Q29843447,7398,Underground power cable,,
Australia,Q408,http://www.wikidata.org/entity/Q29843401,8825,Underground power cable,,
Australia,Q408,http://www.wikidata.org/entity/Q29843452,7356,Underground power cable,,
Australia,Q408,http://www.wikidata.org/entity/Q29843456,7355,Underground power cable,,
Australia,Q408,http://www.wikidata.org/entity/Q29843614,7401,Underground power cable,,
Australia,Q408,http://www.wikidata.org/entity/Q29843619,7402,Underground power cable,,
Australia,Q408,http://www.wikidata.org/entity/Q29843622,7403,Underground power cable,,
Australia,Q408,http://www.wikidata.org/entity/Q29843626,7429,Underground power cable,,
Australia,Q408,http://www.wikidata.org/entity/Q29843624,7430,Underground power cable,,
Australia,Q408,http://www.wikidata.org/entity/Q29843628,7420,Underground power cable,,
Australia,Q408,http://www.wikidata.org/entity/Q29843612,8820,Underground power cable,,
Australia,Q408,http://www.wikidata.org/entity/Q29843311,8869,Underground power cable,,
Australia,Q408,http://www.wikidata.org/entity/Q29843308,8870,Underground power cable,,
Australia,Q408,http://www.wikidata.org/entity/Q29843309,8871,Underground power cable,,
Australia,Q408,http://www.wikidata.org/entity/Q29843312,8868,Underground power cable,,
Australia,Q408,http://www.wikidata.org/entity/Q29843330,8867,Underground power cable,,
Australia,Q408,http://www.wikidata.org/entity/Q29843332,8866,Underground power cable,,
Australia,Q408,http://www.wikidata.org/entity/Q29843469,8890,Underground power cable,,
Australia,Q408,http://www.wikidata.org/entity/Q29843474,8892,Underground power cable,,
Australia,Q408,http://www.wikidata.org/entity/Q29843607,8889,Underground power cable,,
Australia,Q408,http://www.wikidata.org/entity/Q29843604,8891,Underground power cable,,
Australia,Q408,http://www.wikidata.org/entity/Q29843605,8893,Underground power cable,,
Australia,Q408,http://www.wikidata.org/entity/Q29843610,8864,Underground power cable,,
Australia,Q408,http://www.wikidata.org/entity/Q29843608,8865,Underground power cable,,
Australia,Q408,http://www.wikidata.org/entity/Q29843368,722,Underground power cable,,
Australia,Q408,http://www.wikidata.org/entity/Q29843369,721,Underground power cable,,
Australia,Q408,http://www.wikidata.org/entity/Q29843344,817,Underground power cable,,
Australia,Q408,http://www.wikidata.org/entity/Q29843283,745/2,Underground power cable,,
Australia,Q408,http://www.wikidata.org/entity/Q29843281,746/2,Underground power cable,,
Australia,Q408,http://www.wikidata.org/entity/Q29843286,745/3,Underground power cable,,
Australia,Q408,http://www.wikidata.org/entity/Q29843287,746/1,Underground power cable,,
Australia,Q408,http://www.wikidata.org/entity/Q29843284,746/3,Underground power cable,,
Australia,Q408,http://www.wikidata.org/entity/Q29843289,745/1,Underground power cable,,
Australia,Q408,http://www.wikidata.org/entity/Q29843300,827,Underground power cable,,
Australia,Q408,http://www.wikidata.org/entity/Q29843320,603,Underground power cable,,
Australia,Q408,http://www.wikidata.org/entity/Q29843334,823,Underground power cable,,
Australia,Q408,http://www.wikidata.org/entity/Q29843338,802,Underground power cable,,
Australia,Q408,http://www.wikidata.org/entity/Q29843372,809,Underground power cable,,
Australia,Q408,http://www.wikidata.org/entity/Q29843392,776,Underground power cable,,
Australia,Q408,http://www.wikidata.org/entity/Q29843461,7355/2,Underground power cable,,
Australia,Q408,http://www.wikidata.org/entity/Q29843465,7356/2,Underground power cable,,
Australia,Q408,http://www.wikidata.org/entity/Q29843374,F831,Underground power cable,,
Australia,Q408,http://www.wikidata.org/entity/Q29843379,F912,Underground power cable,,
Australia,Q408,http://www.wikidata.org/entity/Q29843377,F913,Underground power cable,,
Australia,Q408,http://www.wikidata.org/entity/Q29588662,834,Underground power cable,,
Australia,Q408,http://www.wikidata.org/entity/Q29589033,850,Underground power cable,,
Australia,Q408,http://www.wikidata.org/entity/Q29589036,849,Underground power cable,,
Australia,Q408,http://www.wikidata.org/entity/Q29589100,7450,Underground power cable,,
Australia,Q408,http://www.wikidata.org/entity/Q29589023,820,Underground power cable,,
Australia,Q408,http://www.wikidata.org/entity/Q29589040,848,Underground power cable,,
Australia,Q408,http://www.wikidata.org/entity/Q29588648,7300,Underground power cable,,
Australia,Q408,http://www.wikidata.org/entity/Q29588659,821,Underground power cable,,
Australia,Q408,http://www.wikidata.org/entity/Q29589047,812,Underground power cable,,
Australia,Q408,http://www.wikidata.org/entity/Q29589298,761,Underground power cable,,
Australia,Q408,http://www.wikidata.org/entity/Q29589299,760,Underground power cable,,
Australia,Q408,http://www.wikidata.org/entity/Q29589080,789,Underground power cable,,
Australia,Q408,http://www.wikidata.org/entity/Q29588653,878,Underground power cable,,
Australia,Q408,http://www.wikidata.org/entity/Q29589026,856,Underground power cable,,
Australia,Q408,http://www.wikidata.org/entity/Q29589030,833,Underground power cable,,
Australia,Q408,http://www.wikidata.org/entity/Q29589071,4212,Underground power cable,,
Australia,Q408,http://www.wikidata.org/entity/Q29588629,7238,Underground power cable,,
Australia,Q408,http://www.wikidata.org/entity/Q29588639,7152,Underground power cable,,
Australia,Q408,http://www.wikidata.org/entity/Q29588642,7175,Underground power cable,,
Australia,Q408,http://www.wikidata.org/entity/Q29588640,7119,Underground power cable,,
Australia,Q408,http://www.wikidata.org/entity/Q29588634,7451,Underground power cable,,
Australia,Q408,http://www.wikidata.org/entity/Q29588638,7320,Underground power cable,,
Australia,Q408,http://www.wikidata.org/entity/Q29588637,7336,Underground power cable,,
Australia,Q408,http://www.wikidata.org/entity/Q29588644,7120,Underground power cable,,
Australia,Q408,http://www.wikidata.org/entity/Q29588643,7304,Underground power cable,,
Australia,Q408,http://www.wikidata.org/entity/Q29588641,7319,Underground power cable,,
Australia,Q408,http://www.wikidata.org/entity/Q29588651,7127,Underground power cable,,
Australia,Q408,http://www.wikidata.org/entity/Q29588650,7208,Underground power cable,,
Australia,Q408,http://www.wikidata.org/entity/Q29588646,7339,Underground power cable,,
Australia,Q408,http://www.wikidata.org/entity/Q29588645,7305,Underground power cable,,
Australia,Q408,http://www.wikidata.org/entity/Q29588656,7176,Underground power cable,,
Australia,Q408,http://www.wikidata.org/entity/Q29588652,7360,Underground power cable,,
Australia,Q408,http://www.wikidata.org/entity/Q29588657,7307,Underground power cable,,
Australia,Q408,http://www.wikidata.org/entity/Q29588654,8845,Underground power cable,,
Australia,Q408,http://www.wikidata.org/entity/Q29588710,7121,Underground power cable,,
Australia,Q408,http://www.wikidata.org/entity/Q29588658,8846,Underground power cable,,
Australia,Q408,http://www.wikidata.org/entity/Q29588711,7306,Underground power cable,,
Australia,Q408,http://www.wikidata.org/entity/Q29588712,7155,Underground power cable,,
Australia,Q408,http://www.wikidata.org/entity/Q29588660,8847,Underground power cable,,
Australia,Q408,http://www.wikidata.org/entity/Q29588715,7252,Underground power cable,,
Australia,Q408,http://www.wikidata.org/entity/Q29588714,7308,Underground power cable,,
Australia,Q408,http://www.wikidata.org/entity/Q29588713,7309,Underground power cable,,
Australia,Q408,http://www.wikidata.org/entity/Q29588723,7178,Underground power cable,,
Australia,Q408,http://www.wikidata.org/entity/Q29588719,7369,Underground power cable,,
Australia,Q408,http://www.wikidata.org/entity/Q29588716,7372,Underground power cable,,
Australia,Q408,http://www.wikidata.org/entity/Q29588717,7371,Underground power cable,,
Australia,Q408,http://www.wikidata.org/entity/Q29588722,7383,Underground power cable,,
Australia,Q408,http://www.wikidata.org/entity/Q29588725,7177,Underground power cable,,
Australia,Q408,http://www.wikidata.org/entity/Q29588720,7370,Underground power cable,,
Australia,Q408,http://www.wikidata.org/entity/Q29588721,7382,Underground power cable,,
Australia,Q408,http://www.wikidata.org/entity/Q29588724,7366,Underground power cable,,
Australia,Q408,http://www.wikidata.org/entity/Q29588741,7413,Underground power cable,,
Australia,Q408,http://www.wikidata.org/entity/Q29589050,7221,Underground power cable,,
Australia,Q408,http://www.wikidata.org/entity/Q29589058,7115,Underground power cable,,
Australia,Q408,http://www.wikidata.org/entity/Q29589053,7167,Underground power cable,,
Australia,Q408,http://www.wikidata.org/entity/Q29589061,7170,Underground power cable,,
Australia,Q408,http://www.wikidata.org/entity/Q29589064,7108,Underground power cable,,
Australia,Q408,http://www.wikidata.org/entity/Q29589068,7107,Underground power cable,,
Australia,Q408,http://www.wikidata.org/entity/Q29589020,8831,Underground power cable,,
Australia,Q408,http://www.wikidata.org/entity/Q29589073,7154,Underground power cable,,
Australia,Q408,http://www.wikidata.org/entity/Q29589077,7153,Underground power cable,,
Australia,Q408,http://www.wikidata.org/entity/Q29589084,7171,Underground power cable,,
Australia,Q408,http://www.wikidata.org/entity/Q29589087,7310,Underground power cable,,
Australia,Q408,http://www.wikidata.org/entity/Q29589089,7311,Underground power cable,,
Australia,Q408,http://www.wikidata.org/entity/Q29589093,7367,Underground power cable,,
Australia,Q408,http://www.wikidata.org/entity/Q29589097,7286,Underground power cable,,
Australia,Q408,http://www.wikidata.org/entity/Q29589287,7290,Underground power cable,,
Australia,Q408,http://www.wikidata.org/entity/Q29589290,7353,Underground power cable,,
Australia,Q408,http://www.wikidata.org/entity/Q29589288,7291,Underground power cable,,
Australia,Q408,http://www.wikidata.org/entity/Q29589292,7352,Underground power cable,,
Australia,Q408,http://www.wikidata.org/entity/Q29589303,7145,Underground power cable,,
Australia,Q408,http://www.wikidata.org/entity/Q29589301,7146,Underground power cable,,
Australia,Q408,http://www.wikidata.org/entity/Q29589307,7195,Underground power cable,,
Australia,Q408,http://www.wikidata.org/entity/Q29589302,7376,Underground power cable,,
Australia,Q408,http://www.wikidata.org/entity/Q29589306,7375,Underground power cable,,
Australia,Q408,http://www.wikidata.org/entity/Q29589294,8859,Underground power cable,,
Australia,Q408,http://www.wikidata.org/entity/Q29589293,8875,Underground power cable,,
Australia,Q408,http://www.wikidata.org/entity/Q29589296,8879,Underground power cable,,
Australia,Q408,http://www.wikidata.org/entity/Q29589043,811,Underground power cable,,
Australia,Q408,http://www.wikidata.org/entity/Q29588399,7128/3,Underground power cable,,
Australia,Q408,http://www.wikidata.org/entity/Q29588600,7125/2,Underground power cable,,
Australia,Q408,http://www.wikidata.org/entity/Q29588605,7126/2,Underground power cable,,
Australia,Q408,http://www.wikidata.org/entity/Q29588655,822,Underground power cable,,
Australia,Q408,http://www.wikidata.org/entity/Q29588678,7122/2,Underground power cable,,
Australia,Q408,http://www.wikidata.org/entity/Q29588679,7122/3,Underground power cable,,
Australia,Q408,http://www.wikidata.org/entity/Q29588677,7122/1,Underground power cable,,
Australia,Q408,http://www.wikidata.org/entity/Q29588686,7118/3,Underground power cable,,
Australia,Q408,http://www.wikidata.org/entity/Q29588684,7118/1,Underground power cable,,
Australia,Q408,http://www.wikidata.org/entity/Q29588685,7118/2,Underground power cable,,
Australia,Q408,http://www.wikidata.org/entity/Q29588690,7117/3,Underground power cable,,
Australia,Q408,http://www.wikidata.org/entity/Q29588688,7117/1,Underground power cable,,
Australia,Q408,http://www.wikidata.org/entity/Q29588689,7117/2,Underground power cable,,
Australia,Q408,http://www.wikidata.org/entity/Q29588695,7124/2,Underground power cable,,
Australia,Q408,http://www.wikidata.org/entity/Q29588693,7124/1,Underground power cable,,
Australia,Q408,http://www.wikidata.org/entity/Q29588698,7150/1,Underground power cable,,
Australia,Q408,http://www.wikidata.org/entity/Q29588699,7150/3,Underground power cable,,
Australia,Q408,http://www.wikidata.org/entity/Q29588696,7124/3,Underground power cable,,
Australia,Q408,http://www.wikidata.org/entity/Q29588700,7150/2,Underground power cable,,
Australia,Q408,http://www.wikidata.org/entity/Q29588707,7125/1,Underground power cable,,
Australia,Q408,http://www.wikidata.org/entity/Q29588708,7126/1,Underground power cable,,
Australia,Q408,http://www.wikidata.org/entity/Q29589334,866,Underground power cable,,
Australia,Q408,http://www.wikidata.org/entity/Q29843204,764,Underground power cable,,
Australia,Q408,http://www.wikidata.org/entity/Q29843207,765,Underground power cable,,
Australia,Q408,http://www.wikidata.org/entity/Q29843192,786,Underground power cable,,
Australia,Q408,http://www.wikidata.org/entity/Q29843251,810,Underground power cable,,
Australia,Q408,http://www.wikidata.org/entity/Q29589346,871,Underground power cable,,
Australia,Q408,http://www.wikidata.org/entity/Q29589333,865,Underground power cable,,
Australia,Q408,http://www.wikidata.org/entity/Q29589325,855,Underground power cable,,
Australia,Q408,http://www.wikidata.org/entity/Q29843272,777,Underground power cable,,
Australia,Q408,http://www.wikidata.org/entity/Q29589318,813,Underground power cable,,
Australia,Q408,http://www.wikidata.org/entity/Q29843249,816,Underground power cable,,
Australia,Q408,http://www.wikidata.org/entity/Q29843274,778,Underground power cable,,
Australia,Q408,http://www.wikidata.org/entity/Q29843256,797,Underground power cable,,
Australia,Q408,http://www.wikidata.org/entity/Q29843257,796,Underground power cable,,
Australia,Q408,http://www.wikidata.org/entity/Q29589317,814,Underground power cable,,
Australia,Q408,http://www.wikidata.org/entity/Q29843231,854,Underground power cable,,
Australia,Q408,http://www.wikidata.org/entity/Q29843250,815,Underground power cable,,
Australia,Q408,http://www.wikidata.org/entity/Q29843228,852,Underground power cable,,
Australia,Q408,http://www.wikidata.org/entity/Q29589309,7194,Underground power cable,,
Australia,Q408,http://www.wikidata.org/entity/Q29589326,7111,Underground power cable,,
Australia,Q408,http://www.wikidata.org/entity/Q29589320,7185,Underground power cable,,
Australia,Q408,http://www.wikidata.org/entity/Q29589328,7112,Underground power cable,,
Australia,Q408,http://www.wikidata.org/entity/Q29589321,7368,Underground power cable,,
Australia,Q408,http://www.wikidata.org/entity/Q29589332,7169,Underground power cable,,
Australia,Q408,http://www.wikidata.org/entity/Q29589339,7103,Underground power cable,,
Australia,Q408,http://www.wikidata.org/entity/Q29589330,7415,Underground power cable,,
Australia,Q408,http://www.wikidata.org/entity/Q29589336,7102,Underground power cable,,
Australia,Q408,http://www.wikidata.org/entity/Q29589337,7101,Underground power cable,,
Australia,Q408,http://www.wikidata.org/entity/Q29589329,7414,Underground power cable,,
Australia,Q408,http://www.wikidata.org/entity/Q29589343,7104,Underground power cable,,
Australia,Q408,http://www.wikidata.org/entity/Q29589344,7105,Underground power cable,,
Australia,Q408,http://www.wikidata.org/entity/Q29589340,7268,Underground power cable,,
Australia,Q408,http://www.wikidata.org/entity/Q29589341,7269,Underground power cable,,
Australia,Q408,http://www.wikidata.org/entity/Q29589442,7346,Underground power cable,,
Australia,Q408,http://www.wikidata.org/entity/Q29589310,8878,Underground power cable,,
Australia,Q408,http://www.wikidata.org/entity/Q29589314,8876,Underground power cable,,
Australia,Q408,http://www.wikidata.org/entity/Q29589312,8877,Underground power cable,,
Australia,Q408,http://www.wikidata.org/entity/Q29589322,8873,Underground power cable,,
Australia,Q408,http://www.wikidata.org/entity/Q29589324,8874,Underground power cable,,
Australia,Q408,http://www.wikidata.org/entity/Q29843195,7215,Underground power cable,,
Australia,Q408,http://www.wikidata.org/entity/Q29843198,7187,Underground power cable,,
Australia,Q408,http://www.wikidata.org/entity/Q29843196,7328,Underground power cable,,
Australia,Q408,http://www.wikidata.org/entity/Q29843200,7204,Underground power cable,,
Australia,Q408,http://www.wikidata.org/entity/Q29843203,7330,Underground power cable,,
Australia,Q408,http://www.wikidata.org/entity/Q29843201,7329,Underground power cable,,
Australia,Q408,http://www.wikidata.org/entity/Q29843214,7186,Underground power cable,,
Australia,Q408,http://www.wikidata.org/entity/Q29843208,7331,Underground power cable,,
Australia,Q408,http://www.wikidata.org/entity/Q29843218,7161,Underground power cable,,
Australia,Q408,http://www.wikidata.org/entity/Q29843213,7343,Underground power cable,,
Australia,Q408,http://www.wikidata.org/entity/Q29843221,7109,Underground power cable,,
Australia,Q408,http://www.wikidata.org/entity/Q29843220,7159,Underground power cable,,
Australia,Q408,http://www.wikidata.org/entity/Q29843239,7340,Underground power cable,,
Australia,Q408,http://www.wikidata.org/entity/Q29843242,7316,Underground power cable,,
Australia,Q408,http://www.wikidata.org/entity/Q29843243,7315,Underground power cable,,
Australia,Q408,http://www.wikidata.org/entity/Q29843240,7313,Underground power cable,,
Australia,Q408,http://www.wikidata.org/entity/Q29843244,7190,Underground power cable,,
Australia,Q408,http://www.wikidata.org/entity/Q29843234,8811,Underground power cable,,
Australia,Q408,http://www.wikidata.org/entity/Q29843232,8810,Underground power cable,,
Australia,Q408,http://www.wikidata.org/entity/Q29843247,8850,Underground power cable,,
Australia,Q408,http://www.wikidata.org/entity/Q29589315,818,Underground power cable,,
Australia,Q408,http://www.wikidata.org/entity/Q29589347,819,Underground power cable,,
Australia,Q408,http://www.wikidata.org/entity/Q29589351,7113/1,Underground power cable,,
Australia,Q408,http://www.wikidata.org/entity/Q29589354,7114/1,Underground power cable,,
Australia,Q408,http://www.wikidata.org/entity/Q29589352,7113/2,Underground power cable,,
Australia,Q408,http://www.wikidata.org/entity/Q29589353,7113/3,Underground power cable,,
Australia,Q408,http://www.wikidata.org/entity/Q29589356,7114/2,Underground power cable,,
Australia,Q408,http://www.wikidata.org/entity/Q29589357,7114/3,Underground power cable,,
Australia,Q408,http://www.wikidata.org/entity/Q29589379,7102/2,Underground power cable,,
Australia,Q408,http://www.wikidata.org/entity/Q29589377,7103/2,Underground power cable,,
Australia,Q408,http://www.wikidata.org/entity/Q29589382,7147/2,Underground power cable,,
Australia,Q408,http://www.wikidata.org/entity/Q29589381,7147/1,Underground power cable,,
Australia,Q408,http://www.wikidata.org/entity/Q29589385,7147/3,Underground power cable,,
Australia,Q408,http://www.wikidata.org/entity/Q29843191,7188/1,Underground power cable,,
Australia,Q408,http://www.wikidata.org/entity/Q29843188,7188/3,Underground power cable,,
Australia,Q408,http://www.wikidata.org/entity/Q29843189,7188/2,Underground power cable,,
Australia,Q408,http://www.wikidata.org/entity/Q29843211,747/1,Underground power cable,,
Australia,Q408,http://www.wikidata.org/entity/Q29843209,748/1,Underground power cable,,
Australia,Q408,http://www.wikidata.org/entity/Q29843215,748/2,Underground power cable,,
Australia,Q408,http://www.wikidata.org/entity/Q29843222,7110/1,Underground power cable,,
Australia,Q408,http://www.wikidata.org/entity/Q29843217,747/2,Underground power cable,,
Australia,Q408,http://www.wikidata.org/entity/Q29843224,7110/3,Underground power cable,,
Australia,Q408,http://www.wikidata.org/entity/Q29843225,7110/2,Underground power cable,,
Australia,Q408,http://www.wikidata.org/entity/Q29843227,851,Underground power cable,,
Australia,Q408,http://www.wikidata.org/entity/Q29843229,853,Underground power cable,,
Australia,Q408,http://www.wikidata.org/entity/Q29843236,784,Underground power cable,,
Australia,Q408,http://www.wikidata.org/entity/Q29843237,785,Underground power cable,,
Australia,Q408,http://www.wikidata.org/entity/Q29843246,826,Underground power cable,,
Australia,Q408,http://www.wikidata.org/entity/Q29843254,7189/2,Underground power cable,,
Australia,Q408,http://www.wikidata.org/entity/Q29843253,807,Underground power cable,,
Australia,Q408,http://www.wikidata.org/entity/Q29843258,795/2,Underground power cable,,
Australia,Q408,http://www.wikidata.org/entity/Q29843263,795/1,Underground power cable,,
Australia,Q408,http://www.wikidata.org/entity/Q29843261,7189/3,Underground power cable,,
Australia,Q408,http://www.wikidata.org/entity/Q29843260,795/3,Underground power cable,,
Australia,Q408,http://www.wikidata.org/entity/Q29843266,7189/1,Underground power cable,,
Australia,Q408,http://www.wikidata.org/entity/Q29843275,746/4,Underground power cable,,
Australia,Q408,http://www.wikidata.org/entity/Q29843279,745/5,Underground power cable,,
Australia,Q408,http://www.wikidata.org/entity/Q29843276,745/4,Underground power cable,,
Australia,Q408,http://www.wikidata.org/entity/Q29843277,746/5,Underground power cable,,
Australia,Q408,http://www.wikidata.org/entity/Q29843271,F846,Underground power cable,,
Australia,Q408,http://www.wikidata.org/entity/Q29843268,F845,Underground power cable,,
Australia,Q408,http://www.wikidata.org/entity/Q29843729,762,Underground power cable,,
Australia,Q408,http://www.wikidata.org/entity/Q29843718,768,Underground power cable,,
Australia,Q408,http://www.wikidata.org/entity/Q29843781,790,Underground power cable,,
Australia,Q408,http://www.wikidata.org/entity/Q29843774,734,Underground power cable,,
Australia,Q408,http://www.wikidata.org/entity/Q29843778,736,Underground power cable,,
Australia,Q408,http://www.wikidata.org/entity/Q29843780,735,Underground power cable,,
Australia,Q408,http://www.wikidata.org/entity/Q29843639,7423,Underground power cable,,
Australia,Q408,http://www.wikidata.org/entity/Q29843652,7425,Underground power cable,,
Australia,Q408,http://www.wikidata.org/entity/Q29843655,8900,Underground power cable,,
Australia,Q408,http://www.wikidata.org/entity/Q29843755,732,Underground power cable,,
Australia,Q408,http://www.wikidata.org/entity/Q29843726,709,Underground power cable,,
Australia,Q408,http://www.wikidata.org/entity/Q29843792,781,Underground power cable,,
Australia,Q408,http://www.wikidata.org/entity/Q29843739,749,Underground power cable,,
Australia,Q408,http://www.wikidata.org/entity/Q29843757,731,Underground power cable,,
Australia,Q408,http://www.wikidata.org/entity/Q29843702,9907,Underground power cable,,
Australia,Q408,http://www.wikidata.org/entity/Q29843716,7292,Underground power cable,,
Australia,Q408,http://www.wikidata.org/entity/Q29843721,707,Underground power cable,,
Australia,Q408,http://www.wikidata.org/entity/Q29843793,782,Underground power cable,,
Australia,Q408,http://www.wikidata.org/entity/Q29843697,8L,Underground power cable,,
Australia,Q408,http://www.wikidata.org/entity/Q29843695,8M,Underground power cable,,
Australia,Q408,http://www.wikidata.org/entity/Q29843630,7419,Underground power cable,,
Australia,Q408,http://www.wikidata.org/entity/Q29843634,7421,Underground power cable,,
Australia,Q408,http://www.wikidata.org/entity/Q29843636,7422,Underground power cable,,
Australia,Q408,http://www.wikidata.org/entity/Q29843643,7427,Underground power cable,,
Australia,Q408,http://www.wikidata.org/entity/Q29843641,7424,Underground power cable,,
Australia,Q408,http://www.wikidata.org/entity/Q29843646,7428,Underground power cable,,
Australia,Q408,http://www.wikidata.org/entity/Q29843648,7426,Underground power cable,,
Australia,Q408,http://www.wikidata.org/entity/Q29843664,7396,Underground power cable,,
Australia,Q408,http://www.wikidata.org/entity/Q29843665,7397,Underground power cable,,
Australia,Q408,http://www.wikidata.org/entity/Q29843687,7380,Underground power cable,,
Australia,Q408,http://www.wikidata.org/entity/Q29843690,7378,Underground power cable,,
Australia,Q408,http://www.wikidata.org/entity/Q29843691,7379,Underground power cable,,
Australia,Q408,http://www.wikidata.org/entity/Q29843688,7381,Underground power cable,,
Australia,Q408,http://www.wikidata.org/entity/Q29843710,7197,Underground power cable,,
Australia,Q408,http://www.wikidata.org/entity/Q29843708,7196,Underground power cable,,
Australia,Q408,http://www.wikidata.org/entity/Q29843713,7209,Underground power cable,,
Australia,Q408,http://www.wikidata.org/entity/Q29843671,8840,Underground power cable,,
Australia,Q408,http://www.wikidata.org/entity/Q29843669,8841,Underground power cable,,
Australia,Q408,http://www.wikidata.org/entity/Q29843672,8839,Underground power cable,,
Australia,Q408,http://www.wikidata.org/entity/Q29843673,8838,Underground power cable,,
Australia,Q408,http://www.wikidata.org/entity/Q29843725,7295,Underground power cable,,
Australia,Q408,http://www.wikidata.org/entity/Q29843728,7294,Underground power cable,,
Australia,Q408,http://www.wikidata.org/entity/Q29843734,7293,Underground power cable,,
Australia,Q408,http://www.wikidata.org/entity/Q29843751,7245,Underground power cable,,
Australia,Q408,http://www.wikidata.org/entity/Q29843749,7314,Underground power cable,,
Australia,Q408,http://www.wikidata.org/entity/Q29843753,7244,Underground power cable,,
Australia,Q408,http://www.wikidata.org/entity/Q29843771,7234,Underground power cable,,
Australia,Q408,http://www.wikidata.org/entity/Q29843773,7233,Underground power cable,,
Australia,Q408,http://www.wikidata.org/entity/Q29843775,7348,Underground power cable,,
Australia,Q408,http://www.wikidata.org/entity/Q29843784,7289,Underground power cable,,
Australia,Q408,http://www.wikidata.org/entity/Q29843798,7267,Underground power cable,,
Australia,Q408,http://www.wikidata.org/entity/Q29843797,7266,Underground power cable,,
Australia,Q408,http://www.wikidata.org/entity/Q29843796,7365,Underground power cable,,
Australia,Q408,http://www.wikidata.org/entity/Q29843800,7321,Underground power cable,,
Australia,Q408,http://www.wikidata.org/entity/Q29843658,8901,Underground power cable,,
Australia,Q408,http://www.wikidata.org/entity/Q29843662,8899,Underground power cable,,
Australia,Q408,http://www.wikidata.org/entity/Q29843660,8898,Underground power cable,,
Australia,Q408,http://www.wikidata.org/entity/Q29843666,8894,Underground power cable,,
Australia,Q408,http://www.wikidata.org/entity/Q29843668,8895,Underground power cable,,
Australia,Q408,http://www.wikidata.org/entity/Q29843675,8863,Underground power cable,,
Australia,Q408,http://www.wikidata.org/entity/Q29843678,8861,Underground power cable,,
Australia,Q408,http://www.wikidata.org/entity/Q29843679,8860,Underground power cable,,
Australia,Q408,http://www.wikidata.org/entity/Q29843676,8862,Underground power cable,,
Australia,Q408,http://www.wikidata.org/entity/Q29843682,8882,Underground power cable,,
Australia,Q408,http://www.wikidata.org/entity/Q29843680,8883,Underground power cable,,
Australia,Q408,http://www.wikidata.org/entity/Q29843683,9901,Underground power cable,,
Australia,Q408,http://www.wikidata.org/entity/Q29843686,9902,Underground power cable,,
Australia,Q408,http://www.wikidata.org/entity/Q29843694,9903,Underground power cable,,
Australia,Q408,http://www.wikidata.org/entity/Q29843693,9904,Underground power cable,,
Australia,Q408,http://www.wikidata.org/entity/Q29843698,9906,Underground power cable,,
Australia,Q408,http://www.wikidata.org/entity/Q29843700,9905,Underground power cable,,
Australia,Q408,http://www.wikidata.org/entity/Q29843701,9908,Underground power cable,,
Australia,Q408,http://www.wikidata.org/entity/Q29843770,727,Underground power cable,,
Australia,Q408,http://www.wikidata.org/entity/Q29843720,708,Underground power cable,,
Australia,Q408,http://www.wikidata.org/entity/Q29843714,710,Underground power cable,,
Australia,Q408,http://www.wikidata.org/entity/Q29843782,726,Underground power cable,,
Australia,Q408,http://www.wikidata.org/entity/Q29843777,733,Underground power cable,,
Australia,Q408,http://www.wikidata.org/entity/Q29843717,769,Underground power cable,,
Australia,Q408,http://www.wikidata.org/entity/Q29843723,791,Underground power cable,,
Australia,Q408,http://www.wikidata.org/entity/Q29843742,7246/1,Underground power cable,,
Australia,Q408,http://www.wikidata.org/entity/Q29843743,7247/2,Underground power cable,,
Australia,Q408,http://www.wikidata.org/entity/Q29843740,7247/1,Underground power cable,,
Australia,Q408,http://www.wikidata.org/entity/Q29843747,7247/3,Underground power cable,,
Australia,Q408,http://www.wikidata.org/entity/Q29843745,7246/2,Underground power cable,,
Australia,Q408,http://www.wikidata.org/entity/Q29843748,7246/3,Underground power cable,,
Australia,Q408,http://www.wikidata.org/entity/Q29843762,730/2,Underground power cable,,
Australia,Q408,http://www.wikidata.org/entity/Q29843760,730/1,Underground power cable,,
Australia,Q408,http://www.wikidata.org/entity/Q29843761,728/1,Underground power cable,,
Australia,Q408,http://www.wikidata.org/entity/Q29843767,730/3,Underground power cable,,
Australia,Q408,http://www.wikidata.org/entity/Q29843764,728/2,Underground power cable,,
Australia,Q408,http://www.wikidata.org/entity/Q29843768,728/3,Underground power cable,,
Australia,Q408,http://www.wikidata.org/entity/Q29843787,7259/1,Underground power cable,,
Australia,Q408,http://www.wikidata.org/entity/Q29843785,7259/2,Underground power cable,,
Australia,Q408,http://www.wikidata.org/entity/Q29843788,7259/3,Underground power cable,,
Australia,Q408,http://www.wikidata.org/entity/Q29843706,F818,Underground power cable,,
Australia,Q408,http://www.wikidata.org/entity/Q29843705,F817,Underground power cable,,
Australia,Q408,http://www.wikidata.org/entity/Q29843711,F905,Underground power cable,,
Australia,Q408,http://www.wikidata.org/entity/Q29843789,F830,Underground power cable,,
Australia,Q408,http://www.wikidata.org/entity/Q29843803,F808,Underground power cable,,
Australia,Q408,http://www.wikidata.org/entity/Q29843801,F807,Underground power cable,,
Australia,Q408,http://www.wikidata.org/entity/Q92936090,BOIN,Underground power cable,,
Australia,Q408,http://www.wikidata.org/entity/Q92937211,GRBL,Underground power cable,,
Australia,Q408,http://www.wikidata.org/entity/Q92937952,DGBL,Underground power cable,,
Australia,Q408,http://www.wikidata.org/entity/Q98113904,Australia-Asia Power Link,Underground power cable,,
Australia,Q408,http://www.wikidata.org/entity/Q29843912,DC3,Underground power cable,,
Australia,Q408,http://www.wikidata.org/entity/Q29020921,876,Underground power cable,,
Australia,Q408,http://www.wikidata.org/entity/Q29020891,7388,Underground power cable,,
Australia,Q408,http://www.wikidata.org/entity/Q29022497,7139,Underground power cable,,
Australia,Q408,http://www.wikidata.org/entity/Q6939547,Murraylink,Underground power cable,,
Australia,Q408,http://www.wikidata.org/entity/Q810536,Basslink,Underground power cable,,
Australia,Q408,http://www.wikidata.org/entity/Q29020918,877,Underground power cable,,
Australia,Q408,http://www.wikidata.org/entity/Q7703288,Terranora interconnector,Underground power cable,,
Australia,Q408,http://www.wikidata.org/entity/Q29020907,7227/3,Underground power cable,,
Australia,Q408,http://www.wikidata.org/entity/Q29020905,7227/2,Underground power cable,,
Australia,Q408,http://www.wikidata.org/entity/Q29021039,7200/1,Underground power cable,,
Australia,Q408,http://www.wikidata.org/entity/Q92934998,Q92934998,Underground power cable,,
Australia,Q408,http://www.wikidata.org/entity/Q65046083,Marinus Link,Underground power cable,,
Australia,Q408,http://www.wikidata.org/entity/Q29843903,755,Underground power cable,,
Australia,Q408,http://www.wikidata.org/entity/Q29843953,830,Underground power cable,,
Australia,Q408,http://www.wikidata.org/entity/Q29843889,706,Underground power cable,,
Australia,Q408,http://www.wikidata.org/entity/Q29843911,DC2,Underground power cable,,
Australia,Q408,http://www.wikidata.org/entity/Q29843909,DC1,Underground power cable,,
Australia,Q408,http://www.wikidata.org/entity/Q29843853,793,Underground power cable,,
Australia,Q408,http://www.wikidata.org/entity/Q29843829,715,Underground power cable,,
Australia,Q408,http://www.wikidata.org/entity/Q29843898,754,Underground power cable,,
Australia,Q408,http://www.wikidata.org/entity/Q29843869,704,Underground power cable,,
Australia,Q408,http://www.wikidata.org/entity/Q29843828,716,Underground power cable,,
Australia,Q408,http://www.wikidata.org/entity/Q29843839,714,Underground power cable,,
Australia,Q408,http://www.wikidata.org/entity/Q29843810,753,Underground power cable,,
Australia,Q408,http://www.wikidata.org/entity/Q29843846,787,Underground power cable,,
Australia,Q408,http://www.wikidata.org/entity/Q29843868,788,Underground power cable,,
Australia,Q408,http://www.wikidata.org/entity/Q29843904,758,Underground power cable,,
Australia,Q408,http://www.wikidata.org/entity/Q29843905,757,Underground power cable,,
Australia,Q408,http://www.wikidata.org/entity/Q29843927,766,Underground power cable,,
Australia,Q408,http://www.wikidata.org/entity/Q29843928,767,Underground power cable,,
Australia,Q408,http://www.wikidata.org/entity/Q29843840,713,Underground power cable,,
Australia,Q408,http://www.wikidata.org/entity/Q29843847,751,Underground power cable,,
Australia,Q408,http://www.wikidata.org/entity/Q29843887,794,Underground power cable,,
Australia,Q408,http://www.wikidata.org/entity/Q29843834,717,Underground power cable,,
Australia,Q408,http://www.wikidata.org/entity/Q29843836,718,Underground power cable,,
Australia,Q408,http://www.wikidata.org/entity/Q29843856,799,Underground power cable,,
Australia,Q408,http://www.wikidata.org/entity/Q29843867,750,Underground power cable,,
Australia,Q408,http://www.wikidata.org/entity/Q29843807,7231,Underground power cable,,
Australia,Q408,http://www.wikidata.org/entity/Q29843804,7232,Underground power cable,,
Australia,Q408,http://www.wikidata.org/entity/Q29843830,7324,Underground power cable,,
Australia,Q408,http://www.wikidata.org/entity/Q29843832,7296,Underground power cable,,
Australia,Q408,http://www.wikidata.org/entity/Q29843860,7354,Underground power cable,,
Australia,Q408,http://www.wikidata.org/entity/Q29843826,8844,Underground power cable,,
Australia,Q408,http://www.wikidata.org/entity/Q29843878,7229,Underground power cable,,
Australia,Q408,http://www.wikidata.org/entity/Q29843873,7377,Underground power cable,,
Australia,Q408,http://www.wikidata.org/entity/Q29843876,7283,Underground power cable,,
Australia,Q408,http://www.wikidata.org/entity/Q29843883,7193,Underground power cable,,
Australia,Q408,http://www.wikidata.org/entity/Q29843877,7297,Underground power cable,,
Australia,Q408,http://www.wikidata.org/entity/Q29843837,8842,Underground power cable,,
Australia,Q408,http://www.wikidata.org/entity/Q29843842,8826,Underground power cable,,
Australia,Q408,http://www.wikidata.org/entity/Q29843844,8829,Underground power cable,,
Australia,Q408,http://www.wikidata.org/entity/Q29843918,7270,Underground power cable,,
Australia,Q408,http://www.wikidata.org/entity/Q29843917,7271,Underground power cable,,
Australia,Q408,http://www.wikidata.org/entity/Q29843922,7274,Underground power cable,,
Australia,Q408,http://www.wikidata.org/entity/Q29843920,7272,Underground power cable,,
Australia,Q408,http://www.wikidata.org/entity/Q29843921,7273,Underground power cable,,
Australia,Q408,http://www.wikidata.org/entity/Q29843930,7902,Underground power cable,,
Australia,Q408,http://www.wikidata.org/entity/Q29843929,7903,Underground power cable,,
Australia,Q408,http://www.wikidata.org/entity/Q29843933,8813,Underground power cable,,
Australia,Q408,http://www.wikidata.org/entity/Q29843936,8822,Underground power cable,,
Australia,Q408,http://www.wikidata.org/entity/Q29843941,8849,Underground power cable,,
Australia,Q408,http://www.wikidata.org/entity/Q29843944,8848,Underground power cable,,
Australia,Q408,http://www.wikidata.org/entity/Q29843955,8837,Underground power cable,,
Australia,Q408,http://www.wikidata.org/entity/Q29843939,8887,Underground power cable,,
Australia,Q408,http://www.wikidata.org/entity/Q29843907,9901,Underground power cable,,
Australia,Q408,http://www.wikidata.org/entity/Q29843925,701,Underground power cable,,
Australia,Q408,http://www.wikidata.org/entity/Q29843814,752,Underground power cable,,
Australia,Q408,http://www.wikidata.org/entity/Q29843845,829,Underground power cable,,
Australia,Q408,http://www.wikidata.org/entity/Q29843849,792,Underground power cable,,
Australia,Q408,http://www.wikidata.org/entity/Q29843885,798,Underground power cable,,
Australia,Q408,http://www.wikidata.org/entity/Q29843896,779,Underground power cable,,
Australia,Q408,http://www.wikidata.org/entity/Q29843897,780,Underground power cable,,
Australia,Q408,http://www.wikidata.org/entity/Q29843805,F829,Underground power cable,,
Australia,Q408,http://www.wikidata.org/entity/Q29843811,F802,Underground power cable,,
Australia,Q408,http://www.wikidata.org/entity/Q29843808,F833,Underground power cable,,
Australia,Q408,http://www.wikidata.org/entity/Q29843815,F810,Underground power cable,,
Australia,Q408,http://www.wikidata.org/entity/Q29843812,F812,Underground power cable,,
Australia,Q408,http://www.wikidata.org/entity/Q29843938,805,Underground power cable,,
Australia,Q408,http://www.wikidata.org/entity/Q29843819,F809,Underground power cable,,
Australia,Q408,http://www.wikidata.org/entity/Q29843818,F915,Underground power cable,,
Australia,Q408,http://www.wikidata.org/entity/Q29843822,F834,Underground power cable,,
Australia,Q408,http://www.wikidata.org/entity/Q29843821,F914,Underground power cable,,
Australia,Q408,http://www.wikidata.org/entity/Q29843945,7288/3,Underground power cable,,
Australia,Q408,http://www.wikidata.org/entity/Q29843950,7288/1,Underground power cable,,
Australia,Q408,http://www.wikidata.org/entity/Q29843824,F835,Underground power cable,,
Australia,Q408,http://www.wikidata.org/entity/Q29843951,7288/2,Underground power cable,,
Australia,Q408,http://www.wikidata.org/entity/Q29843948,7287/1,Underground power cable,,
Australia,Q408,http://www.wikidata.org/entity/Q29843949,7287/2,Underground power cable,,
Australia,Q408,http://www.wikidata.org/entity/Q29843852,F837,Underground power cable,,
Australia,Q408,http://www.wikidata.org/entity/Q29843858,F843,Underground power cable,,
Australia,Q408,http://www.wikidata.org/entity/Q29843862,F820,Underground power cable,,
Australia,Q408,http://www.wikidata.org/entity/Q29843863,F909,Underground power cable,,
Australia,Q408,http://www.wikidata.org/entity/Q29843861,F836,Underground power cable,,
Australia,Q408,http://www.wikidata.org/entity/Q29843865,F908,Underground power cable,,
Australia,Q408,http://www.wikidata.org/entity/Q29843870,F904/1,Underground power cable,,
Australia,Q408,http://www.wikidata.org/entity/Q29843871,F904/2,Underground power cable,,
Australia,Q408,http://www.wikidata.org/entity/Q29843879,F907,Underground power cable,,
Australia,Q408,http://www.wikidata.org/entity/Q29843881,F916,Underground power cable,,
Australia,Q408,http://www.wikidata.org/entity/Q29843884,F917,Underground power cable,,
Australia,Q408,http://www.wikidata.org/entity/Q29843890,F826,Underground power cable,,
Australia,Q408,http://www.wikidata.org/entity/Q29843891,F827,Underground power cable,,
Australia,Q408,http://www.wikidata.org/entity/Q29843894,F919,Underground power cable,,
Australia,Q408,http://www.wikidata.org/entity/Q29843892,F918,Underground power cable,,
Australia,Q408,http://www.wikidata.org/entity/Q29843899,F838,Underground power cable,,
Australia,Q408,http://www.wikidata.org/entity/Q29843901,F839,Underground power cable,,
Australia,Q408,http://www.wikidata.org/entity/Q29843914,F911,Underground power cable,,
Australia,Q408,http://www.wikidata.org/entity/Q29843915,F910,Underground power cable,,
Australia,Q408,http://www.wikidata.org/entity/Q92768814,7455,Underground power cable,,
Australia,Q408,http://www.wikidata.org/entity/Q66903130,Project EnergyConnect,Underground power cable,,
Australia,Q408,http://www.wikidata.org/entity/Q92740289,7285,Underground power cable,,
Australia,Q408,http://www.wikidata.org/entity/Q92753413,8903,Underground power cable,,
Australia,Q408,http://www.wikidata.org/entity/Q92753939,8902,Underground power cable,,
Germany,Q183,http://www.wikidata.org/entity/Q85788332,NeuConnect,Underground power cable,,
Germany,Q183,http://www.wikidata.org/entity/Q175924,Kontek,Underground power cable,,
Germany,Q183,http://www.wikidata.org/entity/Q228061,380 kV Berlin diagonal power line,Underground power cable,,
Germany,Q183,http://www.wikidata.org/entity/Q15710923,SuedLink,Underground power cable,,
Germany,Q183,http://www.wikidata.org/entity/Q19335183,SuedOstLink,Underground power cable,,
Germany,Q183,http://www.wikidata.org/entity/Q5636204,HVDC Lehrte–Misburg,Underground power cable,,
Germany,Q183,http://www.wikidata.org/entity/Q22949127,ALEGrO,Underground power cable,,
Germany,Q183,http://www.wikidata.org/entity/Q830592,Elbe Project,Underground power cable,,
Germany,Q183,http://www.wikidata.org/entity/Q28066581,Dörpen/West–Wesel power line,Underground power cable,,
Germany,Q183,http://www.wikidata.org/entity/Q131572617,BorWin5,Underground power cable,,
Germany,Q183,http://www.wikidata.org/entity/Q79487579,Q79487579,Underground power cable,,
Germany,Q183,http://www.wikidata.org/entity/Q102428294,Q102428294,Underground power cable,,
Germany,Q183,http://www.wikidata.org/entity/Q102259593,380-kV Wahle-Mecklar electric power transmission,Underground power cable,,
Germany,Q183,http://www.wikidata.org/entity/Q113004978,Q113004978,Underground power cable,,
Germany,Q183,http://www.wikidata.org/entity/Q114769423,Q114769423,Underground power cable,,
Germany,Q183,http://www.wikidata.org/entity/Q117383800,Q117383800,Underground power cable,,
Germany,Q183,http://www.wikidata.org/entity/Q121636786,Q121636786,Underground power cable,,
Germany,Q183,http://www.wikidata.org/entity/Q122948327,Q122948327,Underground power cable,,
Germany,Q183,http://www.wikidata.org/entity/Q128210451,Q128210451,Underground power cable,,
Germany,Q183,http://www.wikidata.org/entity/Q803601,Q803601,Underground power cable,,
Germany,Q183,http://www.wikidata.org/entity/Q1602437,Q1602437,Underground power cable,,
Germany,Q183,http://www.wikidata.org/entity/Q876731,North-South power line,Underground power cable,,
Germany,Q183,http://www.wikidata.org/entity/Q14552486,Q14552486,Underground power cable,,
Germany,Q183,http://www.wikidata.org/entity/Q15856518,Q15856518,Underground power cable,,
Germany,Q183,http://www.wikidata.org/entity/Q170006,Anklam–Bansin power line,Underground power cable,,
Germany,Q183,http://www.wikidata.org/entity/Q170009,Lauchhammer–Riesa power line,Underground power cable,,
Germany,Q183,http://www.wikidata.org/entity/Q170010,Meitingen–Memmingen power line,Underground power cable,,
Germany,Q183,http://www.wikidata.org/entity/Q1622316,Bürstadt–Urberach power line,Underground power cable,,
Germany,Q183,http://www.wikidata.org/entity/Q228053,Rommerskirchen–Hoheneck power line,Underground power cable,,
Germany,Q183,http://www.wikidata.org/entity/Q27967009,Q27967009,Underground power cable,,
Germany,Q183,http://www.wikidata.org/entity/Q28151916,Q28151916,Underground power cable,,
Germany,Q183,http://www.wikidata.org/entity/Q28600334,Q28600334,Underground power cable,,
Germany,Q183,http://www.wikidata.org/entity/Q2254481,Black Forest power line,Underground power cable,,
Germany,Q183,http://www.wikidata.org/entity/Q2477791,Ultranet,Underground power cable,,
Germany,Q183,http://www.wikidata.org/entity/Q314180,Baltic Cable,Underground power cable,,
Germany,Q183,http://www.wikidata.org/entity/Q39446834,Q39446834,Underground power cable,,
Germany,Q183,http://www.wikidata.org/entity/Q557689,Anlage 0704,Underground power cable,,
Germany,Q183,http://www.wikidata.org/entity/Q557695,Anlage 615,Underground power cable,,
Germany,Q183,http://www.wikidata.org/entity/Q557696,Obertürkheim–Niederstotzingen power line,Underground power cable,,
Germany,Q183,http://www.wikidata.org/entity/Q19599431,BorWin3,Underground power cable,,
Germany,Q183,http://www.wikidata.org/entity/Q19599434,HelWin2,Underground power cable,,
Germany,Q183,http://www.wikidata.org/entity/Q19599435,SylWin1,Underground power cable,,
Germany,Q183,http://www.wikidata.org/entity/Q631037,BorWin1,Underground power cable,,
Germany,Q183,http://www.wikidata.org/entity/Q631095,NorGer,Underground power cable,,
Germany,Q183,http://www.wikidata.org/entity/Q21037064,Lauchstädt–Redwitz power line,Underground power cable,,
Germany,Q183,http://www.wikidata.org/entity/Q5636200,HelWin1,Underground power cable,,
Germany,Q183,http://www.wikidata.org/entity/Q47087890,Q47087890,Underground power cable,,
Germany,Q183,http://www.wikidata.org/entity/Q23580988,BorWin2,Underground power cable,,
Germany,Q183,http://www.wikidata.org/entity/Q833344,Miesbach–Munich Power Transmission,Underground power cable,,
Germany,Q183,http://www.wikidata.org/entity/Q27062166,Reichssammelschiene,Underground power cable,,
Germany,Q183,http://www.wikidata.org/entity/Q27657309,Lehrte–Borken power line,Underground power cable,,
Germany,Q183,http://www.wikidata.org/entity/Q129015112,DolWin6,Underground power cable,,
Germany,Q183,http://www.wikidata.org/entity/Q28078015,Wesel–Doetinchem 380 kV power line,Underground power cable,,
Germany,Q183,http://www.wikidata.org/entity/Q131572524,DolWin5,Underground power cable,,
Germany,Q183,http://www.wikidata.org/entity/Q67869248,Q67869248,Underground power cable,,
Germany,Q183,http://www.wikidata.org/entity/Q50333430,Golpa power line,Underground power cable,,
Germany,Q183,http://www.wikidata.org/entity/Q96113308,Q96113308,Underground power cable,,
Germany,Q183,http://www.wikidata.org/entity/Q96180491,Q96180491,Underground power cable,,
Germany,Q183,http://www.wikidata.org/entity/Q55726588,Röhrsdorf–Hradec power line,Underground power cable,,
Germany,Q183,http://www.wikidata.org/entity/Q55727450,Etzenricht–Hradec power line,Underground power cable,,
Germany,Q183,http://www.wikidata.org/entity/Q55732406,Etzenricht–Přeštice power line,Underground power cable,,
Germany,Q183,http://www.wikidata.org/entity/Q58808326,Brendlorenzen–Kleinbardorf power line,Underground power cable,,
Germany,Q183,http://www.wikidata.org/entity/Q59489468,Conneforde–Diele power line,Underground power cable,,
Germany,Q183,http://www.wikidata.org/entity/Q109712862,Triton,Underground power cable,,
Germany,Q183,http://www.wikidata.org/entity/Q117833095,Q117833095,Underground power cable,,
Czech Republic,Q213,http://www.wikidata.org/entity/Q55511741,Řeporyje–Mírovka power line,Underground power cable,,
Czech Republic,Q213,http://www.wikidata.org/entity/Q55532409,Výškov–Babylon power line,Underground power cable,,
Czech Republic,Q213,http://www.wikidata.org/entity/Q55535121,Přeštice–Kočín power line,Underground power cable,,
Czech Republic,Q213,http://www.wikidata.org/entity/Q55576705,Bezděčín–Neznášov power line,Underground power cable,,
Czech Republic,Q213,http://www.wikidata.org/entity/Q55578678,Čebín–Sokolnice power line,Underground power cable,,
Czech Republic,Q213,http://www.wikidata.org/entity/Q55580231,Milín–Čechy Střed power line,Underground power cable,,
Czech Republic,Q213,http://www.wikidata.org/entity/Q55590486,Prosenice–Nošovice power line,Underground power cable,,
Czech Republic,Q213,http://www.wikidata.org/entity/Q55590525,Kletné–Nošovice power line,Underground power cable,,
Czech Republic,Q213,http://www.wikidata.org/entity/Q55590553,Hradec–Řeporyje power line,Underground power cable,,
Czech Republic,Q213,http://www.wikidata.org/entity/Q55591978,Hradec–Chrást power line,Underground power cable,,
Czech Republic,Q213,http://www.wikidata.org/entity/Q55593236,Chodov–Čechy Střed power line,Underground power cable,,
Czech Republic,Q213,http://www.wikidata.org/entity/Q55593453,Hradec–Mírovka power line,Underground power cable,,
Czech Republic,Q213,http://www.wikidata.org/entity/Q55594358,Hradec–Výškov power line,Underground power cable,,
Czech Republic,Q213,http://www.wikidata.org/entity/Q55594381,Krasíkov–Neznášov power line,Underground power cable,,
Czech Republic,Q213,http://www.wikidata.org/entity/Q55594573,Slavětice–Čebín power line,Underground power cable,,
Czech Republic,Q213,http://www.wikidata.org/entity/Q55619263,Sokolnice–Stupava power line,Underground power cable,,
Czech Republic,Q213,http://www.wikidata.org/entity/Q55619705,Sokolnice–Križovany power line,Underground power cable,,
Czech Republic,Q213,http://www.wikidata.org/entity/Q55621374,Mírovka–Čebín power line,Underground power cable,,
Czech Republic,Q213,http://www.wikidata.org/entity/Q55646031,Chotějovice–Bezděčín power line,Underground power cable,,
Czech Republic,Q213,http://www.wikidata.org/entity/Q55646412,Babylon–Bezděčín power line,Underground power cable,,
Czech Republic,Q213,http://www.wikidata.org/entity/Q55669754,Kočín–Řeporyje power line,Underground power cable,,
Czech Republic,Q213,http://www.wikidata.org/entity/Q55669779,Kočín–Chodov power line,Underground power cable,,
Czech Republic,Q213,http://www.wikidata.org/entity/Q55669925,Slavětice–Sokolnice power line,Underground power cable,,
Czech Republic,Q213,http://www.wikidata.org/entity/Q55670023,Týnec–Krasíkov power line,Underground power cable,,
Czech Republic,Q213,http://www.wikidata.org/entity/Q55670445,Čechy Střed–Bezděčín power line,Underground power cable,,
Czech Republic,Q213,http://www.wikidata.org/entity/Q55670453,Výškov–Čechy Střed power line,Underground power cable,,
Czech Republic,Q213,http://www.wikidata.org/entity/Q55673437,Řeporyje–Chodov power line,Underground power cable,,
Czech Republic,Q213,http://www.wikidata.org/entity/Q55690356,Výškov–Čechy Střed power line,Underground power cable,,
Czech Republic,Q213,http://www.wikidata.org/entity/Q55758911,Čechy Střed–Bezděčín power line,Underground power cable,,
Czech Republic,Q213,http://www.wikidata.org/entity/Q55726129,Prunéřov II–Hradec power line,Underground power cable,,
Czech Republic,Q213,http://www.wikidata.org/entity/Q55726588,Röhrsdorf–Hradec power line,Underground power cable,,
Czech Republic,Q213,http://www.wikidata.org/entity/Q55727450,Etzenricht–Hradec power line,Underground power cable,,
Czech Republic,Q213,http://www.wikidata.org/entity/Q55732406,Etzenricht–Přeštice power line,Underground power cable,,
Czech Republic,Q213,http://www.wikidata.org/entity/Q55751391,Krasíkov–Dlouhé Stráně power line,Underground power cable,,
Czech Republic,Q213,http://www.wikidata.org/entity/Q55754167,Krasíkov–Horní Životice power line,Underground power cable,,
Czech Republic,Q213,http://www.wikidata.org/entity/Q55754193,Horní Životice–Kletné power line,Underground power cable,,
Czech Republic,Q213,http://www.wikidata.org/entity/Q55761456,Čechy Střed–Opočínek power line,Underground power cable,,
Czech Republic,Q213,http://www.wikidata.org/entity/Q55762189,Vítkov–Přeštice power line,Underground power cable,,
Czech Republic,Q213,http://www.wikidata.org/entity/Q56151669,Nošovice–Varín power line,Underground power cable,,
Czech Republic,Q213,http://www.wikidata.org/entity/Q121141097,Mírovka-Prosenice power line,Underground power cable,,
Czech Republic,Q213,http://www.wikidata.org/entity/Q121323711,Krasíkov-Prosenice power line (V402),Underground power cable,,
Netherlands,Q55,http://www.wikidata.org/entity/Q3465576,Maasbracht–Boxmeer power line,Underground power cable,,
Netherlands,Q55,http://www.wikidata.org/entity/Q4693654,Maasbracht–Dodewaard power line,Underground power cable,,
Netherlands,Q55,http://www.wikidata.org/entity/Q19838183,Boxmeer–Dodewaard power line,Underground power cable,,
Netherlands,Q55,http://www.wikidata.org/entity/Q19838184,Geertruidenberg–Eindhoven power line,Underground power cable,,
Netherlands,Q55,http://www.wikidata.org/entity/Q19838185,Geertruidenberg–Krimpen power line,Underground power cable,,
Netherlands,Q55,http://www.wikidata.org/entity/Q19838186,Maasbracht–Boekend power line,Underground power cable,,
Netherlands,Q55,http://www.wikidata.org/entity/Q19838187,Maasbracht–Eindhoven power line,Underground power cable,,
Netherlands,Q55,http://www.wikidata.org/entity/Q657166,NorNed,Underground power cable,,
Netherlands,Q55,http://www.wikidata.org/entity/Q20962155,COBRAcable,Underground power cable,,
Netherlands,Q55,http://www.wikidata.org/entity/Q28078015,Wesel–Doetinchem 380 kV power line,Underground power cable,,
Netherlands,Q55,http://www.wikidata.org/entity/Q134730311,IJmuiden Ver Alpha Export Cable,Underground power cable,,
Netherlands,Q55,http://www.wikidata.org/entity/Q134730439,IJmuiden Ver Beta Export Cable,Underground power cable,,
Netherlands,Q55,http://www.wikidata.org/entity/Q56160605,Uden–Aarle Rixtel power line,Underground power cable,,
Netherlands,Q55,http://www.wikidata.org/entity/Q56219813,Aarle Rixtel–Helmond Oost power line,Underground power cable,,
Netherlands,Q55,http://www.wikidata.org/entity/Q56219749,Oss–Uden power line,Underground power cable,,
Netherlands,Q55,http://www.wikidata.org/entity/Q109712862,Triton,Underground power cable,,
Netherlands,Q55,http://www.wikidata.org/entity/Q114769423,Q114769423,Underground power cable,,
Netherlands,Q55,http://www.wikidata.org/entity/Q111956638,Bleiswijk-Vijfhuizen power line,Underground power cable,,
Netherlands,Q55,http://www.wikidata.org/entity/Q111956656,Beverwijk-Vijfhuizen power line,Underground power cable,,
Netherlands,Q55,http://www.wikidata.org/entity/Q111956625,Wateringen-Bleiswijk power line,Underground power cable,,
Netherlands,Q55,http://www.wikidata.org/entity/Q111957397,Krimpen-Bleiswijk power line,Underground power cable,,
Netherlands,Q55,http://www.wikidata.org/entity/Q111959969,Best - Eindhoven Noord power line,Underground power cable,,
Netherlands,Q55,http://www.wikidata.org/entity/Q111959961,Eindhoven Noord - Eindhoven Oost power line,Underground power cable,,
Netherlands,Q55,http://www.wikidata.org/entity/Q111959966,Eindhoven Noord - Eindhoven West power line,Underground power cable,,
Netherlands,Q55,http://www.wikidata.org/entity/Q111959987,Eindhoven Zuid - Hapert power line,Underground power cable,,
Netherlands,Q55,http://www.wikidata.org/entity/Q111959984,Eindhoven Zuid - Eindhoven West power line,Underground power cable,,
Netherlands,Q55,http://www.wikidata.org/entity/Q111960016,Eerde - Eindhoven Oost power line,Underground power cable,,
Netherlands,Q55,http://www.wikidata.org/entity/Q111960002,Vierverlaten-Eemshaven Oudeschip power line,Underground power cable,,
Netherlands,Q55,http://www.wikidata.org/entity/Q111960129,Eindhoven Oost - Helmond Zuid power line,Underground power cable,,
Netherlands,Q55,http://www.wikidata.org/entity/Q111960130,Helmond Zuid - Helmond Oost power line,Underground power cable,,
Netherlands,Q55,http://www.wikidata.org/entity/Q112071964,Borssele-Rilland power line,Underground power cable,,
Netherlands,Q55,http://www.wikidata.org/entity/Q112071963,Geertruidenberg-Rilland power line,Underground power cable,,
Netherlands,Q55,http://www.wikidata.org/entity/Q112071965,Rilland-Tilburg power line,Underground power cable,,
Denmark,Q35,http://www.wikidata.org/entity/Q175924,Kontek,Underground power cable,,
Denmark,Q35,http://www.wikidata.org/entity/Q351845,Konti-Skan,Underground power cable,,
Denmark,Q35,http://www.wikidata.org/entity/Q20962155,COBRAcable,Underground power cable,,
Denmark,Q35,http://www.wikidata.org/entity/Q5598748,Great Belt Power Link,Underground power cable,,
Denmark,Q35,http://www.wikidata.org/entity/Q5636217,HVDC Tjæreborg,Underground power cable,,
Denmark,Q35,http://www.wikidata.org/entity/Q63184980,Q63184980,Underground power cable,,
Denmark,Q35,http://www.wikidata.org/entity/Q63208445,Q63208445,Underground power cable,,
Denmark,Q35,http://www.wikidata.org/entity/Q63208922,Q63208922,Underground power cable,,
Denmark,Q35,http://www.wikidata.org/entity/Q63208969,Q63208969,Underground power cable,,
Denmark,Q35,http://www.wikidata.org/entity/Q63209004,Q63209004,Underground power cable,,
Denmark,Q35,http://www.wikidata.org/entity/Q78208272,Q78208272,Underground power cable,,
Denmark,Q35,http://www.wikidata.org/entity/Q78208294,Q78208294,Underground power cable,,
Denmark,Q35,http://www.wikidata.org/entity/Q80283997,Q80283997,Underground power cable,,
Denmark,Q35,http://www.wikidata.org/entity/Q80284031,Q80284031,Underground power cable,,
Denmark,Q35,http://www.wikidata.org/entity/Q99232272,Q99232272,Underground power cable,,
Denmark,Q35,http://www.wikidata.org/entity/Q62922138,Revsing–Tjele power line,Underground power cable,,
Denmark,Q35,http://www.wikidata.org/entity/Q62924256,Kassø–Revsing power line,Underground power cable,,
Denmark,Q35,http://www.wikidata.org/entity/Q62928851,Kassø–Tjele power line,Underground power cable,,
Denmark,Q35,http://www.wikidata.org/entity/Q110111630,Q110111630,Underground power cable,,
Denmark,Q35,http://www.wikidata.org/entity/Q109712862,Triton,Underground power cable,,
Denmark,Q35,http://www.wikidata.org/entity/Q110665863,Q110665863,Underground power cable,,
Switzerland,Q39,http://www.wikidata.org/entity/Q803598,Q803598,Underground power cable,,
Switzerland,Q39,http://www.wikidata.org/entity/Q803601,Q803601,Underground power cable,,
Switzerland,Q39,http://www.wikidata.org/entity/Q1331261,Sils–Pradella power line,Underground power cable,,
Switzerland,Q39,http://www.wikidata.org/entity/Q1501177,Laufenburg–Creux de Chippis power line,Underground power cable,,
Switzerland,Q39,http://www.wikidata.org/entity/Q1539653,Mettlen–Airolo power line,Underground power cable,,
Switzerland,Q39,http://www.wikidata.org/entity/Q228055,Sils–Soazza power line,Underground power cable,,
Switzerland,Q39,http://www.wikidata.org/entity/Q2533447,Vorab power line,Underground power cable,,
Switzerland,Q39,http://www.wikidata.org/entity/Q13142446,Sils–Fällanden power line,Underground power cable,,
Switzerland,Q39,http://www.wikidata.org/entity/Q20754757,Benken–Mettlen power line,Underground power cable,,
Switzerland,Q39,http://www.wikidata.org/entity/Q20754746,Mettlen–Innertkirchen power line,Underground power cable,,
Switzerland,Q39,http://www.wikidata.org/entity/Q678976,Mettlen–Lavorgo powerline,Underground power cable,,
Switzerland,Q39,http://www.wikidata.org/entity/Q826617,Bernina power line,Underground power cable,,
Switzerland,Q39,http://www.wikidata.org/entity/Q107743610,High-voltage direct current transmission Saint-Maurice–Lausanne,Underground power cable,,
United States,Q30,http://www.wikidata.org/entity/Q5014737,CU,Underground power cable,,
United States,Q30,http://www.wikidata.org/entity/Q1563634,Quebec – New England Transmission,Underground power cable,,
United States,Q30,http://www.wikidata.org/entity/Q7582000,Square Butte,Underground power cable,,
United States,Q30,http://www.wikidata.org/entity/Q3003771,Cross Sound Cable,Underground power cable,,
United States,Q30,http://www.wikidata.org/entity/Q7093022,One Nevada Transmission Line,Underground power cable,,
United States,Q30,http://www.wikidata.org/entity/Q7144626,Path 26,Underground power cable,,
United States,Q30,http://www.wikidata.org/entity/Q7144627,Path 27,Underground power cable,,
United States,Q30,http://www.wikidata.org/entity/Q7144625,Path 15,Underground power cable,,
United States,Q30,http://www.wikidata.org/entity/Q7144631,Path 64,Underground power cable,,
United States,Q30,http://www.wikidata.org/entity/Q7144628,Path 46,Underground power cable,,
United States,Q30,http://www.wikidata.org/entity/Q7144629,Path 61,Underground power cable,,
United States,Q30,http://www.wikidata.org/entity/Q7144632,Path 66,Underground power cable,,
United States,Q30,http://www.wikidata.org/entity/Q7833656,Trans Bay Cable,Underground power cable,,
United States,Q30,http://www.wikidata.org/entity/Q104154428,New England Clean Power Link,Underground power cable,,
United States,Q30,http://www.wikidata.org/entity/Q104154686,New England Clean Energy Connect,Underground power cable,,
France,Q142,http://www.wikidata.org/entity/Q24283220,Q24283220,Underground power cable,,
France,Q142,http://www.wikidata.org/entity/Q2204736,HVDC Italy–Corsica–Sardinia,Underground power cable,,
France,Q142,http://www.wikidata.org/entity/Q23041456,Nemo Link,Underground power cable,,
France,Q142,http://www.wikidata.org/entity/Q28154456,Celtic Interconnector,Underground power cable,,
France,Q142,http://www.wikidata.org/entity/Q28224760,FAB Link,Underground power cable,,
France,Q142,http://www.wikidata.org/entity/Q131742422,Q131742422,Underground power cable,,
France,Q142,http://www.wikidata.org/entity/Q56418194,Q56418194,Underground power cable,,
France,Q142,http://www.wikidata.org/entity/Q125698358,French-Spanish electric interconnexion through Biscay Bay,Underground power cable,,
United Kingdom,Q145,http://www.wikidata.org/entity/Q84519963,Lower Lea Valley Cable Tunnels,Underground power cable,,
United Kingdom,Q145,http://www.wikidata.org/entity/Q85788332,NeuConnect,Underground power cable,,
United Kingdom,Q145,http://www.wikidata.org/entity/Q1563633,HVDC Kingsnorth,Underground power cable,,
United Kingdom,Q145,http://www.wikidata.org/entity/Q117337803,Eastern Green Link 1,Underground power cable,,
United Kingdom,Q145,http://www.wikidata.org/entity/Q23041456,Nemo Link,Underground power cable,,
United Kingdom,Q145,http://www.wikidata.org/entity/Q7435717,Scotland–Norway interconnector,Underground power cable,,
United Kingdom,Q145,http://www.wikidata.org/entity/Q28224760,FAB Link,Underground power cable,,
United Kingdom,Q145,http://www.wikidata.org/entity/Q131560736,Dogger Bank A Export Cable,Underground power cable,,
United Kingdom,Q145,http://www.wikidata.org/entity/Q131560793,Dogger Bank B Export Cable,Underground power cable,,
United Kingdom,Q145,http://www.wikidata.org/entity/Q131572485,Sofia Wind Farm Export Cable,Underground power cable,,
United Kingdom,Q145,http://www.wikidata.org/entity/Q134731332,Dogger Bank C Export Cable,Underground power cable,,
United Kingdom,Q145,http://www.wikidata.org/entity/Q109712862,Triton,Underground power cable,,
United Kingdom,Q145,http://www.wikidata.org/entity/Q117337813,Scotland to England Green Link 2,Underground power cable,,
Lithuania,Q37,http://www.wikidata.org/entity/Q92055868,Harmony Link,Underground power cable,,
Lithuania,Q37,http://www.wikidata.org/entity/Q27044492,Q27044492,Underground power cable,,
Lithuania,Q37,http://www.wikidata.org/entity/Q27044493,Q27044493,Underground power cable,,
Lithuania,Q37,http://www.wikidata.org/entity/Q31198615,Q31198615,Underground power cable,,
Lithuania,Q37,http://www.wikidata.org/entity/Q31198621,Q31198621,Underground power cable,,
Lithuania,Q37,http://www.wikidata.org/entity/Q31199559,Q31199559,Underground power cable,,
Lithuania,Q37,http://www.wikidata.org/entity/Q31199557,Q31199557,Underground power cable,,
Lithuania,Q37,http://www.wikidata.org/entity/Q6647349,LitPol Link,Underground power cable,,
Lithuania,Q37,http://www.wikidata.org/entity/Q7050527,NordBalt,Underground power cable,,
Lithuania,Q37,http://www.wikidata.org/entity/Q27043875,Šiauliai–Jelgava power line,Underground power cable,,
Lithuania,Q37,http://www.wikidata.org/entity/Q31198620,Aizkraukle–Panevėžys power line,Underground power cable,,
Lithuania,Q37,http://www.wikidata.org/entity/Q31198619,Klaipėda–Grobiņa power line,Underground power cable,,
Lithuania,Q37,http://www.wikidata.org/entity/Q31198634,Klaipėda–Telšiai power line,Underground power cable,,
Lithuania,Q37,http://www.wikidata.org/entity/Q31198626,HVDC Kruonis-Sovetsk,Underground power cable,,
People's Republic of China,Q148,http://www.wikidata.org/entity/Q1425772,HVDC Three Gorges – Changzhou,Underground power cable,,
People's Republic of China,Q148,http://www.wikidata.org/entity/Q1563640,HVDC Yunnan–Guangdong,Underground power cable,,
People's Republic of China,Q148,http://www.wikidata.org/entity/Q15818911,HVDC Qinghai–Tibet,Underground power cable,,
People's Republic of China,Q148,http://www.wikidata.org/entity/Q3953084,Xiangjiaba–Shanghai HVDC system,Underground power cable,,
People's Republic of China,Q148,http://www.wikidata.org/entity/Q5636201,HVDC Gezhouba–Shanghai,Underground power cable,,
People's Republic of China,Q148,http://www.wikidata.org/entity/Q5636215,HVDC Tian–Guang,Underground power cable,,
People's Republic of China,Q148,http://www.wikidata.org/entity/Q5636218,HVDC Three Gorges – Guangdong,Underground power cable,,
People's Republic of China,Q148,http://www.wikidata.org/entity/Q5636222,HVDC Zhoushan,Underground power cable,,
People's Republic of China,Q148,http://www.wikidata.org/entity/Q7569963,Southern Hami–Zhengzhou UHVDC,Underground power cable,,
People's Republic of China,Q148,http://www.wikidata.org/entity/Q109413278,Q109413278,Underground power cable,,
Italy,Q38,http://www.wikidata.org/entity/Q24283220,Q24283220,Underground power cable,,
Italy,Q38,http://www.wikidata.org/entity/Q2204736,HVDC Italy–Corsica–Sardinia,Underground power cable,,
Italy,Q38,http://www.wikidata.org/entity/Q3721949,Malta–Sicily interconnector,Underground power cable,,
Italy,Q38,http://www.wikidata.org/entity/Q3943420,SAPEI,Underground power cable,,
Italy,Q38,http://www.wikidata.org/entity/Q585906,HVDC Italy–Greece,Underground power cable,,
Italy,Q38,http://www.wikidata.org/entity/Q23746774,MON.ITA,Underground power cable,,
Italy,Q38,http://www.wikidata.org/entity/Q56037318,Sermide–Martignone power line,Underground power cable,,
Japan,Q17,http://www.wikidata.org/entity/Q11400862,Q11400862,Underground power cable,,
Japan,Q17,http://www.wikidata.org/entity/Q11502335,Q11502335,Underground power cable,,
Japan,Q17,http://www.wikidata.org/entity/Q11530130,Q11530130,Underground power cable,,
Japan,Q17,http://www.wikidata.org/entity/Q1256709,Kita–Iwaki powerline,Underground power cable,,
Japan,Q17,http://www.wikidata.org/entity/Q11407866,Minami-Niigata Trunk Line,Underground power cable,,
Japan,Q17,http://www.wikidata.org/entity/Q11501469,Shin Futaba power line,Underground power cable,,
Japan,Q17,http://www.wikidata.org/entity/Q11504054,Shin-Sodegaura power line,Underground power cable,,
Japan,Q17,http://www.wikidata.org/entity/Q11519898,Honshu–Shikoku Interconnection,Underground power cable,,
Japan,Q17,http://www.wikidata.org/entity/Q11593101,Fukushima Trunk Line,Underground power cable,,
Japan,Q17,http://www.wikidata.org/entity/Q11593135,Fukushima-Higashi Trunk Line,Underground power cable,,
Japan,Q17,http://www.wikidata.org/entity/Q11604963,Kii Channel HVDC system,Underground power cable,,
Japan,Q17,http://www.wikidata.org/entity/Q18339468,Minami-Iwaki Trunk Line,Underground power cable,,
Japan,Q17,http://www.wikidata.org/entity/Q5636203,HVDC Hokkaido–Honshu,Underground power cable,,
Japan,Q17,http://www.wikidata.org/entity/Q7105634,Osaki Channel Crossing,Underground power cable,,
Japan,Q17,http://www.wikidata.org/entity/Q57300438,Hida–Shinano HVDC link,Underground power cable,,
Sweden,Q34,http://www.wikidata.org/entity/Q10518330,Q10518330,Underground power cable,,
Sweden,Q34,http://www.wikidata.org/entity/Q10548442,Untra–Värtan power line,Underground power cable,,
Sweden,Q34,http://www.wikidata.org/entity/Q1563629,HVDC Gotland,Underground power cable,,
Sweden,Q34,http://www.wikidata.org/entity/Q314180,Baltic Cable,Underground power cable,,
Sweden,Q34,http://www.wikidata.org/entity/Q351845,Konti-Skan,Underground power cable,,
Sweden,Q34,http://www.wikidata.org/entity/Q5636219,HVDC Visby–Näs,Underground power cable,,
Sweden,Q34,http://www.wikidata.org/entity/Q7050527,NordBalt,Underground power cable,,
Sweden,Q34,http://www.wikidata.org/entity/Q7659648,SydVästlänken,Underground power cable,,
Sweden,Q34,http://www.wikidata.org/entity/Q906852,Fenno–Skan,Underground power cable,,
Sweden,Q34,http://www.wikidata.org/entity/Q99232272,Q99232272,Underground power cable,,
Sweden,Q34,http://www.wikidata.org/entity/Q59795,SwePol,Underground power cable,,
Russia,Q159,http://www.wikidata.org/entity/Q31198615,Q31198615,Underground power cable,,
Russia,Q159,http://www.wikidata.org/entity/Q31198621,Q31198621,Underground power cable,,
Russia,Q159,http://www.wikidata.org/entity/Q975279,HVDC Volgograd–Donbass,Underground power cable,,
Russia,Q159,http://www.wikidata.org/entity/Q31198626,HVDC Kruonis-Sovetsk,Underground power cable,,
Poland,Q36,http://www.wikidata.org/entity/Q92055868,Harmony Link,Underground power cable,,
Poland,Q36,http://www.wikidata.org/entity/Q265944,Rzeszów–Khmelnytskyi power line,Underground power cable,,
Poland,Q36,http://www.wikidata.org/entity/Q6647349,LitPol Link,Underground power cable,,
Poland,Q36,http://www.wikidata.org/entity/Q59195082,Lemešany-Krosno power line (V477),Underground power cable,,
Poland,Q36,http://www.wikidata.org/entity/Q59195144,Lemešany-Krosno power line (V478),Underground power cable,,
Poland,Q36,http://www.wikidata.org/entity/Q59795,SwePol,Underground power cable,,
Poland,Q36,http://www.wikidata.org/entity/Q117383800,Q117383800,Underground power cable,,
Norway,Q20,http://www.wikidata.org/entity/Q10548445,Q10548445,Underground power cable,,
Norway,Q20,http://www.wikidata.org/entity/Q19380105,Q19380105,Underground power cable,,
Norway,Q20,http://www.wikidata.org/entity/Q19384317,Q19384317,Underground power cable,,
Norway,Q20,http://www.wikidata.org/entity/Q1563637,HVDC Troll,Underground power cable,,
Norway,Q20,http://www.wikidata.org/entity/Q631095,NorGer,Underground power cable,,
Norway,Q20,http://www.wikidata.org/entity/Q657166,NorNed,Underground power cable,,
Norway,Q20,http://www.wikidata.org/entity/Q7435717,Scotland–Norway interconnector,Underground power cable,,
Norway,Q20,http://www.wikidata.org/entity/Q131716924,Valhall HVDC,Underground power cable,,
Norway,Q20,http://www.wikidata.org/entity/Q131716936,Johan Sverdrup HVDC,Underground power cable,,
Norway,Q20,http://www.wikidata.org/entity/Q110111630,Q110111630,Underground power cable,,
Norway,Q20,http://www.wikidata.org/entity/Q110665863,Q110665863,Underground power cable,,
Norway,Q20,http://www.wikidata.org/entity/Q116785579,Q116785579,Underground power cable,,
Norway,Q20,http://www.wikidata.org/entity/Q123015775,Q123015775,Underground power cable,,
Finland,Q33,http://www.wikidata.org/entity/Q3735876,Estlink,Underground power cable,,
Finland,Q33,http://www.wikidata.org/entity/Q131938906,Estlink 1,Underground power cable,,
Finland,Q33,http://www.wikidata.org/entity/Q906852,Fenno–Skan,Underground power cable,,
Finland,Q33,http://www.wikidata.org/entity/Q65243781,Iron Lady,Underground power cable,,
Finland,Q33,http://www.wikidata.org/entity/Q61404269,Estlink 2,Underground power cable,,
Austria,Q40,http://www.wikidata.org/entity/Q876731,North-South power line,Underground power cable,,
Austria,Q40,http://www.wikidata.org/entity/Q228052,380-kV-Hochspannungsring,Underground power cable,,
Austria,Q40,http://www.wikidata.org/entity/Q228058,380 kV Styria power line,Underground power cable,,
Austria,Q40,http://www.wikidata.org/entity/Q228056,380-kV-Salzburgleitung,Underground power cable,,
Austria,Q40,http://www.wikidata.org/entity/Q27062166,Reichssammelschiene,Underground power cable,,
Austria,Q40,http://www.wikidata.org/entity/Q134617064,Q134617064,Underground power cable,,
Uganda,Q1036,http://www.wikidata.org/entity/Q61896466,Karuma–Juba High Voltage Power Line,Underground power cable,,
Brazil,Q155,http://www.wikidata.org/entity/Q10318793,Q10318793,Underground power cable,,
Brazil,Q155,http://www.wikidata.org/entity/Q5636202,HVDC Itaipu,Underground power cable,,
Brazil,Q155,http://www.wikidata.org/entity/Q7335275,Rio Madeira HVDC system,Underground power cable,,
Brazil,Q155,http://www.wikidata.org/entity/Q48970740,Xingu-Estreito HVDC transmission line,Underground power cable,,
Brazil,Q155,http://www.wikidata.org/entity/Q110613108,Xingu-Rio HVDC transmission line,Underground power cable,,
Belgium,Q31,http://www.wikidata.org/entity/Q22949127,ALEGrO,Underground power cable,,
Belgium,Q31,http://www.wikidata.org/entity/Q23041456,Nemo Link,Underground power cable,,
Belgium,Q31,http://www.wikidata.org/entity/Q109712862,Triton,Underground power cable,,
Belgium,Q31,http://www.wikidata.org/entity/Q114769423,Q114769423,Underground power cable,,
Belgium,Q31,http://www.wikidata.org/entity/Q114839682,Q114839682,Underground power cable,,
Greece,Q41,http://www.wikidata.org/entity/Q585906,HVDC Italy–Greece,Underground power cable,,
Greece,Q41,http://www.wikidata.org/entity/Q5411505,EuroAsia Interconnector,Underground power cable,,
Greece,Q41,http://www.wikidata.org/entity/Q131715438,Crete-Attica interconnection,Underground power cable,,
Greece,Q41,http://www.wikidata.org/entity/Q48527345,EuroAfrica Interconnector,Underground power cable,,
Philippines,Q928,http://www.wikidata.org/entity/Q98078161,Dasmariñas–Las Piñas Transmission Line,Underground power cable,,
Philippines,Q928,http://www.wikidata.org/entity/Q4129360,HVDC Leyte–Luzon,Underground power cable,,
Philippines,Q928,http://www.wikidata.org/entity/Q55622929,Mexico–Hermosa Transmission Line,Underground power cable,,
Philippines,Q928,http://www.wikidata.org/entity/Q55641899,Sucat-Paco-Araneta-Balintawak Transmission Line,Underground power cable,,
Philippines,Q928,http://www.wikidata.org/entity/Q104864933,Biñan–Muntinlupa Transmission Line,Underground power cable,,
Philippines,Q928,http://www.wikidata.org/entity/Q66311262,Hermosa-Duhat-Balintawak Transmission Line,Underground power cable,,
Philippines,Q928,http://www.wikidata.org/entity/Q66384862,Bay-Biñan Transmission Line,Underground power cable,,
Philippines,Q928,http://www.wikidata.org/entity/Q66553155,Kadampat-San Manuel-San Jose Transmission Line,Underground power cable,,
Philippines,Q928,http://www.wikidata.org/entity/Q66686367,Hermosa-Limay Transmission Line,Underground power cable,,
Philippines,Q928,http://www.wikidata.org/entity/Q66686392,San Manuel-Concepcion-Mexico Transmission Line,Underground power cable,,
Kenya,Q114,http://www.wikidata.org/entity/Q55633427,Ethiopia–Kenya HVDC Interconnector,Underground power cable,,
Belarus,Q184,http://www.wikidata.org/entity/Q27044492,Q27044492,Underground power cable,,
Belarus,Q184,http://www.wikidata.org/entity/Q27044493,Q27044493,Underground power cable,,
Belarus,Q184,http://www.wikidata.org/entity/Q31199557,Q31199557,Underground power cable,,
Latvia,Q211,http://www.wikidata.org/entity/Q31199559,Q31199559,Underground power cable,,
Latvia,Q211,http://www.wikidata.org/entity/Q27043875,Šiauliai–Jelgava power line,Underground power cable,,
Latvia,Q211,http://www.wikidata.org/entity/Q31198620,Aizkraukle–Panevėžys power line,Underground power cable,,
Latvia,Q211,http://www.wikidata.org/entity/Q31198619,Klaipėda–Grobiņa power line,Underground power cable,,
New Zealand,Q664,http://www.wikidata.org/entity/Q7990462,Whakamaru–Brownhill Road transmission line,Underground power cable,,
New Zealand,Q664,http://www.wikidata.org/entity/Q16813,HVDC Inter-Island,Underground power cable,,
Ukraine,Q212,http://www.wikidata.org/entity/Q1245457,Lutsk Compact Overhead Powerline,Underground power cable,,
Ukraine,Q212,http://www.wikidata.org/entity/Q1622322,Vetrino–Isaccea–Yuzhnoukrainsk powerline,Underground power cable,,
Ukraine,Q212,http://www.wikidata.org/entity/Q265934,Albertirsa–Zakhidnoukrainskaya–Vinnytsia powerline,Underground power cable,,
Ukraine,Q212,http://www.wikidata.org/entity/Q265944,Rzeszów–Khmelnytskyi power line,Underground power cable,,
Ukraine,Q212,http://www.wikidata.org/entity/Q975279,HVDC Volgograd–Donbass,Underground power cable,,
Ukraine,Q212,http://www.wikidata.org/entity/Q106619092,Zakhidnoukrainskaya–Szabolcsbáka powerline,Underground power cable,,
Ukraine,Q212,http://www.wikidata.org/entity/Q109851983,Novoodeska — Artsyz 330 kV power line,Underground power cable,,
Democratic Republic of the Congo,Q974,http://www.wikidata.org/entity/Q586131,HVDC Inga–Shaba,Underground power cable,,
Namibia,Q1030,http://www.wikidata.org/entity/Q4129358,Caprivi Link,Underground power cable,,
India,Q668,http://www.wikidata.org/entity/Q5071439,Chandrapur–Padghe HVDC transmission system,Underground power cable,,
India,Q668,http://www.wikidata.org/entity/Q5636211,HVDC Rihand–Delhi,Underground power cable,,
India,Q668,http://www.wikidata.org/entity/Q5636212,HVDC Sileru–Barsoor,Underground power cable,,
India,Q668,http://www.wikidata.org/entity/Q7679082,Talcher–Kolar HVDC system,Underground power cable,,
Cyprus,Q229,http://www.wikidata.org/entity/Q5411505,EuroAsia Interconnector,Underground power cable,,
Cyprus,Q229,http://www.wikidata.org/entity/Q48527345,EuroAfrica Interconnector,Underground power cable,,
South Korea,Q884,http://www.wikidata.org/entity/Q4129364,HVDC Haenam–Cheju,Underground power cable,,
South Korea,Q884,http://www.wikidata.org/entity/Q25036702,Jindo–Jeju HVDC system,Underground power cable,,
South Africa,Q258,http://www.wikidata.org/entity/Q1563622,Cahora Bassa,Underground power cable,,
Canada,Q16,http://www.wikidata.org/entity/Q1563634,Quebec – New England Transmission,Underground power cable,,
Canada,Q16,http://www.wikidata.org/entity/Q1627044,Nelson River DC Transmission System,Underground power cable,,
Canada,Q16,http://www.wikidata.org/entity/Q14874607,HVDC Vancouver Island,Underground power cable,,
Canada,Q16,http://www.wikidata.org/entity/Q134931367,Labrador Island Link,Underground power cable,,
Canada,Q16,http://www.wikidata.org/entity/Q134931662,Maritime Link,Underground power cable,,
Canada,Q16,http://www.wikidata.org/entity/Q65560144,Western Alberta Transmission Line,Underground power cable,,
Canada,Q16,http://www.wikidata.org/entity/Q131438063,Q131438063,Underground power cable,,
Spain,Q29,http://www.wikidata.org/entity/Q5151636,Cometa,Underground power cable,,
Spain,Q29,http://www.wikidata.org/entity/Q56418194,Q56418194,Underground power cable,,
Spain,Q29,http://www.wikidata.org/entity/Q125698358,French-Spanish electric interconnexion through Biscay Bay,Underground power cable,,
Spain,Q29,http://www.wikidata.org/entity/Q116680653,Spain-Morocco interconnection,Underground power cable,,
Estonia,Q191,http://www.wikidata.org/entity/Q3735876,Estlink,Underground power cable,,
Estonia,Q191,http://www.wikidata.org/entity/Q131938906,Estlink 1,Underground power cable,,
Estonia,Q191,http://www.wikidata.org/entity/Q61404269,Estlink 2,Underground power cable,,
Egypt,Q79,http://www.wikidata.org/entity/Q18393782,Red Sea Cable,Underground power cable,,
Egypt,Q79,http://www.wikidata.org/entity/Q48527345,EuroAfrica Interconnector,Underground power cable,,
Sri Lanka,Q854,http://www.wikidata.org/entity/Q6434137,Kotmale–Biyagama transmission line,Underground power cable,,
Ireland,Q27,http://www.wikidata.org/entity/Q28154456,Celtic Interconnector,Underground power cable,,
Morocco,Q1028,http://www.wikidata.org/entity/Q116680653,Spain-Morocco interconnection,Underground power cable,,
Israel,Q801,http://www.wikidata.org/entity/Q5411505,EuroAsia Interconnector,Underground power cable,,
Pakistan,Q843,http://www.wikidata.org/entity/Q24947642,Matiari to Lahore Transmission Line,Underground power cable,,
Thailand,Q869,http://www.wikidata.org/entity/Q5636213,HVDC Thailand–Malaysia,Underground power cable,,
Malaysia,Q833,http://www.wikidata.org/entity/Q5636213,HVDC Thailand–Malaysia,Underground power cable,,
Romania,Q218,http://www.wikidata.org/entity/Q1622322,Vetrino–Isaccea–Yuzhnoukrainsk powerline,Underground power cable,,
Bulgaria,Q219,http://www.wikidata.org/entity/Q1622322,Vetrino–Isaccea–Yuzhnoukrainsk powerline,Underground power cable,,
Ethiopia,Q115,http://www.wikidata.org/entity/Q55633427,Ethiopia–Kenya HVDC Interconnector,Underground power cable,,
Benin,Q962,http://www.wikidata.org/entity/Q5010205,CEB–NEPA Power Interconnection,Underground power cable,,
Singapore,Q334,http://www.wikidata.org/entity/Q98113904,Australia-Asia Power Link,Underground power cable,,
Nigeria,Q1033,http://www.wikidata.org/entity/Q5010205,CEB–NEPA Power Interconnection,Underground power cable,,
Mozambique,Q1029,http://www.wikidata.org/entity/Q1563622,Cahora Bassa,Underground power cable,,
Kazakhstan,Q232,http://www.wikidata.org/entity/Q1256715,Ekibastuz–Kokshetau high-voltage line,Underground power cable,,
Hungary,Q28,http://www.wikidata.org/entity/Q265934,Albertirsa–Zakhidnoukrainskaya–Vinnytsia powerline,Underground power cable,,
Hungary,Q28,http://www.wikidata.org/entity/Q106619092,Zakhidnoukrainskaya–Szabolcsbáka powerline,Underground power cable,,
Montenegro,Q236,http://www.wikidata.org/entity/Q23746774,MON.ITA,Underground power cable,,
Malta,Q233,http://www.wikidata.org/entity/Q3721949,Malta–Sicily interconnector,Underground power cable,,
Vietnam,Q881,http://www.wikidata.org/entity/Q10841004,North-South power line,Underground power cable,,
Nepal,Q837,http://www.wikidata.org/entity/Q115633240,Hetauda-Damauli-Butwal transmission line,Underground power cable,,
South Sudan,Q958,http://www.wikidata.org/entity/Q61896466,Karuma–Juba High Voltage Power Line,Underground power cable,,
Jordan,Q810,http://www.wikidata.org/entity/Q18393782,Red Sea Cable,Underground power cable,,
Taiwan,Q865,http://www.wikidata.org/entity/Q128206717,Taiwan-Penghu 161kV Power Cable,Underground power cable,,
