country_name,country_qid,entity,label,type,latitude,longitude
Czech Republic,Q213,http://www.wikidata.org/entity/Q107563843,Klatovy,Weather station,,
Czech Republic,Q213,http://www.wikidata.org/entity/Q107563905,Opava,Weather station,,
Spain,Q29,http://www.wikidata.org/entity/Q112275638,Q112275638,Weather station,,
Italy,Q38,http://www.wikidata.org/entity/Q3971852,Q3971852,Weather station,,
Italy,Q38,http://www.wikidata.org/entity/Q3971879,Q3971879,Weather station,,
Italy,Q38,http://www.wikidata.org/entity/Q3971543,Q3971543,Weather station,,
Italy,Q38,http://www.wikidata.org/entity/Q3971742,Q3971742,Weather station,,
Italy,Q38,http://www.wikidata.org/entity/Q3971770,Q3971770,Weather station,,
Italy,Q38,http://www.wikidata.org/entity/Q3972186,Q3972186,Weather station,,
Italy,Q38,http://www.wikidata.org/entity/Q3972184,Q3972184,Weather station,,
Italy,Q38,http://www.wikidata.org/entity/Q97275208,Q97275208,Weather station,,
France,Q142,http://www.wikidata.org/entity/Q117881735,Banogne-Recouvrance weather station,Weather station,,
France,Q142,http://www.wikidata.org/entity/Q117882972,Ectot-lès-Baons weather station,Weather station,,
France,Q142,http://www.wikidata.org/entity/Q117882881,Vitry-sur-Loire weather station,Weather station,,
France,Q142,http://www.wikidata.org/entity/Q117883057,Savenès weather station,Weather station,,
France,Q142,http://www.wikidata.org/entity/Q117883086,Vidauban weather station,Weather station,,
France,Q142,http://www.wikidata.org/entity/Q117883189,Giromagny (SAPC) weather station,Weather station,,
France,Q142,http://www.wikidata.org/entity/Q117883160,Rollainville weather station,Weather station,,
France,Q142,http://www.wikidata.org/entity/Q117881684,Saint-Martin-Vésubie (OBS) weather station,Weather station,,
France,Q142,http://www.wikidata.org/entity/Q62600482,loire valley meteo,Weather station,,
France,Q142,http://www.wikidata.org/entity/Q117881587,Diou weather station,Weather station,,
France,Q142,http://www.wikidata.org/entity/Q117881620,Digne-les-Bains weather station,Weather station,,
France,Q142,http://www.wikidata.org/entity/Q117882120,Saint-Jean-en-Royans weather station,Weather station,,
France,Q142,http://www.wikidata.org/entity/Q117882223,Palaminy weather station,Weather station,,
France,Q142,http://www.wikidata.org/entity/Q117882387,Biscarrosse weather station,Weather station,,
France,Q142,http://www.wikidata.org/entity/Q117882720,Fayet-le-Château weather station,Weather station,,
France,Q142,http://www.wikidata.org/entity/Q117882668,Lille-Lesquin weather station,Weather station,,
Taiwan,Q865,http://www.wikidata.org/entity/Q97164024,Kaohsiung Weather Station,Weather station,,
Taiwan,Q865,http://www.wikidata.org/entity/Q97170423,Hualien Weather Station,Weather station,,
Taiwan,Q865,http://www.wikidata.org/entity/Q109343531,Zhuzihu Weather Station,Weather station,,
Taiwan,Q865,http://www.wikidata.org/entity/Q109346083,Anbu Weather Station,Weather station,,
Taiwan,Q865,http://www.wikidata.org/entity/Q109347241,Hengchun Weather Station,Weather station,,
Taiwan,Q865,http://www.wikidata.org/entity/Q110257261,Tianzhong Weather Station,Weather station,,
Taiwan,Q865,http://www.wikidata.org/entity/Q111851056,Keelung Weather Station,Weather station,,
Taiwan,Q865,http://www.wikidata.org/entity/Q124315376,Q124315376,Weather station,,
Japan,Q17,http://www.wikidata.org/entity/Q11613719,Maizuru Kaiyō Kishōdai,Weather station,,
Japan,Q17,http://www.wikidata.org/entity/Q97378168,Kochi Local Meteorological Observatory,Weather station,,
Japan,Q17,http://www.wikidata.org/entity/Q97378170,Matsuyama Local Meteorological Observatory,Weather station,,
Japan,Q17,http://www.wikidata.org/entity/Q97378171,Tokushima Local Meteorological Observatory,Weather station,,
Japan,Q17,http://www.wikidata.org/entity/Q104629737,Minamidaitoujima Local Meteorological Observatory,Weather station,,
Japan,Q17,http://www.wikidata.org/entity/Q108635144,Q108635144,Weather station,,
Japan,Q17,http://www.wikidata.org/entity/Q108635150,Q108635150,Weather station,,
Japan,Q17,http://www.wikidata.org/entity/Q108635148,Q108635148,Weather station,,
Japan,Q17,http://www.wikidata.org/entity/Q108635154,Q108635154,Weather station,,
Japan,Q17,http://www.wikidata.org/entity/Q108635155,Q108635155,Weather station,,
Japan,Q17,http://www.wikidata.org/entity/Q108635152,Q108635152,Weather station,,
Japan,Q17,http://www.wikidata.org/entity/Q108265325,Kumamoto Local Meteorological Observatory,Weather station,,
Japan,Q17,http://www.wikidata.org/entity/Q108635141,Akita Local Meteorological Observatory,Weather station,,
Japan,Q17,http://www.wikidata.org/entity/Q108635160,Hikone Local Meteorological Observatory,Weather station,,
Japan,Q17,http://www.wikidata.org/entity/Q108635162,kyoto Local Meteorological Observatory,Weather station,,
Japan,Q17,http://www.wikidata.org/entity/Q108635139,Morioka Local Meteorological Observatory,Weather station,,
Japan,Q17,http://www.wikidata.org/entity/Q108635164,Nara Local Meteorological Observatory,Weather station,,
Japan,Q17,http://www.wikidata.org/entity/Q108635172,Miyazaki Local Meteorological Observatory,Weather station,,
Japan,Q17,http://www.wikidata.org/entity/Q108635147,Utsunomiya Local Meteorological Observatory,Weather station,,
Japan,Q17,http://www.wikidata.org/entity/Q108635158,Tsu Local Meteorological Office,Weather station,,
Japan,Q17,http://www.wikidata.org/entity/Q108635143,Yamagata Local Meteorological Observatory,Weather station,,
Japan,Q17,http://www.wikidata.org/entity/Q108635165,Wakayama Local Meteorological Observatory,Weather station,,
Japan,Q17,http://www.wikidata.org/entity/Q4826428,Automated Meteorological Data Acquisition System,Weather station,,
Bulgaria,Q219,http://www.wikidata.org/entity/Q12297693,Fleet tower,Weather station,,
Canada,Q16,http://www.wikidata.org/entity/Q61022310,Oskelaneo 2,Weather station,,
Canada,Q16,http://www.wikidata.org/entity/Q61021562,Montreal Persillier,Weather station,,
Canada,Q16,http://www.wikidata.org/entity/Q61196959,Rowans Ravine Park,Weather station,,
Canada,Q16,http://www.wikidata.org/entity/Q61039027,Parry Sound Ont Hydro,Weather station,,
United States,Q30,http://www.wikidata.org/entity/Q5597531,Grasshopper,Weather station,,
United States,Q30,http://www.wikidata.org/entity/Q6923286,Mount Rose Weather Observatory,Weather station,,
Russia,Q159,http://www.wikidata.org/entity/Q110560316,Q110560316,Weather station,,
People's Republic of China,Q148,http://www.wikidata.org/entity/Q11133510,Shantou weather radar station,Weather station,,
People's Republic of China,Q148,http://www.wikidata.org/entity/Q121997826,Junshan Weather Station,Weather station,,
Portugal,Q45,http://www.wikidata.org/entity/Q96213708,Estação Meteorológica de Bragança,Weather station,,
India,Q668,http://www.wikidata.org/entity/Q69337491,Alipore Observatory,Weather station,,
Iceland,Q189,http://www.wikidata.org/entity/Q16424251,Q16424251,Weather station,,
Belgium,Q31,http://www.wikidata.org/entity/Q92095986,Q92095986,Weather station,,
Austria-Hungary,Q28513,http://www.wikidata.org/entity/Q107563905,Opava,Weather station,,
Czechoslovakia,Q33946,http://www.wikidata.org/entity/Q107563905,Opava,Weather station,,
Empire of Japan,Q188712,http://www.wikidata.org/entity/Q124315376,Q124315376,Weather station,,
