country_name,country_qid,entity,label,type,latitude,longitude
Australia,Q408,http://www.wikidata.org/entity/Q29020173,Belmont,Electrical substation,,
Australia,Q408,http://www.wikidata.org/entity/Q29020142,Redbank Plains,Electrical substation,,
Australia,Q408,http://www.wikidata.org/entity/Q29020243,Sommersby,Electrical substation,,
Australia,Q408,http://www.wikidata.org/entity/Q29020175,Mudgeeraba,Electrical substation,,
Australia,Q408,http://www.wikidata.org/entity/Q29020232,Singleton,Electrical substation,,
Australia,Q408,http://www.wikidata.org/entity/Q29020184,Tenterfield,Electrical substation,,
Australia,Q408,http://www.wikidata.org/entity/Q29020203,Ballina,Electrical substation,,
Australia,Q408,http://www.wikidata.org/entity/Q29020242,Gosford,Electrical substation,,
Australia,Q408,http://www.wikidata.org/entity/Q29020227,Tomago,Electrical substation,,
Australia,Q408,http://www.wikidata.org/entity/Q29020241,Tuggerah,Electrical substation,,
Australia,Q408,http://www.wikidata.org/entity/Q29020206,Lennox Head,Electrical substation,,
Australia,Q408,http://www.wikidata.org/entity/Q29020143,Goodna,Electrical substation,,
Australia,Q408,http://www.wikidata.org/entity/Q29020149,Wulkuraka,Electrical substation,,
Australia,Q408,http://www.wikidata.org/entity/Q29020156,Molendinar,Electrical substation,,
Australia,Q408,http://www.wikidata.org/entity/Q29020190,Inverell,Electrical substation,,
Australia,Q408,http://www.wikidata.org/entity/Q29020229,Hawks Nest,Electrical substation,,
Australia,Q408,http://www.wikidata.org/entity/Q29020185,Casino,Electrical substation,,
Australia,Q408,http://www.wikidata.org/entity/Q29020198,Coffs Harbour,Electrical substation,,
Australia,Q408,http://www.wikidata.org/entity/Q29020153,Beenleigh,Electrical substation,,
Australia,Q408,http://www.wikidata.org/entity/Q29020210,Kempsey,Electrical substation,,
Australia,Q408,http://www.wikidata.org/entity/Q29020177,Bungalora,Electrical substation,,
Australia,Q408,http://www.wikidata.org/entity/Q29020234,Lake Munmorah,Electrical substation,,
Australia,Q408,http://www.wikidata.org/entity/Q29020212,Brandy Hill,Electrical substation,,
Australia,Q408,http://www.wikidata.org/entity/Q29020207,Suffolk Park,Electrical substation,,
Australia,Q408,http://www.wikidata.org/entity/Q29020152,Raceview,Electrical substation,,
Australia,Q408,http://www.wikidata.org/entity/Q29020238,West Gosford,Electrical substation,,
Australia,Q408,http://www.wikidata.org/entity/Q29020165,Yatala,Electrical substation,,
Australia,Q408,http://www.wikidata.org/entity/Q29020164,Coomera,Electrical substation,,
Australia,Q408,http://www.wikidata.org/entity/Q29020182,Lismore,Electrical substation,,
Australia,Q408,http://www.wikidata.org/entity/Q29020199,Koolkhan,Electrical substation,,
Australia,Q408,http://www.wikidata.org/entity/Q29020162,Robina,Electrical substation,,
Australia,Q408,http://www.wikidata.org/entity/Q29020217,Mullumbimby,Electrical substation,,
Australia,Q408,http://www.wikidata.org/entity/Q29020186,Glen Innes,Electrical substation,,
Australia,Q408,http://www.wikidata.org/entity/Q29020221,Beresfield,Electrical substation,,
Australia,Q408,http://www.wikidata.org/entity/Q29020211,Taree,Electrical substation,,
Australia,Q408,http://www.wikidata.org/entity/Q29020216,Stroud,Electrical substation,,
Australia,Q408,http://www.wikidata.org/entity/Q29020191,Narrabri,Electrical substation,,
Australia,Q408,http://www.wikidata.org/entity/Q29020159,Broadbeach,Electrical substation,,
Australia,Q408,http://www.wikidata.org/entity/Q29020194,Gunnedah,Electrical substation,,
Australia,Q408,http://www.wikidata.org/entity/Q29020219,Port Macquarie,Electrical substation,,
Australia,Q408,http://www.wikidata.org/entity/Q29020157,Southport,Electrical substation,,
Australia,Q408,http://www.wikidata.org/entity/Q29020178,South Lismore,Electrical substation,,
Australia,Q408,http://www.wikidata.org/entity/Q29020200,Raleigh,Electrical substation,,
Australia,Q408,http://www.wikidata.org/entity/Q29020171,Murarrie,Electrical substation,,
Australia,Q408,http://www.wikidata.org/entity/Q29020226,Liddell,Electrical substation,,
Australia,Q408,http://www.wikidata.org/entity/Q29020195,Armidale,Electrical substation,,
Australia,Q408,http://www.wikidata.org/entity/Q29020158,Surfers Paradise,Electrical substation,,
Australia,Q408,http://www.wikidata.org/entity/Q29020179,East Lismore,Electrical substation,,
Australia,Q408,http://www.wikidata.org/entity/Q29020214,Rothbury,Electrical substation,,
Australia,Q408,http://www.wikidata.org/entity/Q29020176,Terranora,Electrical substation,,
Australia,Q408,http://www.wikidata.org/entity/Q29020240,Wyong,Electrical substation,,
Australia,Q408,http://www.wikidata.org/entity/Q29020188,Moree,Electrical substation,,
Australia,Q408,http://www.wikidata.org/entity/Q29020208,Ewingsdale,Electrical substation,,
Australia,Q408,http://www.wikidata.org/entity/Q29020197,Dorrigo,Electrical substation,,
Australia,Q408,http://www.wikidata.org/entity/Q29020201,Alstonville,Electrical substation,,
Australia,Q408,http://www.wikidata.org/entity/Q29020209,Macksville,Electrical substation,,
Australia,Q408,http://www.wikidata.org/entity/Q29020237,Ourimbah,Electrical substation,,
Australia,Q408,http://www.wikidata.org/entity/Q29020160,Merrimac,Electrical substation,,
Australia,Q408,http://www.wikidata.org/entity/Q29020144,Blackstone,Electrical substation,,
Australia,Q408,http://www.wikidata.org/entity/Q29020161,Nerang,Electrical substation,,
Australia,Q408,http://www.wikidata.org/entity/Q29020205,Dunoon,Electrical substation,,
Australia,Q408,http://www.wikidata.org/entity/Q29020236,Charmhaven,Electrical substation,,
Australia,Q408,http://www.wikidata.org/entity/Q29020244,Colongra,Electrical substation,,
Australia,Q408,http://www.wikidata.org/entity/Q29020174,Cleveland,Electrical substation,,
Australia,Q408,http://www.wikidata.org/entity/Q29020230,Mitchell,Electrical substation,,
Australia,Q408,http://www.wikidata.org/entity/Q29020155,Rocky Point,Electrical substation,,
Australia,Q408,http://www.wikidata.org/entity/Q29020222,Kurri,Electrical substation,,
Australia,Q408,http://www.wikidata.org/entity/Q29020233,Redbank,Electrical substation,,
Australia,Q408,http://www.wikidata.org/entity/Q29020167,Browns Plains,Electrical substation,,
Australia,Q408,http://www.wikidata.org/entity/Q29020239,Vales Point,Electrical substation,,
Australia,Q408,http://www.wikidata.org/entity/Q29020204,Nambucca,Electrical substation,,
Australia,Q408,http://www.wikidata.org/entity/Q29020220,Heron Creek,Electrical substation,,
Australia,Q408,http://www.wikidata.org/entity/Q29020154,Stradbroke Island,Electrical substation,,
Australia,Q408,http://www.wikidata.org/entity/Q29020150,Abermain T136,Electrical substation,,
Australia,Q408,http://www.wikidata.org/entity/Q29020151,Abermain H062,Electrical substation,,
Australia,Q408,http://www.wikidata.org/entity/Q29020163,Cades County,Electrical substation,,
Australia,Q408,http://www.wikidata.org/entity/Q29020183,Casino_T,Electrical substation,,
Australia,Q408,http://www.wikidata.org/entity/Q29020192,Boggabri North,Electrical substation,,
Australia,Q408,http://www.wikidata.org/entity/Q29020193,Boggabri East,Electrical substation,,
Australia,Q408,http://www.wikidata.org/entity/Q29020202,Boambee South,Electrical substation,,
Australia,Q408,http://www.wikidata.org/entity/Q29020213,Capral,Electrical substation,,
Australia,Q408,http://www.wikidata.org/entity/Q29020170,Doboy,Electrical substation,,
Australia,Q408,http://www.wikidata.org/entity/Q29020196,Dumeresq,Electrical substation,,
Australia,Q408,http://www.wikidata.org/entity/Q29020180,Lismore S/S,Electrical substation,,
Australia,Q408,http://www.wikidata.org/entity/Q29020181,Lismore 132,Electrical substation,,
Australia,Q408,http://www.wikidata.org/entity/Q29020166,North Springwood,Electrical substation,,
Australia,Q408,http://www.wikidata.org/entity/Q29020189,Moree SF,Electrical substation,,
Australia,Q408,http://www.wikidata.org/entity/Q29020215,Kurri Zone Sub,Electrical substation,,
Australia,Q408,http://www.wikidata.org/entity/Q29020146,Swanbank East,Electrical substation,,
Australia,Q408,http://www.wikidata.org/entity/Q29020148,Swanbank East Power Station,Electrical substation,,
Australia,Q408,http://www.wikidata.org/entity/Q29020187,Rapville,Electrical substation,,
Australia,Q408,http://www.wikidata.org/entity/Q29020169,SSLBS,Electrical substation,,
Australia,Q408,http://www.wikidata.org/entity/Q29020172,SSBBS,Electrical substation,,
Australia,Q408,http://www.wikidata.org/entity/Q29020225,Muswell Brook 330,Electrical substation,,
Australia,Q408,http://www.wikidata.org/entity/Q29020231,Muswell Brook 132,Electrical substation,,
Australia,Q408,http://www.wikidata.org/entity/Q29020235,Munmorah,Electrical substation,,
Australia,Q408,http://www.wikidata.org/entity/Q29020228,Tomago 132,Electrical substation,,
Australia,Q408,http://www.wikidata.org/entity/Q29020112,Runcorn,Electrical substation,,
Australia,Q408,http://www.wikidata.org/entity/Q29020122,Postmans Ridge,Electrical substation,,
Australia,Q408,http://www.wikidata.org/entity/Q29020060,Brendale,Electrical substation,,
Australia,Q408,http://www.wikidata.org/entity/Q29020138,Victoria Park,Electrical substation,,
Australia,Q408,http://www.wikidata.org/entity/Q29020084,Chinchilla,Electrical substation,,
Australia,Q408,http://www.wikidata.org/entity/Q29020128,Stanthorpe,Electrical substation,,
Australia,Q408,http://www.wikidata.org/entity/Q29020061,Griffin,Electrical substation,,
Australia,Q408,http://www.wikidata.org/entity/Q29020050,Tarong,Electrical substation,,
Australia,Q408,http://www.wikidata.org/entity/Q29020067,Roma,Electrical substation,,
Australia,Q408,http://www.wikidata.org/entity/Q29020099,Ruby,Electrical substation,,
Australia,Q408,http://www.wikidata.org/entity/Q29020101,Millmerran,Electrical substation,,
Australia,Q408,http://www.wikidata.org/entity/Q29020125,Yarranlea,Electrical substation,,
Australia,Q408,http://www.wikidata.org/entity/Q29020064,Upper Kedron,Electrical substation,,
Australia,Q408,http://www.wikidata.org/entity/Q29020121,Middle Ridge,Electrical substation,,
Australia,Q408,http://www.wikidata.org/entity/Q29020119,South Toowoomba,Electrical substation,,
Australia,Q408,http://www.wikidata.org/entity/Q29020131,Kelvin Grove,Electrical substation,,
Australia,Q408,http://www.wikidata.org/entity/Q29020115,Oakey,Electrical substation,,
Australia,Q408,http://www.wikidata.org/entity/Q29020076,Bellevue,Electrical substation,,
Australia,Q408,http://www.wikidata.org/entity/Q29020107,Corinda,Electrical substation,,
Australia,Q408,http://www.wikidata.org/entity/Q29020043,Cooroy,Electrical substation,,
Australia,Q408,http://www.wikidata.org/entity/Q29020113,Algester,Electrical substation,,
Australia,Q408,http://www.wikidata.org/entity/Q29020044,Nambour,Electrical substation,,
Australia,Q408,http://www.wikidata.org/entity/Q29020117,Dalby,Electrical substation,,
Australia,Q408,http://www.wikidata.org/entity/Q29020055,Caboolture,Electrical substation,,
Australia,Q408,http://www.wikidata.org/entity/Q29020100,Bulli Creek,Electrical substation,,
Australia,Q408,http://www.wikidata.org/entity/Q29020092,Orana,Electrical substation,,
Australia,Q408,http://www.wikidata.org/entity/Q29020037,Woolooga,Electrical substation,,
Australia,Q408,http://www.wikidata.org/entity/Q29020109,Sumner,Electrical substation,,
Australia,Q408,http://www.wikidata.org/entity/Q29020097,Braemar,Electrical substation,,
Australia,Q408,http://www.wikidata.org/entity/Q29020086,Blythdale,Electrical substation,,
Australia,Q408,http://www.wikidata.org/entity/Q29020088,Eurombah,Electrical substation,,
Australia,Q408,http://www.wikidata.org/entity/Q29020065,Greenbank,Electrical substation,,
Australia,Q408,http://www.wikidata.org/entity/Q29020090,Yuleba North,Electrical substation,,
Australia,Q408,http://www.wikidata.org/entity/Q29020032,Aramara,Electrical substation,,
Australia,Q408,http://www.wikidata.org/entity/Q29020046,Beerwah,Electrical substation,,
Australia,Q408,http://www.wikidata.org/entity/Q29020033,Mungar,Electrical substation,,
Australia,Q408,http://www.wikidata.org/entity/Q29020126,Lockrose,Electrical substation,,
Australia,Q408,http://www.wikidata.org/entity/Q29020120,Kearneys Spring,Electrical substation,,
Australia,Q408,http://www.wikidata.org/entity/Q29020063,Stafford,Electrical substation,,
Australia,Q408,http://www.wikidata.org/entity/Q29020127,Warwick,Electrical substation,,
Australia,Q408,http://www.wikidata.org/entity/Q29020132,Milton,Electrical substation,,
Australia,Q408,http://www.wikidata.org/entity/Q29020051,Halys,Electrical substation,,
Australia,Q408,http://www.wikidata.org/entity/Q29020108,Tennyson,Electrical substation,,
Australia,Q408,http://www.wikidata.org/entity/Q29020070,Western Downs,Electrical substation,,
Australia,Q408,http://www.wikidata.org/entity/Q29020129,West End,Electrical substation,,
Australia,Q408,http://www.wikidata.org/entity/Q29020140,Wellington Road,Electrical substation,,
Australia,Q408,http://www.wikidata.org/entity/Q29020066,Roma Power Station,Electrical substation,,
Australia,Q408,http://www.wikidata.org/entity/Q29020124,Torrington,Electrical substation,,
Australia,Q408,http://www.wikidata.org/entity/Q29020085,Fairview West,Electrical substation,,
Australia,Q408,http://www.wikidata.org/entity/Q29020139,Ann Street,Electrical substation,,
Australia,Q408,http://www.wikidata.org/entity/Q29020111,Richlands,Electrical substation,,
Australia,Q408,http://www.wikidata.org/entity/Q29020106,Rocklea,Electrical substation,,
Australia,Q408,http://www.wikidata.org/entity/Q29020038,Gin Gin,Electrical substation,,
Australia,Q408,http://www.wikidata.org/entity/Q29020036,Teebar Creek,Electrical substation,,
Australia,Q408,http://www.wikidata.org/entity/Q29020083,Clifford Creek,Electrical substation,,
Australia,Q408,http://www.wikidata.org/entity/Q29020039,Callide B Power Station,Electrical substation,,
Australia,Q408,http://www.wikidata.org/entity/Q29020040,Callide C Power Station,Electrical substation,,
Australia,Q408,http://www.wikidata.org/entity/Q29020093,APLNG Orana,Electrical substation,,
Australia,Q408,http://www.wikidata.org/entity/Q29020094,Braemar 2 Power Station,Electrical substation,,
Australia,Q408,http://www.wikidata.org/entity/Q29020095,Braemar Power Station,Electrical substation,,
Australia,Q408,http://www.wikidata.org/entity/Q29020130,Ashgrove West,Electrical substation,,
Australia,Q408,http://www.wikidata.org/entity/Q29020068,Columboola T194,Electrical substation,,
Australia,Q408,http://www.wikidata.org/entity/Q29020069,Columboola H77,Electrical substation,,
Australia,Q408,http://www.wikidata.org/entity/Q29020075,Condamine Power Station,Electrical substation,,
Australia,Q408,http://www.wikidata.org/entity/Q29020079,Condabri Central,Electrical substation,,
Australia,Q408,http://www.wikidata.org/entity/Q29020077,Condabri North,Electrical substation,,
Australia,Q408,http://www.wikidata.org/entity/Q29020080,Condabri South,Electrical substation,,
Australia,Q408,http://www.wikidata.org/entity/Q29020082,Dinoun South,Electrical substation,,
Australia,Q408,http://www.wikidata.org/entity/Q29020056,Hays Inlet,Electrical substation,,
Australia,Q408,http://www.wikidata.org/entity/Q29020096,Darling Downs Power Station,Electrical substation,,
Australia,Q408,http://www.wikidata.org/entity/Q29020087,Fairview South,Electrical substation,,
Australia,Q408,http://www.wikidata.org/entity/Q29020116,Daadine,Electrical substation,,
Australia,Q408,http://www.wikidata.org/entity/Q29020052,Mt England,Electrical substation,,
Australia,Q408,http://www.wikidata.org/entity/Q29020081,Kogan Creek Power Station,Electrical substation,,
Australia,Q408,http://www.wikidata.org/entity/Q29020123,Gatton Bulk Supply,Electrical substation,,
Australia,Q408,http://www.wikidata.org/entity/Q29020098,Kumbarilla Park,Electrical substation,,
Australia,Q408,http://www.wikidata.org/entity/Q29020105,Millmerran Power Station,Electrical substation,,
Australia,Q408,http://www.wikidata.org/entity/Q29020047,Tarong Power Station,Electrical substation,,
Australia,Q408,http://www.wikidata.org/entity/Q29020049,Tarong North Power Station,Electrical substation,,
Australia,Q408,http://www.wikidata.org/entity/Q29020114,Oakey GT Power Station,Electrical substation,,
Australia,Q408,http://www.wikidata.org/entity/Q29020053,Wivvenhoe Power Station,Electrical substation,,
Australia,Q408,http://www.wikidata.org/entity/Q29020091,Wandoan South,Electrical substation,,
Australia,Q408,http://www.wikidata.org/entity/Q29020089,Woleebee Creek,Electrical substation,,
Australia,Q408,http://www.wikidata.org/entity/Q29020118,Tangkam,Electrical substation,,
Australia,Q408,http://www.wikidata.org/entity/Q29020134,SSQRT,Electrical substation,,
Australia,Q408,http://www.wikidata.org/entity/Q29020135,SSMST,Electrical substation,,
Australia,Q408,http://www.wikidata.org/entity/Q29020110,West Darra,Electrical substation,,
Australia,Q408,http://www.wikidata.org/entity/Q29020133,SSNSD,Electrical substation,,
Australia,Q408,http://www.wikidata.org/entity/Q29020136,SSMLS,Electrical substation,,
Australia,Q408,http://www.wikidata.org/entity/Q29020137,SSCST,Electrical substation,,
Australia,Q408,http://www.wikidata.org/entity/Q29020257,Morisset,Electrical substation,,
Australia,Q408,http://www.wikidata.org/entity/Q29020345,Liverpool,Electrical substation,,
Australia,Q408,http://www.wikidata.org/entity/Q29020324,Potts Point,Electrical substation,,
Australia,Q408,http://www.wikidata.org/entity/Q29020335,Camellia,Electrical substation,,
Australia,Q408,http://www.wikidata.org/entity/Q29020298,Doonside,Electrical substation,,
Australia,Q408,http://www.wikidata.org/entity/Q29020246,Merewether,Electrical substation,,
Australia,Q408,http://www.wikidata.org/entity/Q29020262,Macquarie Park,Electrical substation,,
Australia,Q408,http://www.wikidata.org/entity/Q29020306,Clovelly,Electrical substation,,
Australia,Q408,http://www.wikidata.org/entity/Q29020252,Argenton,Electrical substation,,
Australia,Q408,http://www.wikidata.org/entity/Q29020297,Rooty Hill,Electrical substation,,
Australia,Q408,http://www.wikidata.org/entity/Q29020308,Double Bay,Electrical substation,,
Australia,Q408,http://www.wikidata.org/entity/Q29020303,Kogarah,Electrical substation,,
Australia,Q408,http://www.wikidata.org/entity/Q29020315,Kurnell,Electrical substation,,
Australia,Q408,http://www.wikidata.org/entity/Q29020341,Denham Court,Electrical substation,,
Australia,Q408,http://www.wikidata.org/entity/Q29020292,Waverley,Electrical substation,,
Australia,Q408,http://www.wikidata.org/entity/Q29020309,Campbell,Electrical substation,,
Australia,Q408,http://www.wikidata.org/entity/Q29020346,Bayswater,Electrical substation,,
Australia,Q408,http://www.wikidata.org/entity/Q29020302,Peakhurst,Electrical substation,,
Australia,Q408,http://www.wikidata.org/entity/Q29020276,Drummoyne,Electrical substation,,
Australia,Q408,http://www.wikidata.org/entity/Q29020300,Arndell Park,Electrical substation,,
Australia,Q408,http://www.wikidata.org/entity/Q29020321,Engadine,Electrical substation,,
Australia,Q408,http://www.wikidata.org/entity/Q29020320,Port Hacking,Electrical substation,,
Australia,Q408,http://www.wikidata.org/entity/Q29020273,Baulkham Hills,Electrical substation,,
Australia,Q408,http://www.wikidata.org/entity/Q29020271,Bella Vista,Electrical substation,,
Australia,Q408,http://www.wikidata.org/entity/Q29020318,Cronulla,Electrical substation,,
Australia,Q408,http://www.wikidata.org/entity/Q29020263,Vineyard,Electrical substation,,
Australia,Q408,http://www.wikidata.org/entity/Q29020349,Warrimoo,Electrical substation,,
Australia,Q408,http://www.wikidata.org/entity/Q29020319,Kirrawee,Electrical substation,,
Australia,Q408,http://www.wikidata.org/entity/Q29020279,Marrickville,Electrical substation,,
Australia,Q408,http://www.wikidata.org/entity/Q29020274,Rozelle,Electrical substation,,
Australia,Q408,http://www.wikidata.org/entity/Q29020248,Jesmond,Electrical substation,,
Australia,Q408,http://www.wikidata.org/entity/Q29020301,Blacktown,Electrical substation,,
Australia,Q408,http://www.wikidata.org/entity/Q29020332,Bankstown,Electrical substation,,
Australia,Q408,http://www.wikidata.org/entity/Q29020288,Lane Cove,Electrical substation,,
Australia,Q408,http://www.wikidata.org/entity/Q29020266,Rouse Hill,Electrical substation,,
Australia,Q408,http://www.wikidata.org/entity/Q29020327,North Parramatta,Electrical substation,,
Australia,Q408,http://www.wikidata.org/entity/Q29020333,Sefton,Electrical substation,,
Australia,Q408,http://www.wikidata.org/entity/Q29020295,Quakers Hill,Electrical substation,,
Australia,Q408,http://www.wikidata.org/entity/Q29020247,Waratah West,Electrical substation,,
Australia,Q408,http://www.wikidata.org/entity/Q29020310,Haymarket,Electrical substation,,
Australia,Q408,http://www.wikidata.org/entity/Q29020313,Maroubra,Electrical substation,,
Australia,Q408,http://www.wikidata.org/entity/Q29020347,Warragamba,Electrical substation,,
Australia,Q408,http://www.wikidata.org/entity/Q29020291,Surry Hills,Electrical substation,,
Australia,Q408,http://www.wikidata.org/entity/Q29020267,Parklea,Electrical substation,,
Australia,Q408,http://www.wikidata.org/entity/Q29020272,Carlingford,Electrical substation,,
Australia,Q408,http://www.wikidata.org/entity/Q29020255,Rathmines,Electrical substation,,
Australia,Q408,http://www.wikidata.org/entity/Q29020331,Wetherill Park,Electrical substation,,
Australia,Q408,http://www.wikidata.org/entity/Q29020322,Menai,Electrical substation,,
Australia,Q408,http://www.wikidata.org/entity/Q29020245,Broadmeadow,Electrical substation,,
Australia,Q408,http://www.wikidata.org/entity/Q29020258,Awaba,Electrical substation,,
Australia,Q408,http://www.wikidata.org/entity/Q29020348,Regentville,Electrical substation,,
Australia,Q408,http://www.wikidata.org/entity/Q29020328,Holroyd,Electrical substation,,
Australia,Q408,http://www.wikidata.org/entity/Q29020299,Huntingwood,Electrical substation,,
Australia,Q408,http://www.wikidata.org/entity/Q29020250,Maryland,Electrical substation,,
Australia,Q408,http://www.wikidata.org/entity/Q29020337,Smithfield,Electrical substation,,
Australia,Q408,http://www.wikidata.org/entity/Q29020334,Granville,Electrical substation,,
Australia,Q408,http://www.wikidata.org/entity/Q29020286,St Peter,Electrical substation,,
Australia,Q408,http://www.wikidata.org/entity/Q29020251,Charlestown,Electrical substation,,
Australia,Q408,http://www.wikidata.org/entity/Q29020342,Nepean,Electrical substation,,
Australia,Q408,http://www.wikidata.org/entity/Q29020294,BHP,Electrical substation,,
Australia,Q408,http://www.wikidata.org/entity/Q29020312,Kingsford,Electrical substation,,
Australia,Q408,http://www.wikidata.org/entity/Q29020336,Guilford,Electrical substation,,
Australia,Q408,http://www.wikidata.org/entity/Q29020338,Sydney West,Electrical substation,,
Australia,Q408,http://www.wikidata.org/entity/Q29020311,Green Square,Electrical substation,,
Australia,Q408,http://www.wikidata.org/entity/Q29020287,Meadowbank,Electrical substation,,
Australia,Q408,http://www.wikidata.org/entity/Q29020249,Waratah,Electrical substation,,
Australia,Q408,http://www.wikidata.org/entity/Q29020293,Rose Bay,Electrical substation,,
Australia,Q408,http://www.wikidata.org/entity/Q29020281,Belmore Park,Electrical substation,,
Australia,Q408,http://www.wikidata.org/entity/Q29020317,Gwawley Bay,Electrical substation,,
Australia,Q408,http://www.wikidata.org/entity/Q29020275,Homebush Bay,Electrical substation,,
Australia,Q408,http://www.wikidata.org/entity/Q29020282,Beaconsfield North,Electrical substation,,
Australia,Q408,http://www.wikidata.org/entity/Q29020283,Beaconsfield West,Electrical substation,,
Australia,Q408,http://www.wikidata.org/entity/Q29020280,Beaconsfield South,Electrical substation,,
Australia,Q408,http://www.wikidata.org/entity/Q29020339,Abootsbury,Electrical substation,,
Australia,Q408,http://www.wikidata.org/entity/Q29020314,Bunnerong,Electrical substation,,
Australia,Q408,http://www.wikidata.org/entity/Q29020270,Cheriton Avenue,Electrical substation,,
Australia,Q408,http://www.wikidata.org/entity/Q29020290,Dalley Street,Electrical substation,,
Australia,Q408,http://www.wikidata.org/entity/Q29020264,Hawksbury,Electrical substation,,
Australia,Q408,http://www.wikidata.org/entity/Q29020329,East Parramatta,Electrical substation,,
Australia,Q408,http://www.wikidata.org/entity/Q29020304,Hurstville North,Electrical substation,,
Australia,Q408,http://www.wikidata.org/entity/Q29020323,Greenacre Park,Electrical substation,,
Australia,Q408,http://www.wikidata.org/entity/Q29020265,Mungerie Park,Electrical substation,,
Australia,Q408,http://www.wikidata.org/entity/Q29020284,New Canterbury,Electrical substation,,
Australia,Q408,http://www.wikidata.org/entity/Q29020259,Sydney East,Electrical substation,,
Australia,Q408,http://www.wikidata.org/entity/Q29020260,Sydney North,Electrical substation,,
Australia,Q408,http://www.wikidata.org/entity/Q29020269,West Castle Hill,Electrical substation,,
Australia,Q408,http://www.wikidata.org/entity/Q29020289,Top Ryde,Electrical substation,,
Australia,Q408,http://www.wikidata.org/entity/Q29020325,Rockwood Road,Electrical substation,,
Australia,Q408,http://www.wikidata.org/entity/Q29020344,South Leppington,Electrical substation,,
Australia,Q408,http://www.wikidata.org/entity/Q29020326,West Parramatta,Electrical substation,,
Australia,Q408,http://www.wikidata.org/entity/Q29020330,West Wetherill,Electrical substation,,
Australia,Q408,http://www.wikidata.org/entity/Q29020343,West Liverpool,Electrical substation,,
Australia,Q408,http://www.wikidata.org/entity/Q29020018,Clayton,Electrical substation,,
Australia,Q408,http://www.wikidata.org/entity/Q29020029,Traveston,Electrical substation,,
Australia,Q408,http://www.wikidata.org/entity/Q29019973,Rocklands,Electrical substation,,
Australia,Q408,http://www.wikidata.org/entity/Q29020001,Stanwell,Electrical substation,,
Australia,Q408,http://www.wikidata.org/entity/Q29020005,Callemondah,Electrical substation,,
Australia,Q408,http://www.wikidata.org/entity/Q29019974,Rockhampton,Electrical substation,,
Australia,Q408,http://www.wikidata.org/entity/Q29020031,Isis,Electrical substation,,
Australia,Q408,http://www.wikidata.org/entity/Q29019970,Bouldercombe,Electrical substation,,
Australia,Q408,http://www.wikidata.org/entity/Q29019998,Wycarbah,Electrical substation,,
Australia,Q408,http://www.wikidata.org/entity/Q29020030,Cooran,Electrical substation,,
Australia,Q408,http://www.wikidata.org/entity/Q29020006,Boyne Island,Electrical substation,,
Australia,Q408,http://www.wikidata.org/entity/Q29019992,Yarwun,Electrical substation,,
Australia,Q408,http://www.wikidata.org/entity/Q29020013,Maryborough,Electrical substation,,
Australia,Q408,http://www.wikidata.org/entity/Q29019964,Broadlea,Electrical substation,,
Australia,Q408,http://www.wikidata.org/entity/Q29019946,Mindi,Electrical substation,,
Australia,Q408,http://www.wikidata.org/entity/Q29020016,Granite Creek,Electrical substation,,
Australia,Q408,http://www.wikidata.org/entity/Q29019996,Raglan,Electrical substation,,
Australia,Q408,http://www.wikidata.org/entity/Q29019945,Bolingbroke,Electrical substation,,
Australia,Q408,http://www.wikidata.org/entity/Q29019993,Boat Creek,Electrical substation,,
Australia,Q408,http://www.wikidata.org/entity/Q29019995,Larcom Creek,Electrical substation,,
Australia,Q408,http://www.wikidata.org/entity/Q29019971,Egans Hill,Electrical substation,,
Australia,Q408,http://www.wikidata.org/entity/Q29019948,Racecourse Mill,Electrical substation,,
Australia,Q408,http://www.wikidata.org/entity/Q29019977,Barcaldine Power Station,Electrical substation,,
Australia,Q408,http://www.wikidata.org/entity/Q29019967,Goonyella Riverside,Electrical substation,,
Australia,Q408,http://www.wikidata.org/entity/Q29019997,Grantleigh,Electrical substation,,
Australia,Q408,http://www.wikidata.org/entity/Q29020007,Gladstone T5,Electrical substation,,
Australia,Q408,http://www.wikidata.org/entity/Q29020004,Gladstone North,Electrical substation,,
Australia,Q408,http://www.wikidata.org/entity/Q29020008,Gladstone H7,Electrical substation,,
Australia,Q408,http://www.wikidata.org/entity/Q29020009,Gladstone South T19,Electrical substation,,
Australia,Q408,http://www.wikidata.org/entity/Q29019972,Pandoin,Electrical substation,,
Australia,Q408,http://www.wikidata.org/entity/Q29020015,Korenan,Electrical substation,,
Australia,Q408,http://www.wikidata.org/entity/Q29019985,Rangal,Electrical substation,,
Australia,Q408,http://www.wikidata.org/entity/Q29020010,Qal,Electrical substation,,
Australia,Q408,http://www.wikidata.org/entity/Q29020011,Qal West,Electrical substation,,
Australia,Q408,http://www.wikidata.org/entity/Q29020012,Qal South,Electrical substation,,
Australia,Q408,http://www.wikidata.org/entity/Q29019999,Stanwell Power Station Auxillary,Electrical substation,,
Australia,Q408,http://www.wikidata.org/entity/Q29020000,Stanwell Power Station,Electrical substation,,
Australia,Q408,http://www.wikidata.org/entity/Q29020003,Wiggins Island,Electrical substation,,
Australia,Q408,http://www.wikidata.org/entity/Q29020014,Wurdong,Electrical substation,,
Australia,Q408,http://www.wikidata.org/entity/Q29020422,Burrinjuck,Electrical substation,,
Australia,Q408,http://www.wikidata.org/entity/Q29020441,Jindera,Electrical substation,,
Australia,Q408,http://www.wikidata.org/entity/Q29020434,Corowa,Electrical substation,,
Australia,Q408,http://www.wikidata.org/entity/Q29020372,Orange,Electrical substation,,
Australia,Q408,http://www.wikidata.org/entity/Q29020433,Balranald,Electrical substation,,
Australia,Q408,http://www.wikidata.org/entity/Q29020379,Panorama,Electrical substation,,
Australia,Q408,http://www.wikidata.org/entity/Q29020392,Forbes,Electrical substation,,
Australia,Q408,http://www.wikidata.org/entity/Q29020418,Queanbeyan,Electrical substation,,
Australia,Q408,http://www.wikidata.org/entity/Q29020386,Woodlawn,Electrical substation,,
Australia,Q408,http://www.wikidata.org/entity/Q29020365,Dubbo,Electrical substation,,
Australia,Q408,http://www.wikidata.org/entity/Q29020387,Capital Hill,Electrical substation,,
Australia,Q408,http://www.wikidata.org/entity/Q29020432,Broken Hill,Electrical substation,,
Australia,Q408,http://www.wikidata.org/entity/Q29020376,Wallerawang,Electrical substation,,
Australia,Q408,http://www.wikidata.org/entity/Q29020425,Finley,Electrical substation,,
Australia,Q408,http://www.wikidata.org/entity/Q29020423,Uranquinty,Electrical substation,,
Australia,Q408,http://www.wikidata.org/entity/Q29020445,Gadara,Electrical substation,,
Australia,Q408,http://www.wikidata.org/entity/Q29020439,Darlington Point,Electrical substation,,
Australia,Q408,http://www.wikidata.org/entity/Q29020405,Bega,Electrical substation,,
Australia,Q408,http://www.wikidata.org/entity/Q29020355,Ingleburn,Electrical substation,,
Australia,Q408,http://www.wikidata.org/entity/Q29020449,Blowering,Electrical substation,,
Australia,Q408,http://www.wikidata.org/entity/Q29020393,Cowra,Electrical substation,,
Australia,Q408,http://www.wikidata.org/entity/Q29020390,Marulan,Electrical substation,,
Australia,Q408,http://www.wikidata.org/entity/Q29020444,Hume,Electrical substation,,
Australia,Q408,http://www.wikidata.org/entity/Q29020406,Steeple Flat,Electrical substation,,
Australia,Q408,http://www.wikidata.org/entity/Q29020452,T2,Electrical substation,,
Australia,Q408,http://www.wikidata.org/entity/Q29020426,Deniliquin,Electrical substation,,
Australia,Q408,http://www.wikidata.org/entity/Q29020408,Murrumburrah,Electrical substation,,
Australia,Q408,http://www.wikidata.org/entity/Q29020382,Goulburn,Electrical substation,,
Australia,Q408,http://www.wikidata.org/entity/Q29020443,Albury,Electrical substation,,
Australia,Q408,http://www.wikidata.org/entity/Q29020398,Royalla,Electrical substation,,
Australia,Q408,http://www.wikidata.org/entity/Q29020383,Kangaroo Valley,Electrical substation,,
Australia,Q408,http://www.wikidata.org/entity/Q29020371,Molong,Electrical substation,,
Australia,Q408,http://www.wikidata.org/entity/Q29020354,Penrith,Electrical substation,,
Australia,Q408,http://www.wikidata.org/entity/Q29020374,Wollar,Electrical substation,,
Australia,Q408,http://www.wikidata.org/entity/Q29020359,Beryl,Electrical substation,,
Australia,Q408,http://www.wikidata.org/entity/Q29020381,Taralga,Electrical substation,,
Australia,Q408,http://www.wikidata.org/entity/Q29020394,Gunning,Electrical substation,,
Australia,Q408,http://www.wikidata.org/entity/Q29020363,Narromine,Electrical substation,,
Australia,Q408,http://www.wikidata.org/entity/Q29020428,Griffith,Electrical substation,,
Australia,Q408,http://www.wikidata.org/entity/Q29020380,Bannaby,Electrical substation,,
Australia,Q408,http://www.wikidata.org/entity/Q29020430,Mulwala,Electrical substation,,
Australia,Q408,http://www.wikidata.org/entity/Q29020431,Buronga,Electrical substation,,
Australia,Q408,http://www.wikidata.org/entity/Q29020391,Parkes,Electrical substation,,
Australia,Q408,http://www.wikidata.org/entity/Q29020396,Yass,Electrical substation,,
Australia,Q408,http://www.wikidata.org/entity/Q29020368,Nyngan,Electrical substation,,
Australia,Q408,http://www.wikidata.org/entity/Q29020429,Coleambally,Electrical substation,,
Australia,Q408,http://www.wikidata.org/entity/Q29020367,Nevertire,Electrical substation,,
Australia,Q408,http://www.wikidata.org/entity/Q29020370,Manildra,Electrical substation,,
Australia,Q408,http://www.wikidata.org/entity/Q29020388,Capital,Electrical substation,,
Australia,Q408,http://www.wikidata.org/entity/Q29020360,Wellington,Electrical substation,,
Australia,Q408,http://www.wikidata.org/entity/Q29020358,Springhill,Electrical substation,,
Australia,Q408,http://www.wikidata.org/entity/Q29020451,T1,Electrical substation,,
Australia,Q408,http://www.wikidata.org/entity/Q29020350,Lawson,Electrical substation,,
Australia,Q408,http://www.wikidata.org/entity/Q29020352,Mamre,Electrical substation,,
Australia,Q408,http://www.wikidata.org/entity/Q29020438,Morven,Electrical substation,,
Australia,Q408,http://www.wikidata.org/entity/Q29020442,ANM,Electrical substation,,
Australia,Q408,http://www.wikidata.org/entity/Q29020389,Bendella,Electrical substation,,
Australia,Q408,http://www.wikidata.org/entity/Q29020407,Boco Rock,Electrical substation,,
Australia,Q408,http://www.wikidata.org/entity/Q29020361,Dubbo West,Electrical substation,,
Australia,Q408,http://www.wikidata.org/entity/Q29020364,Dubbo South,Electrical substation,,
Australia,Q408,http://www.wikidata.org/entity/Q29020385,Fairfax Lane,Electrical substation,,
Australia,Q408,http://www.wikidata.org/entity/Q29020397,Gullen Range,Electrical substation,,
Australia,Q408,http://www.wikidata.org/entity/Q29020377,Katoomba North,Electrical substation,,
Australia,Q408,http://www.wikidata.org/entity/Q29020353,Mt Druit,Electrical substation,,
Australia,Q408,http://www.wikidata.org/entity/Q29020362,Narromine South,Electrical substation,,
Australia,Q408,http://www.wikidata.org/entity/Q29020375,Mt Piper,Electrical substation,,
Australia,Q408,http://www.wikidata.org/entity/Q29020369,Ngngan Solar Farm,Electrical substation,,
Australia,Q408,http://www.wikidata.org/entity/Q29020373,Orange North,Electrical substation,,
Australia,Q408,http://www.wikidata.org/entity/Q29020448,Jounama,Electrical substation,,
Australia,Q408,http://www.wikidata.org/entity/Q29020356,Tallawarra,Electrical substation,,
Australia,Q408,http://www.wikidata.org/entity/Q29020366,Wellington Town,Electrical substation,,
Australia,Q408,http://www.wikidata.org/entity/Q29020435,Wagga 330,Electrical substation,,
Australia,Q408,http://www.wikidata.org/entity/Q29020436,Wagga 132,Electrical substation,,
Australia,Q408,http://www.wikidata.org/entity/Q29020437,Wagga North,Electrical substation,,
Australia,Q408,http://www.wikidata.org/entity/Q29020447,Tumut 132,Electrical substation,,
Australia,Q408,http://www.wikidata.org/entity/Q29020487,West Melbourne,Electrical substation,,
Australia,Q408,http://www.wikidata.org/entity/Q29020547,Bairnsdale,Electrical substation,,
Australia,Q408,http://www.wikidata.org/entity/Q29020529,Jindabyne,Electrical substation,,
Australia,Q408,http://www.wikidata.org/entity/Q29020462,McArthur,Electrical substation,,
Australia,Q408,http://www.wikidata.org/entity/Q29020550,Tyabb,Electrical substation,,
Australia,Q408,http://www.wikidata.org/entity/Q29020565,Keith,Electrical substation,,
Australia,Q408,http://www.wikidata.org/entity/Q29020557,Heatherton,Electrical substation,,
Australia,Q408,http://www.wikidata.org/entity/Q29020566,Tailem Bend,Electrical substation,,
Australia,Q408,http://www.wikidata.org/entity/Q29020542,Rowville,Electrical substation,,
Australia,Q408,http://www.wikidata.org/entity/Q29020456,Kerang,Electrical substation,,
Australia,Q408,http://www.wikidata.org/entity/Q29020470,Heywood,Electrical substation,,
Australia,Q408,http://www.wikidata.org/entity/Q29020458,Fosterville,Electrical substation,,
Australia,Q408,http://www.wikidata.org/entity/Q29020515,Clover,Electrical substation,,
Australia,Q408,http://www.wikidata.org/entity/Q29020480,Geelong,Electrical substation,,
Australia,Q408,http://www.wikidata.org/entity/Q29020474,Terang,Electrical substation,,
Australia,Q408,http://www.wikidata.org/entity/Q29020457,Bendigo,Electrical substation,,
Australia,Q408,http://www.wikidata.org/entity/Q29020485,Elaine,Electrical substation,,
Australia,Q408,http://www.wikidata.org/entity/Q29020455,Wemen,Electrical substation,,
Australia,Q408,http://www.wikidata.org/entity/Q29020475,Yambuk,Electrical substation,,
Australia,Q408,http://www.wikidata.org/entity/Q29020478,Anglesea,Electrical substation,,
Australia,Q408,http://www.wikidata.org/entity/Q29020555,Wonthaggi,Electrical substation,,
Australia,Q408,http://www.wikidata.org/entity/Q29020556,Cranbourne,Electrical substation,,
Australia,Q408,http://www.wikidata.org/entity/Q29020481,Shepparton,Electrical substation,,
Australia,Q408,http://www.wikidata.org/entity/Q29020543,Yallourn,Electrical substation,,
Australia,Q408,http://www.wikidata.org/entity/Q29020489,Brooklyn,Electrical substation,,
Australia,Q408,http://www.wikidata.org/entity/Q29020527,Murray,Electrical substation,,
Australia,Q408,http://www.wikidata.org/entity/Q29020524,South Morang,Electrical substation,,
Australia,Q408,http://www.wikidata.org/entity/Q29020468,Horsham,Electrical substation,,
Australia,Q408,http://www.wikidata.org/entity/Q29020467,Stawell,Electrical substation,,
Australia,Q408,http://www.wikidata.org/entity/Q29020464,Tarrone,Electrical substation,,
Australia,Q408,http://www.wikidata.org/entity/Q29020473,Portland,Electrical substation,,
Australia,Q408,http://www.wikidata.org/entity/Q29020534,Richmond,Electrical substation,,
Australia,Q408,http://www.wikidata.org/entity/Q29020535,Brunswick,Electrical substation,,
Australia,Q408,http://www.wikidata.org/entity/Q29020510,Newport,Electrical substation,,
Australia,Q408,http://www.wikidata.org/entity/Q29020553,Springvale,Electrical substation,,
Australia,Q408,http://www.wikidata.org/entity/Q29020531,Malvern,Electrical substation,,
Australia,Q408,http://www.wikidata.org/entity/Q29020521,Somerton,Electrical substation,,
Australia,Q408,http://www.wikidata.org/entity/Q29020564,Blanche,Electrical substation,,
Australia,Q408,http://www.wikidata.org/entity/Q29020477,Oakland Hill,Electrical substation,,
Australia,Q408,http://www.wikidata.org/entity/Q29020509,Toyota,Electrical substation,,
Australia,Q408,http://www.wikidata.org/entity/Q29020538,Loy Yang Power Station,Electrical substation,,
Australia,Q408,http://www.wikidata.org/entity/Q29020562,Ladbroke Grove,Electrical substation,,
Australia,Q408,http://www.wikidata.org/entity/Q29020511,Fishermans Bend,Electrical substation,,
Australia,Q408,http://www.wikidata.org/entity/Q29020548,John Lysaght,Electrical substation,,
Australia,Q408,http://www.wikidata.org/entity/Q29020559,South East,Electrical substation,,
Australia,Q408,http://www.wikidata.org/entity/Q29020558,Black Range,Electrical substation,,
Australia,Q408,http://www.wikidata.org/entity/Q29020479,Point Henry,Electrical substation,,
Australia,Q408,http://www.wikidata.org/entity/Q29020560,Kincraig,Electrical substation,,
Australia,Q408,http://www.wikidata.org/entity/Q29020466,Ararat ARTS,Electrical substation,,
Australia,Q408,http://www.wikidata.org/entity/Q29020465,Ararat ART,Electrical substation,,
Australia,Q408,http://www.wikidata.org/entity/Q29020472,Alcoa Portland,Electrical substation,,
Australia,Q408,http://www.wikidata.org/entity/Q29020488,Altona ATS,Electrical substation,,
Australia,Q408,http://www.wikidata.org/entity/Q29020492,Altona Chemical,Electrical substation,,
Australia,Q408,http://www.wikidata.org/entity/Q29020493,Altona AL,Electrical substation,,
Australia,Q408,http://www.wikidata.org/entity/Q29020461,Challicum Hills,Electrical substation,,
Australia,Q408,http://www.wikidata.org/entity/Q29020507,Gladstone South T152,Electrical substation,,
Australia,Q408,http://www.wikidata.org/entity/Q29020490,Laverton North LNGS,Electrical substation,,
Australia,Q408,http://www.wikidata.org/entity/Q29020491,Laverton North LVN,Electrical substation,,
Australia,Q408,http://www.wikidata.org/entity/Q29020476,Mortons Lane,Electrical substation,,
Australia,Q408,http://www.wikidata.org/entity/Q29020552,East Rowville,Electrical substation,,
Australia,Q408,http://www.wikidata.org/entity/Q29020486,Mt Mercer,Electrical substation,,
Australia,Q408,http://www.wikidata.org/entity/Q29020545,Jeeralang Power Station substation,Electrical substation,,
Australia,Q408,http://www.wikidata.org/entity/Q29020546,Loy Yang Sub.,Electrical substation,,
Australia,Q408,http://www.wikidata.org/entity/Q29020563,Mt Gambier,Electrical substation,,
Australia,Q408,http://www.wikidata.org/entity/Q29020567,Mt Barker,Electrical substation,,
Australia,Q408,http://www.wikidata.org/entity/Q29020568,Mt Barker South,Electrical substation,,
Australia,Q408,http://www.wikidata.org/entity/Q29020520,Somerton Power Station,Electrical substation,,
Australia,Q408,http://www.wikidata.org/entity/Q29020561,Penola West,Electrical substation,,
Australia,Q408,http://www.wikidata.org/entity/Q29020536,Valley Power,Electrical substation,,
Australia,Q408,http://www.wikidata.org/entity/Q29020569,Snuggery,Electrical substation,,
Australia,Q408,http://www.wikidata.org/entity/Q29020582,Para,Electrical substation,,
Australia,Q408,http://www.wikidata.org/entity/Q29020626,Waterloo,Electrical substation,,
Australia,Q408,http://www.wikidata.org/entity/Q29020636,Angaston,Electrical substation,,
Australia,Q408,http://www.wikidata.org/entity/Q29020641,Cultana,Electrical substation,,
Australia,Q408,http://www.wikidata.org/entity/Q29020616,Hallett,Electrical substation,,
Australia,Q408,http://www.wikidata.org/entity/Q29020624,Brinkworth,Electrical substation,,
Australia,Q408,http://www.wikidata.org/entity/Q29020629,Prospect,Electrical substation,,
Australia,Q408,http://www.wikidata.org/entity/Q29020584,Northfield,Electrical substation,,
Australia,Q408,http://www.wikidata.org/entity/Q29020638,Munno Para,Electrical substation,,
Australia,Q408,http://www.wikidata.org/entity/Q29020595,Happy Valley,Electrical substation,,
Australia,Q408,http://www.wikidata.org/entity/Q29020665,Port Pirie South,Electrical substation,,
Australia,Q408,http://www.wikidata.org/entity/Q29020575,Cherry Gardens,Electrical substation,,
Australia,Q408,http://www.wikidata.org/entity/Q29020619,Redhill,Electrical substation,,
Australia,Q408,http://www.wikidata.org/entity/Q29020667,Port Pirie,Electrical substation,,
Australia,Q408,http://www.wikidata.org/entity/Q29020633,Templers,Electrical substation,,
Australia,Q408,http://www.wikidata.org/entity/Q29020603,Magill,Electrical substation,,
Australia,Q408,http://www.wikidata.org/entity/Q29020664,Snowtown,Electrical substation,,
Australia,Q408,http://www.wikidata.org/entity/Q29020652,Bungama,Electrical substation,,
Australia,Q408,http://www.wikidata.org/entity/Q29020637,Clements Gap,Electrical substation,,
Australia,Q408,http://www.wikidata.org/entity/Q29020596,Tungkillo,Electrical substation,,
Australia,Q408,http://www.wikidata.org/entity/Q29020608,North West Bend,Electrical substation,,
Australia,Q408,http://www.wikidata.org/entity/Q29020606,Berri,Electrical substation,,
Australia,Q408,http://www.wikidata.org/entity/Q29020666,Baroota,Electrical substation,,
Australia,Q408,http://www.wikidata.org/entity/Q29020634,Roseworthy,Electrical substation,,
Australia,Q408,http://www.wikidata.org/entity/Q29020574,Canunda,Electrical substation,,
Australia,Q408,http://www.wikidata.org/entity/Q29020598,Lonsdale,Electrical substation,,
Australia,Q408,http://www.wikidata.org/entity/Q29020645,Woomera,Electrical substation,,
Australia,Q408,http://www.wikidata.org/entity/Q29020669,Bluff Point,Electrical substation,,
Australia,Q408,http://www.wikidata.org/entity/Q29020657,Sleaford,Electrical substation,,
Australia,Q408,http://www.wikidata.org/entity/Q29020617,Canowie,Electrical substation,,
Australia,Q408,http://www.wikidata.org/entity/Q29020578,Mannum,Electrical substation,,
Australia,Q408,http://www.wikidata.org/entity/Q29020622,Mintaro,Electrical substation,,
Australia,Q408,http://www.wikidata.org/entity/Q29020646,Pimba,Electrical substation,,
Australia,Q408,http://www.wikidata.org/entity/Q29020625,Kilburn,Electrical substation,,
Australia,Q408,http://www.wikidata.org/entity/Q29020585,Mobilong,Electrical substation,,
Australia,Q408,http://www.wikidata.org/entity/Q29020592,Quarantine,Electrical substation,,
Australia,Q408,http://www.wikidata.org/entity/Q29020670,Smithton,Electrical substation,,
Australia,Q408,http://www.wikidata.org/entity/Q29020600,Willunga,Electrical substation,,
Australia,Q408,http://www.wikidata.org/entity/Q29020660,Dalrymple,Electrical substation,,
Australia,Q408,http://www.wikidata.org/entity/Q29020576,Millbrook,Electrical substation,,
Australia,Q408,http://www.wikidata.org/entity/Q29020642,Stony Point,Electrical substation,,
Australia,Q408,http://www.wikidata.org/entity/Q29020586,Le Fevre,Electrical substation,,
Australia,Q408,http://www.wikidata.org/entity/Q29020602,East Terrace,Electrical substation,,
Australia,Q408,http://www.wikidata.org/entity/Q29020612,Belalie,Electrical substation,,
Australia,Q408,http://www.wikidata.org/entity/Q29020591,City West,Electrical substation,,
Australia,Q408,http://www.wikidata.org/entity/Q29020570,Mayura,Electrical substation,,
Australia,Q408,http://www.wikidata.org/entity/Q29020631,Dry Creek,Electrical substation,,
Australia,Q408,http://www.wikidata.org/entity/Q29020588,Kanmantoo Mine,Electrical substation,,
Australia,Q408,http://www.wikidata.org/entity/Q29020589,Pelican Point,Electrical substation,,
Australia,Q408,http://www.wikidata.org/entity/Q29020635,Dorrien,Electrical substation,,
Australia,Q408,http://www.wikidata.org/entity/Q29020656,Cathedral Rocks,Electrical substation,,
Australia,Q408,http://www.wikidata.org/entity/Q29020615,Hallett Hill,Electrical substation,,
Australia,Q408,http://www.wikidata.org/entity/Q29020639,Mount Lock,Electrical substation,,
Australia,Q408,http://www.wikidata.org/entity/Q29020661,Wattle Point,Electrical substation,,
Australia,Q408,http://www.wikidata.org/entity/Q29020601,Starfish Hill,Electrical substation,,
Australia,Q408,http://www.wikidata.org/entity/Q29020611,Mokota,Electrical substation,,
Australia,Q408,http://www.wikidata.org/entity/Q29020618,Hallett Power Station,Electrical substation,,
Australia,Q408,http://www.wikidata.org/entity/Q29020663,Hummocks,Electrical substation,,
Australia,Q408,http://www.wikidata.org/entity/Q29020581,Angas Creek,Electrical substation,,
Australia,Q408,http://www.wikidata.org/entity/Q29020614,Bluff/Porcupine,Electrical substation,,
Australia,Q408,http://www.wikidata.org/entity/Q29020651,Ardrossan West,Electrical substation,,
Australia,Q408,http://www.wikidata.org/entity/Q29020648,Blyth West,Electrical substation,,
Australia,Q408,http://www.wikidata.org/entity/Q29020623,Clare North,Electrical substation,,
Australia,Q408,http://www.wikidata.org/entity/Q29020571,Lake Bonney 1,Electrical substation,,
Australia,Q408,http://www.wikidata.org/entity/Q29020572,Lake Bonney 2,Electrical substation,,
Australia,Q408,http://www.wikidata.org/entity/Q29020573,Lake Bonney 3,Electrical substation,,
Australia,Q408,http://www.wikidata.org/entity/Q29020579,Mannum-Adelaide Pumping Station 2,Electrical substation,,
Australia,Q408,http://www.wikidata.org/entity/Q29020577,Mannum-Adelaide Pumping Station 1,Electrical substation,,
Australia,Q408,http://www.wikidata.org/entity/Q29020580,Mannum-Adelaide Pumping Station 3,Electrical substation,,
Australia,Q408,http://www.wikidata.org/entity/Q29020587,Muarry Bridge-Hahndorf Pump 1,Electrical substation,,
Australia,Q408,http://www.wikidata.org/entity/Q29020590,Muarry Bridge-Hahndorf Pump 2,Electrical substation,,
Australia,Q408,http://www.wikidata.org/entity/Q29020583,Parafield Gardens West,Electrical substation,,
Australia,Q408,http://www.wikidata.org/entity/Q29020597,Morphett Vale East,Electrical substation,,
Australia,Q408,http://www.wikidata.org/entity/Q29020630,Kilburn South,Electrical substation,,
Australia,Q408,http://www.wikidata.org/entity/Q29020609,Mor Pump,Electrical substation,,
Australia,Q408,http://www.wikidata.org/entity/Q29020599,Port Stanvac,Electrical substation,,
Australia,Q408,http://www.wikidata.org/entity/Q29020620,Morgan-Whyalla Pump 4,Electrical substation,,
Australia,Q408,http://www.wikidata.org/entity/Q29020613,North Brown Hill,Electrical substation,,
Australia,Q408,http://www.wikidata.org/entity/Q29020662,Kadina East,Electrical substation,,
Australia,Q408,http://www.wikidata.org/entity/Q29020647,Mt Gunson,Electrical substation,,
Australia,Q408,http://www.wikidata.org/entity/Q29020655,Middleback,Electrical substation,,
Australia,Q408,http://www.wikidata.org/entity/Q29020643,Olympic Dam West,Electrical substation,,
Australia,Q408,http://www.wikidata.org/entity/Q29020644,Olympic Dam North,Electrical substation,,
Australia,Q408,http://www.wikidata.org/entity/Q29020659,Mt Miller,Electrical substation,,
Australia,Q408,http://www.wikidata.org/entity/Q29020594,Torrens North,Electrical substation,,
Australia,Q408,http://www.wikidata.org/entity/Q29020593,Torrens B,Electrical substation,,
Australia,Q408,http://www.wikidata.org/entity/Q29020604,Torrens A,Electrical substation,,
Australia,Q408,http://www.wikidata.org/entity/Q29020658,Point Lincoln Terminal,Electrical substation,,
Australia,Q408,http://www.wikidata.org/entity/Q29020632,Templers West,Electrical substation,,
Australia,Q408,http://www.wikidata.org/entity/Q29020650,Snowtown South,Electrical substation,,
Australia,Q408,http://www.wikidata.org/entity/Q29020649,Snowtown North,Electrical substation,,
Australia,Q408,http://www.wikidata.org/entity/Q29020627,Waterloo East,Electrical substation,,
Australia,Q408,http://www.wikidata.org/entity/Q29020628,Waterloo Wind Farm,Electrical substation,,
Australia,Q408,http://www.wikidata.org/entity/Q29020654,Whyalla Terminal,Electrical substation,,
Australia,Q408,http://www.wikidata.org/entity/Q29020653,Whyalla Central,Electrical substation,,
Australia,Q408,http://www.wikidata.org/entity/Q29020668,Yadnarie,Electrical substation,,
Australia,Q408,http://www.wikidata.org/entity/Q29020682,Railton,Electrical substation,,
Australia,Q408,http://www.wikidata.org/entity/Q29020718,Arthurs Lake,Electrical substation,,
Australia,Q408,http://www.wikidata.org/entity/Q29020728,Waddamana,Electrical substation,,
Australia,Q408,http://www.wikidata.org/entity/Q29020702,Palmerston,Electrical substation,,
Australia,Q408,http://www.wikidata.org/entity/Q29020678,Ulverstone,Electrical substation,,
Australia,Q408,http://www.wikidata.org/entity/Q29020717,Tods Corner,Electrical substation,,
Australia,Q408,http://www.wikidata.org/entity/Q29020716,Avoca,Electrical substation,,
Australia,Q408,http://www.wikidata.org/entity/Q29020749,Risdon,Electrical substation,,
Australia,Q408,http://www.wikidata.org/entity/Q29020736,Electrona,Electrical substation,,
Australia,Q408,http://www.wikidata.org/entity/Q29020676,Burnie,Electrical substation,,
Australia,Q408,http://www.wikidata.org/entity/Q29020680,Devonport,Electrical substation,,
Australia,Q408,http://www.wikidata.org/entity/Q29020724,Derwent Bridge,Electrical substation,,
Australia,Q408,http://www.wikidata.org/entity/Q29020679,Paloona,Electrical substation,,
Australia,Q408,http://www.wikidata.org/entity/Q29020706,George Town,Electrical substation,,
Australia,Q408,http://www.wikidata.org/entity/Q29020743,Lindisfarne,Electrical substation,,
Australia,Q408,http://www.wikidata.org/entity/Q29020711,Scottsdale,Electrical substation,,
Australia,Q408,http://www.wikidata.org/entity/Q29020747,North Hobart,Electrical substation,,
Australia,Q408,http://www.wikidata.org/entity/Q29020722,Wayatinah,Electrical substation,,
Australia,Q408,http://www.wikidata.org/entity/Q29020744,Triabunna,Electrical substation,,
Australia,Q408,http://www.wikidata.org/entity/Q29020677,Emu Bay,Electrical substation,,
Australia,Q408,http://www.wikidata.org/entity/Q29020745,Sorell,Electrical substation,,
Australia,Q408,http://www.wikidata.org/entity/Q29020703,Hadspen,Electrical substation,,
Australia,Q408,http://www.wikidata.org/entity/Q29020696,Cethana,Electrical substation,,
Australia,Q408,http://www.wikidata.org/entity/Q29020730,New Norfolk,Electrical substation,,
Australia,Q408,http://www.wikidata.org/entity/Q29020673,Hampshire,Electrical substation,,
Australia,Q408,http://www.wikidata.org/entity/Q29020675,Savage River,Electrical substation,,
Australia,Q408,http://www.wikidata.org/entity/Q29020731,Boyer,Electrical substation,,
Australia,Q408,http://www.wikidata.org/entity/Q29842501,Gympie,Electrical substation,,
Australia,Q408,http://www.wikidata.org/entity/Q29020681,Wesley Vale,Electrical substation,,
Australia,Q408,http://www.wikidata.org/entity/Q29020725,Butlers Gorge,Electrical substation,,
Australia,Q408,http://www.wikidata.org/entity/Q29020701,Poatina,Electrical substation,,
Australia,Q408,http://www.wikidata.org/entity/Q29020719,Trevallyn,Electrical substation,,
Australia,Q408,http://www.wikidata.org/entity/Q29842568,Image Flat,Electrical substation,,
Australia,Q408,http://www.wikidata.org/entity/Q29588665,Fig Tree,Electrical substation,,
Australia,Q408,http://www.wikidata.org/entity/Q29843010,Burleigh Heads,Electrical substation,,
Australia,Q408,http://www.wikidata.org/entity/Q29020733,Kingston,Electrical substation,,
Australia,Q408,http://www.wikidata.org/entity/Q29842844,Jordan,Electrical substation,,
Australia,Q408,http://www.wikidata.org/entity/Q29020699,Fisher,Electrical substation,,
Australia,Q408,http://www.wikidata.org/entity/Q29020713,Norwood,Electrical substation,,
Australia,Q408,http://www.wikidata.org/entity/Q29020695,Wilmont,Electrical substation,,
Australia,Q408,http://www.wikidata.org/entity/Q29020692,Queenstown,Electrical substation,,
Australia,Q408,http://www.wikidata.org/entity/Q29020712,Derby,Electrical substation,,
Australia,Q408,http://www.wikidata.org/entity/Q29020729,Bridgewater,Electrical substation,,
Australia,Q408,http://www.wikidata.org/entity/Q29020740,Cluny,Electrical substation,,
Australia,Q408,http://www.wikidata.org/entity/Q29020674,Que,Electrical substation,,
Australia,Q408,http://www.wikidata.org/entity/Q29020742,Mornington,Electrical substation,,
Australia,Q408,http://www.wikidata.org/entity/Q29020746,Rokeby,Electrical substation,,
Australia,Q408,http://www.wikidata.org/entity/Q29020739,Repulse,Electrical substation,,
Australia,Q408,http://www.wikidata.org/entity/Q29020714,St Leonard,Electrical substation,,
Australia,Q408,http://www.wikidata.org/entity/Q29842986,Ibis,Electrical substation,,
Australia,Q408,http://www.wikidata.org/entity/Q29020689,Tribute,Electrical substation,,
Australia,Q408,http://www.wikidata.org/entity/Q29020715,St Marys,Electrical substation,,
Australia,Q408,http://www.wikidata.org/entity/Q29921726,Talinga,Electrical substation,,
Australia,Q408,http://www.wikidata.org/entity/Q29020700,Rowallan,Electrical substation,,
Australia,Q408,http://www.wikidata.org/entity/Q29020750,Creek Road,Electrical substation,,
Australia,Q408,http://www.wikidata.org/entity/Q29020694,Rosebury,Electrical substation,,
Australia,Q408,http://www.wikidata.org/entity/Q29020720,Mowbray,Electrical substation,,
Australia,Q408,http://www.wikidata.org/entity/Q29020748,Chapel Street,Electrical substation,,
Australia,Q408,http://www.wikidata.org/entity/Q29588671,Havilah,Electrical substation,,
Australia,Q408,http://www.wikidata.org/entity/Q29020727,Lake Echo,Electrical substation,,
Australia,Q408,http://www.wikidata.org/entity/Q29020688,John Butters,Electrical substation,,
Australia,Q408,http://www.wikidata.org/entity/Q29020704,Comalco,Electrical substation,,
Australia,Q408,http://www.wikidata.org/entity/Q29020737,Huon River,Electrical substation,,
Australia,Q408,http://www.wikidata.org/entity/Q29020683,Devils Gate,Electrical substation,,
Australia,Q408,http://www.wikidata.org/entity/Q29020672,Studland Bay,Electrical substation,,
Australia,Q408,http://www.wikidata.org/entity/Q29020708,Starwood,Electrical substation,,
Australia,Q408,http://www.wikidata.org/entity/Q29020690,Bastyan,Electrical substation,,
Australia,Q408,http://www.wikidata.org/entity/Q29020723,Catagunya,Electrical substation,,
Australia,Q408,http://www.wikidata.org/entity/Q29020697,Lemonthyme,Electrical substation,,
Australia,Q408,http://www.wikidata.org/entity/Q29020693,Makintosh,Electrical substation,,
Australia,Q408,http://www.wikidata.org/entity/Q29020671,Port Lata,Electrical substation,,
Australia,Q408,http://www.wikidata.org/entity/Q29020691,Newton Pumps,Electrical substation,,
Australia,Q408,http://www.wikidata.org/entity/Q29020721,Liapoota,Electrical substation,,
Australia,Q408,http://www.wikidata.org/entity/Q29020734,Knights Road,Electrical substation,,
Australia,Q408,http://www.wikidata.org/entity/Q29020738,Kermandie,Electrical substation,,
Australia,Q408,http://www.wikidata.org/entity/Q29020710,Mussellroe,Electrical substation,,
Australia,Q408,http://www.wikidata.org/entity/Q29020707,Tamar Valley Power Station,Electrical substation,,
Australia,Q408,http://www.wikidata.org/entity/Q29020709,Temco,Electrical substation,,
Australia,Q408,http://www.wikidata.org/entity/Q29843015,SSVSL,Electrical substation,,
Australia,Q408,http://www.wikidata.org/entity/Q29843053,SST114,Electrical substation,,
Australia,Q408,http://www.wikidata.org/entity/Q29843064,SSQR46,Electrical substation,,
Australia,Q408,http://www.wikidata.org/entity/Q29843146,SSJBB,Electrical substation,,
Australia,Q408,http://www.wikidata.org/entity/Q29843159,SSAFD,Electrical substation,,
Australia,Q408,http://www.wikidata.org/entity/Q29843175,SSMDH,Electrical substation,,
Australia,Q408,http://www.wikidata.org/entity/Q29843172,SSMTN,Electrical substation,,
Australia,Q408,http://www.wikidata.org/entity/Q29921627,SSQR50,Electrical substation,,
Australia,Q408,http://www.wikidata.org/entity/Q133827903,Walkaway Wind Farm Substation,Electrical substation,,
Australia,Q408,http://www.wikidata.org/entity/Q92740016,Lakeland,Electrical substation,,
Netherlands,Q55,http://www.wikidata.org/entity/Q17606947,Q17606947,Electrical substation,,
Netherlands,Q55,http://www.wikidata.org/entity/Q18771686,P.G.E.M. substation complex Arnhem,Electrical substation,,
Netherlands,Q55,http://www.wikidata.org/entity/Q114838851,Q114838851,Electrical substation,,
France,Q142,http://www.wikidata.org/entity/Q2304190,Q2304190,Electrical substation,,
France,Q142,http://www.wikidata.org/entity/Q129259607,Q129259607,Electrical substation,,
Germany,Q183,http://www.wikidata.org/entity/Q79120232,Q79120232,Electrical substation,,
Germany,Q183,http://www.wikidata.org/entity/Q63391069,Trafostation Kabelstrae,Electrical substation,,
Germany,Q183,http://www.wikidata.org/entity/Q115792989,Q115792989,Electrical substation,,
Germany,Q183,http://www.wikidata.org/entity/Q115793050,Q115793050,Electrical substation,,
Germany,Q183,http://www.wikidata.org/entity/Q115793077,Q115793077,Electrical substation,,
Germany,Q183,http://www.wikidata.org/entity/Q116788911,Q116788911,Electrical substation,,
Germany,Q183,http://www.wikidata.org/entity/Q106539410,Q106539410,Electrical substation,,
Germany,Q183,http://www.wikidata.org/entity/Q131572562,DolWin epsilon,Electrical substation,,
Germany,Q183,http://www.wikidata.org/entity/Q131572635,BorWin epsilon,Electrical substation,,
Germany,Q183,http://www.wikidata.org/entity/Q134996800,Q134996800,Electrical substation,,
Germany,Q183,http://www.wikidata.org/entity/Q134580933,Q134580933,Electrical substation,,
Czech Republic,Q213,http://www.wikidata.org/entity/Q110715181,Q110715181,Electrical substation,,
Czech Republic,Q213,http://www.wikidata.org/entity/Q120685729,Dasn substation,Electrical substation,,
Slovakia,Q214,http://www.wikidata.org/entity/Q59192608,Liptovsk Mara substation,Electrical substation,,
Switzerland,Q39,http://www.wikidata.org/entity/Q106695299,Unterwerk Vorderprttigau,Electrical substation,,
Switzerland,Q39,http://www.wikidata.org/entity/Q108462212,Poste lectrique de Romanel,Electrical substation,,
Norway,Q20,http://www.wikidata.org/entity/Q110665680,Q110665680,Electrical substation,,
Norway,Q20,http://www.wikidata.org/entity/Q110671996,Q110671996,Electrical substation,,
Norway,Q20,http://www.wikidata.org/entity/Q110672426,Q110672426,Electrical substation,,
Norway,Q20,http://www.wikidata.org/entity/Q113016483,Q113016483,Electrical substation,,
Norway,Q20,http://www.wikidata.org/entity/Q116431248,Q116431248,Electrical substation,,
Ukraine,Q212,http://www.wikidata.org/entity/Q20082302,Q20082302,Electrical substation,,
Spain,Q29,http://www.wikidata.org/entity/Q98060716,Q98060716,Electrical substation,,
People's Republic of China,Q148,http://www.wikidata.org/entity/Q11122997,Q11122997,Electrical substation,,
People's Republic of China,Q148,http://www.wikidata.org/entity/Q32169304,Q32169304,Electrical substation,,
People's Republic of China,Q148,http://www.wikidata.org/entity/Q108531450,Lotus Substation,Electrical substation,,
Finland,Q33,http://www.wikidata.org/entity/Q56400203,Yllikkl substation,Electrical substation,,
Sweden,Q34,http://www.wikidata.org/entity/Q18288495,Djursholms elektricitetsverk,Electrical substation,,
Sweden,Q34,http://www.wikidata.org/entity/Q118255910,Uppsala Stads Elektricitetsverk,Electrical substation,,
Uruguay,Q77,http://www.wikidata.org/entity/Q6813262,Melo HVDC Back-to-back station,Electrical substation,,
Estonia,Q191,http://www.wikidata.org/entity/Q111903059,Q111903059,Electrical substation,,
Armenia,Q399,http://www.wikidata.org/entity/Q42807662,Q42807662,Electrical substation,,
Bangladesh,Q902,http://www.wikidata.org/entity/Q111795951,Q111795951,Electrical substation,,
