country_name,country_qid,entity,label,type,latitude,longitude
Germany,Q183,http://www.wikidata.org/entity/Q15125781,Burghausen refinery,Oil refinery,48.1938,12.8392
Germany,Q183,http://www.wikidata.org/entity/Q15107079,Eurotank,Oil refinery,53.53388889,9.89666667
Germany,Q183,http://www.wikidata.org/entity/Q53513418,Gasolin-Raffinerie Dollbergen,Oil refinery,52.418333333,10.180277777
Germany,Q183,http://www.wikidata.org/entity/Q42916740,BP Ruhr-Raffinerie,Oil refinery,51.63555,6.69778
Germany,Q183,http://www.wikidata.org/entity/Q53513421,Esso-Raffinerie Köln,Oil refinery,51.005977,6.93196
Germany,Q183,http://www.wikidata.org/entity/Q1201668,Deurag-Nerag,Oil refinery,52.38594,9.84781
Germany,Q183,http://www.wikidata.org/entity/Q111976857,Total Refinery Mitteldeutschland,Oil refinery,51.285,12.0
Germany,Q183,http://www.wikidata.org/entity/Q1349579,Erdöl-Raffinerie Emsland,Oil refinery,52.5586,7.30944
Germany,Q183,http://www.wikidata.org/entity/Q2576244,Oil refinery and depot Wilhelmshaven,Oil refinery,53.612805555,8.096194444
Germany,Q183,http://www.wikidata.org/entity/Q14524622,PCK refinery,Oil refinery,53.1,14.24
Germany,Q183,http://www.wikidata.org/entity/Q1260981,Rheinland Raffinerie,Oil refinery,50.85972222,6.98444444
Germany,Q183,http://www.wikidata.org/entity/Q53596638,Caltex-Raffinerie Raunheim,Oil refinery,50.033555555,8.48275
Germany,Q183,http://www.wikidata.org/entity/Q15841584,Raffinerie Heide,Oil refinery,54.157777777,9.074166666
Germany,Q183,http://www.wikidata.org/entity/Q26794496,Mineralölwerk Lützkendorf,Oil refinery,51.295324,11.858237
Germany,Q183,http://www.wikidata.org/entity/Q107102829,Ebano Asphalt-AG,Oil refinery,,
Germany,Q183,http://www.wikidata.org/entity/Q117813125,Q117813125,Oil refinery,48.79161,11.48165
Germany,Q183,http://www.wikidata.org/entity/Q1782213,Raffinerie Salzbergen,Oil refinery,52.317,7.3478
Germany,Q183,http://www.wikidata.org/entity/Q15110396,Q15110396,Oil refinery,49.52472222,8.44444444
Germany,Q183,http://www.wikidata.org/entity/Q1761694,MiRO,Oil refinery,49.059317,8.329647
India,Q668,http://www.wikidata.org/entity/Q6935320,Mumbai Refinery Mahul,Oil refinery,19.011939,72.860086
India,Q668,http://www.wikidata.org/entity/Q5275564,Digboi Refinery,Oil refinery,27.39083333,95.61861111
India,Q668,http://www.wikidata.org/entity/Q7134170,Paradip Refinery,Oil refinery,20.247638888,86.598194444
India,Q668,http://www.wikidata.org/entity/Q16906345,Numaligarh Refinery,Oil refinery,,
India,Q668,http://www.wikidata.org/entity/Q17054290,Guwahati Refinery,Oil refinery,,
India,Q668,http://www.wikidata.org/entity/Q5620369,Guru Gobind Singh Refinery,Oil refinery,30.23,74.951944444
India,Q668,http://www.wikidata.org/entity/Q113987261,Manali Refinery,Oil refinery,13.160444444,80.277527777
India,Q668,http://www.wikidata.org/entity/Q6958498,Nagapattnam Refinery,Oil refinery,,
India,Q668,http://www.wikidata.org/entity/Q7935585,Visakhapatnam Refinery,Oil refinery,,
India,Q668,http://www.wikidata.org/entity/Q17018647,Bina Refinery,Oil refinery,24.2515,78.1587
India,Q668,http://www.wikidata.org/entity/Q4858511,Barauni Refinery,Oil refinery,25.466,85.987
India,Q668,http://www.wikidata.org/entity/Q5641276,Haldia Refinery,Oil refinery,22.03333333,88.13333333
India,Q668,http://www.wikidata.org/entity/Q4941822,Bongaigaon Refinery,Oil refinery,26.51583333,90.53166667
India,Q668,http://www.wikidata.org/entity/Q12417189,Essar Refinery,Oil refinery,22.33166667,69.74722222
India,Q668,http://www.wikidata.org/entity/Q61268627,Pachpadra Refinery,Oil refinery,25.94364,72.203672
India,Q668,http://www.wikidata.org/entity/Q7131186,Panipat Refinery,Oil refinery,29.470944444,76.87225
India,Q668,http://www.wikidata.org/entity/Q15982506,Mathura Refinery,Oil refinery,27.378305555,77.686444444
Russia,Q159,http://www.wikidata.org/entity/Q124299676,Nizhny Novgorod refinery,Oil refinery,,
Russia,Q159,http://www.wikidata.org/entity/Q124299826,Angarsk Petrochemical Refinery,Oil refinery,,
Russia,Q159,http://www.wikidata.org/entity/Q124299889,Novo-Ufa refinery,Oil refinery,,
Russia,Q159,http://www.wikidata.org/entity/Q654845,Ufaneftekhim,Oil refinery,54.933333333,56.066666666
Russia,Q159,http://www.wikidata.org/entity/Q17065651,Kirishi-2 Oil Refinery,Oil refinery,,
Russia,Q159,http://www.wikidata.org/entity/Q4269070,Kstovo Refinery,Oil refinery,,
Russia,Q159,http://www.wikidata.org/entity/Q4536582,Yaisky refinery,Oil refinery,,
Russia,Q159,http://www.wikidata.org/entity/Q104857611,JSC Antipinsky Refinery,Oil refinery,57.100027777,65.758722222
Russia,Q159,http://www.wikidata.org/entity/Q16829348,Chernigov Refinery,Oil refinery,55.6125,86.145
Russia,Q159,http://www.wikidata.org/entity/Q112960399,Perm refinery,Oil refinery,57.916666666,56.127777777
Russia,Q159,http://www.wikidata.org/entity/Q4334732,Omsk refinery,Oil refinery,,
Russia,Q159,http://www.wikidata.org/entity/Q55664215,Ryazan Oil Refinery,Oil refinery,54.564722222,39.748055555
Russia,Q159,http://www.wikidata.org/entity/Q4479115,Ufimsky refinery plant,Oil refinery,54.85,56.1
Russia,Q159,http://www.wikidata.org/entity/Q108817949,Volgograd Refinery,Oil refinery,48.493744,44.625778
Russia,Q159,http://www.wikidata.org/entity/Q4408468,Saratov Oil Refinery,Oil refinery,51.45055556,45.94388889
Russia,Q159,http://www.wikidata.org/entity/Q112960406,Afipsky refinery,Oil refinery,44.881666666,38.821944444
Russia,Q159,http://www.wikidata.org/entity/Q4337084,Orsk Oil Refinery,Oil refinery,51.247733,58.514986
Canada,Q16,http://www.wikidata.org/entity/Q7074257,Oakville Refinery,Oil refinery,43.3949,-79.7346
Canada,Q16,http://www.wikidata.org/entity/Q6074708,Irving Oil Refinery,Oil refinery,45.27888889,-66.0125
Canada,Q16,http://www.wikidata.org/entity/Q7622084,Strathcona Refinery,Oil refinery,53.5461,-113.392
Canada,Q16,http://www.wikidata.org/entity/Q6964327,Nanticoke Refinery,Oil refinery,42.8329,-80.0458
Canada,Q16,http://www.wikidata.org/entity/Q3417394,Montreal East Refinery,Oil refinery,45.6253,-73.5303
Canada,Q16,http://www.wikidata.org/entity/Q6906275,Montreal East Refinery,Oil refinery,45.6337,-73.5226
Canada,Q16,http://www.wikidata.org/entity/Q122979739,Port Credit Oil Refinery,Oil refinery,43.54461,-79.590245
Canada,Q16,http://www.wikidata.org/entity/Q131827488,Canada Oil Company,Oil refinery,,
Canada,Q16,http://www.wikidata.org/entity/Q5151115,Come By Chance Refinery,Oil refinery,47.79916667,-53.99583333
Canada,Q16,http://www.wikidata.org/entity/Q7074258,Oakville Refinery,Oil refinery,43.3816,-79.722
Canada,Q16,http://www.wikidata.org/entity/Q4999598,Burnaby Refinery,Oil refinery,49.29083333,-122.99666667
Canada,Q16,http://www.wikidata.org/entity/Q5009703,CCRL Refinery Complex,Oil refinery,50.4854,-104.5747
Canada,Q16,http://www.wikidata.org/entity/Q115678044,Jean Gaulin Refinery,Oil refinery,46.7566,-71.1957
Canada,Q16,http://www.wikidata.org/entity/Q6906318,Montreal Refinery,Oil refinery,45.6438,-73.5224
Canada,Q16,http://www.wikidata.org/entity/Q130782325,Sarnia Refinery - Sunoco & Suncor,Oil refinery,42.931323,-82.439921
Canada,Q16,http://www.wikidata.org/entity/Q5949397,Husky Lloydminster Refinery,Oil refinery,53.2896,-110.0197
Canada,Q16,http://www.wikidata.org/entity/Q23706051,Turner Valley Gas Plant,Oil refinery,50.671279,-114.269228
Brazil,Q155,http://www.wikidata.org/entity/Q10358466,Q10358466,Oil refinery,-5.127772,-36.380399
Brazil,Q155,http://www.wikidata.org/entity/Q10374966,Q10374966,Oil refinery,,
Brazil,Q155,http://www.wikidata.org/entity/Q10387751,Q10387751,Oil refinery,,
Brazil,Q155,http://www.wikidata.org/entity/Q18478356,Rio de Janeiro Petrochemical Complex,Oil refinery,-22.6708,-42.8467
Brazil,Q155,http://www.wikidata.org/entity/Q10358469,Refinaria Presidente Getúlio Vargas,Oil refinery,-25.568275,-49.36428611
Brazil,Q155,http://www.wikidata.org/entity/Q10358465,Refinaria Isaac Sabbá,Oil refinery,-3.14653889,-59.62552778
Brazil,Q155,http://www.wikidata.org/entity/Q10358461,"Refinaria Alberto Pasqualini (Canoas, Rio Grande do Sul, Brazil)",Oil refinery,-29.87247222,-51.16099167
Brazil,Q155,http://www.wikidata.org/entity/Q10358464,Landulpho Alves refinery,Oil refinery,-12.70524444,-38.56666944
Brazil,Q155,http://www.wikidata.org/entity/Q10358475,Q10358475,Oil refinery,-32.0432891,-52.088478
Brazil,Q155,http://www.wikidata.org/entity/Q10358471,Q10358471,Oil refinery,-22.71816944,-43.27061944
Brazil,Q155,http://www.wikidata.org/entity/Q10320175,Q10320175,Oil refinery,-3.7167347,-38.4732119
Brazil,Q155,http://www.wikidata.org/entity/Q10358462,Refinaria Gabriel Passos,Oil refinery,-19.97313333,-44.09616667
Brazil,Q155,http://www.wikidata.org/entity/Q10358463,Refinaria Henrique Lage,Oil refinery,-23.191667,-45.827222
Brazil,Q155,http://www.wikidata.org/entity/Q10358467,Refinaria Presidente Bernardes,Oil refinery,-23.86969444,-46.43308889
Brazil,Q155,http://www.wikidata.org/entity/Q10358472,Refinaria de Manguinhos,Oil refinery,-22.8856646,-43.2352214
Brazil,Q155,http://www.wikidata.org/entity/Q10358470,Refinaria de Capuava,Oil refinery,-23.6563206,-46.4816901
Brazil,Q155,http://www.wikidata.org/entity/Q10358458,Abreu e Lima Refinery,Oil refinery,-8.376852321,-35.008370565
United Kingdom,Q145,http://www.wikidata.org/entity/Q6552903,Lindsey Oil Refinery,Oil refinery,53.64063,-0.25782
United Kingdom,Q145,http://www.wikidata.org/entity/Q60753152,Occidental Refinery,Oil refinery,51.523,0.5353
United Kingdom,Q145,http://www.wikidata.org/entity/Q5617512,Gulf Refinery,Oil refinery,51.705,-4.992
United Kingdom,Q145,http://www.wikidata.org/entity/Q104844874,Heysham Refinery,Oil refinery,54.024166666,-2.886944444
United Kingdom,Q145,http://www.wikidata.org/entity/Q7694579,Teesside Refinery,Oil refinery,54.6338,-1.2189
United Kingdom,Q145,http://www.wikidata.org/entity/Q5399947,Esso Refinery,Oil refinery,51.713888888,-5.077777777
United Kingdom,Q145,http://www.wikidata.org/entity/Q29625285,Kent Refinery,Oil refinery,51.45,0.689
United Kingdom,Q145,http://www.wikidata.org/entity/Q7600090,Stanlow Oil Refinery,Oil refinery,53.2728,-2.84
United Kingdom,Q145,http://www.wikidata.org/entity/Q2127138,Coryton Refinery,Oil refinery,51.5134,0.51869
United Kingdom,Q145,http://www.wikidata.org/entity/Q5438770,Fawley Refinery,Oil refinery,50.833,-1.365
United Kingdom,Q145,http://www.wikidata.org/entity/Q5939818,Humber Refinery,Oil refinery,53.633,-0.252
United Kingdom,Q145,http://www.wikidata.org/entity/Q5595715,Grangemouth Refinery,Oil refinery,56.018,-3.698
United Kingdom,Q145,http://www.wikidata.org/entity/Q125291,Shell Haven,Oil refinery,51.5052,0.4902
United Kingdom,Q145,http://www.wikidata.org/entity/Q27957412,Llandarcy oil refinery,Oil refinery,51.646,-3.863
United Kingdom,Q145,http://www.wikidata.org/entity/Q7161972,Pembroke Refinery,Oil refinery,51.686,-5.029
United Kingdom,Q145,http://www.wikidata.org/entity/Q15253387,Milford Haven Refinery,Oil refinery,51.735,-5.06555556
People's Republic of China,Q148,http://www.wikidata.org/entity/Q123693093,Cangzhou oil refinery,Oil refinery,,
People's Republic of China,Q148,http://www.wikidata.org/entity/Q123693118,Jinling oil refinery,Oil refinery,,
People's Republic of China,Q148,http://www.wikidata.org/entity/Q123693129,Maoming oil refinery,Oil refinery,,
People's Republic of China,Q148,http://www.wikidata.org/entity/Q123693107,Qilu oil refinery,Oil refinery,,
People's Republic of China,Q148,http://www.wikidata.org/entity/Q123693073,Tianjin oil refinery,Oil refinery,,
People's Republic of China,Q148,http://www.wikidata.org/entity/Q123693125,Zhenhai oil refinery,Oil refinery,,
People's Republic of China,Q148,http://www.wikidata.org/entity/Q123739798,Anqing oil refinery,Oil refinery,,
People's Republic of China,Q148,http://www.wikidata.org/entity/Q123740108,Beihai oil refinery,Oil refinery,,
People's Republic of China,Q148,http://www.wikidata.org/entity/Q123739864,Lanzhou oil refinery,Oil refinery,,
People's Republic of China,Q148,http://www.wikidata.org/entity/Q123740164,Daqing Petrochemical Refinery,Oil refinery,,
People's Republic of China,Q148,http://www.wikidata.org/entity/Q123739844,Yanshan oil refinery,Oil refinery,,
People's Republic of China,Q148,http://www.wikidata.org/entity/Q123740003,Sinopec Guangzhou refinery,Oil refinery,,
People's Republic of China,Q148,http://www.wikidata.org/entity/Q123740203,Luoyang oil refinery,Oil refinery,,
People's Republic of China,Q148,http://www.wikidata.org/entity/Q123740394,Jingmen oil refinery,Oil refinery,,
Australia,Q408,http://www.wikidata.org/entity/Q98399618,Bulwer Island oil refinery,Oil refinery,-27.4034,153.134449
Australia,Q408,http://www.wikidata.org/entity/Q6450451,Kwinana Oil Refinery,Oil refinery,-32.2295,115.765
Australia,Q408,http://www.wikidata.org/entity/Q5137000,Clyde Refinery,Oil refinery,,
Australia,Q408,http://www.wikidata.org/entity/Q77023721,Altona oil refinery,Oil refinery,-37.85,144.85
Australia,Q408,http://www.wikidata.org/entity/Q7230956,Port Stanvac Refinery,Oil refinery,-35.110204,138.471234
Australia,Q408,http://www.wikidata.org/entity/Q77023949,Lytton oil refinery,Oil refinery,-27.415,153.157
Australia,Q408,http://www.wikidata.org/entity/Q106019141,Matraville Refinery,Oil refinery,-33.971,151.233
Australia,Q408,http://www.wikidata.org/entity/Q106159442,Eromanga Refinery,Oil refinery,-26.668,143.273
Australia,Q408,http://www.wikidata.org/entity/Q6446212,Kurnell Refinery,Oil refinery,-34.0173,151.2164
Australia,Q408,http://www.wikidata.org/entity/Q105988813,Westernport Refinery,Oil refinery,-38.349,145.213
Australia,Q408,http://www.wikidata.org/entity/Q77024153,Geelong oil refinery,Oil refinery,-38.0777744,144.3821741
United States,Q30,http://www.wikidata.org/entity/Q19605583,Laurel Refinery,Oil refinery,45.6597,-108.766
United States,Q30,http://www.wikidata.org/entity/Q4911959,Billings Refinery,Oil refinery,45.7803,-108.49
United States,Q30,http://www.wikidata.org/entity/Q4874965,Baytown Refinery,Oil refinery,29.739,-95.0106
United States,Q30,http://www.wikidata.org/entity/Q25004713,Tesoro Anacortes Refinery,Oil refinery,48.49666667,-122.56694444
United States,Q30,http://www.wikidata.org/entity/Q56062979,Mandan Refinery,Oil refinery,46.85,-100.88333333
United States,Q30,http://www.wikidata.org/entity/Q5351193,El Dorado Refinery,Oil refinery,,
United States,Q30,http://www.wikidata.org/entity/Q85756189,Deer Park Refinery,Oil refinery,29.7196,-95.132
United States,Q30,http://www.wikidata.org/entity/Q22101996,Shell Anacortes Refinery,Oil refinery,48.47027778,-122.55944444
United States,Q30,http://www.wikidata.org/entity/Q98098276,Gallup Refinery,Oil refinery,35.487888888,-108.427083333
United States,Q30,http://www.wikidata.org/entity/Q5253248,Delaware City Refinery,Oil refinery,39.5809,-75.6309
United States,Q30,http://www.wikidata.org/entity/Q16995993,Houston Refining,Oil refinery,,
United States,Q30,http://www.wikidata.org/entity/Q116921929,Lemont Refinery,Oil refinery,41.64,-88.058
United States,Q30,http://www.wikidata.org/entity/Q8032265,Wood River Refinery,Oil refinery,38.841,-90.066
United States,Q30,http://www.wikidata.org/entity/Q7230488,Port Arthur Refinery,Oil refinery,29.885,-93.9625
United States,Q30,http://www.wikidata.org/entity/Q7863264,U.S. Oil and Refining,Oil refinery,,
United States,Q30,http://www.wikidata.org/entity/Q7966964,Wamsutta Oil Refinery,Oil refinery,,
United States,Q30,http://www.wikidata.org/entity/Q131198969,Norco oil refinery,Oil refinery,,
United States,Q30,http://www.wikidata.org/entity/Q131227906,St. Charles refinery,Oil refinery,,
United States,Q30,http://www.wikidata.org/entity/Q19600644,Calumet Montana Refining,Oil refinery,47.5239,-111.291
United States,Q30,http://www.wikidata.org/entity/Q17509112,Chilkat Oil Company Refinery Site,Oil refinery,60.18737,-144.45047
United States,Q30,http://www.wikidata.org/entity/Q117884114,Pascagoula Refinery,Oil refinery,30.3436203,-88.4861104
United States,Q30,http://www.wikidata.org/entity/Q7356555,Rodeo San Francisco Refinery,Oil refinery,38.046042,-122.258663
United States,Q30,http://www.wikidata.org/entity/Q7195062,Pine Bend Refinery,Oil refinery,44.7667,-93.0417
United States,Q30,http://www.wikidata.org/entity/Q101584493,Commerce City Refinery,Oil refinery,39.80355,-104.947545
United States,Q30,http://www.wikidata.org/entity/Q101473274,Tuscaloosa Refinery,Oil refinery,33.198399,-87.606243
United States,Q30,http://www.wikidata.org/entity/Q121299824,Indian Refinery,Oil refinery,38.711989,-87.682689
United States,Q30,http://www.wikidata.org/entity/Q5053561,Catlettsburg Refinery,Oil refinery,38.3742,-82.5986
United States,Q30,http://www.wikidata.org/entity/Q4887938,Benicia Refinery,Oil refinery,38.07209,-122.1396
United States,Q30,http://www.wikidata.org/entity/Q4869481,Baton Rouge Refinery,Oil refinery,30.4836,-91.1806
United States,Q30,http://www.wikidata.org/entity/Q3014399,Bayway Refinery,Oil refinery,40.6372,-74.2144
United States,Q30,http://www.wikidata.org/entity/Q126213000,Sugar Creek refinery,Oil refinery,39.118789,-94.450298
United States,Q30,http://www.wikidata.org/entity/Q8055808,Yorktown Refinery,Oil refinery,37.2127,-76.4477
United States,Q30,http://www.wikidata.org/entity/Q19460532,Billings Refinery,Oil refinery,45.8117,-108.434
United States,Q30,http://www.wikidata.org/entity/Q35287721,Paulsboro Refinery,Oil refinery,39.84511,-75.26546
United States,Q30,http://www.wikidata.org/entity/Q5526240,Garyville Refinery,Oil refinery,30.0597,-90.5981
United States,Q30,http://www.wikidata.org/entity/Q114397358,Galveston Bay Refinery,Oil refinery,29.3775,-94.932833333
United States,Q30,http://www.wikidata.org/entity/Q5579358,Golden Eagle Refinery,Oil refinery,38.033363,-122.071907
United States,Q30,http://www.wikidata.org/entity/Q5092452,Cherry Point Refinery,Oil refinery,48.8814,-122.738
United States,Q30,http://www.wikidata.org/entity/Q47310208,McKee Refinery,Oil refinery,35.955,-101.881666666
United States,Q30,http://www.wikidata.org/entity/Q105047358,Texas City Refinery,Oil refinery,,
United States,Q30,http://www.wikidata.org/entity/Q7170816,Perth Amboy Refinery,Oil refinery,40.535,-74.266
United States,Q30,http://www.wikidata.org/entity/Q124672559,Big Spring Refinery,Oil refinery,32.2704151,-101.4153854
United States,Q30,http://www.wikidata.org/entity/Q24259683,Trainer Refinery,Oil refinery,39.82222222,-75.40444444
United States,Q30,http://www.wikidata.org/entity/Q114308773,Limetree Bay refinery,Oil refinery,,
United States,Q30,http://www.wikidata.org/entity/Q22022474,Ferndale Refinery,Oil refinery,48.8304,-122.6943
United States,Q30,http://www.wikidata.org/entity/Q7230873,Port Reading Refinery,Oil refinery,40.564,-74.249
United States,Q30,http://www.wikidata.org/entity/Q117883659,McPherson Refinery,Oil refinery,,
United States,Q30,http://www.wikidata.org/entity/Q117883879,Bradford Refinery,Oil refinery,,
United States,Q30,http://www.wikidata.org/entity/Q117883951,Atmore Refinery,Oil refinery,,
United States,Q30,http://www.wikidata.org/entity/Q117883904,Memphis Refinery,Oil refinery,,
United States,Q30,http://www.wikidata.org/entity/Q117883942,Saraland Refinery,Oil refinery,,
United States,Q30,http://www.wikidata.org/entity/Q117884246,Chalmette Refinery,Oil refinery,,
United States,Q30,http://www.wikidata.org/entity/Q117884254,Meraux Refinery,Oil refinery,,
United States,Q30,http://www.wikidata.org/entity/Q117922063,Marathon Salt Lake City Refinery,Oil refinery,,
United States,Q30,http://www.wikidata.org/entity/Q117922810,Chevron Salt Lake Refinery,Oil refinery,,
United States,Q30,http://www.wikidata.org/entity/Q117923822,Woods Cross Refinery,Oil refinery,,
United States,Q30,http://www.wikidata.org/entity/Q117924978,Silver Eagle Woods Cross Refinery,Oil refinery,,
United States,Q30,http://www.wikidata.org/entity/Q117925950,North Salt Lake Refinery,Oil refinery,,
United States,Q30,http://www.wikidata.org/entity/Q117927358,Silver Eagle Evanston Refinery,Oil refinery,,
United States,Q30,http://www.wikidata.org/entity/Q122583513,El Segundo refinery,Oil refinery,,
Saudi Arabia,Q851,http://www.wikidata.org/entity/Q16510565,Ras Tanura Refinery,Oil refinery,26.6919,50.1079
Saudi Arabia,Q851,http://www.wikidata.org/entity/Q12237534,Luberef refinery,Oil refinery,,
Saudi Arabia,Q851,http://www.wikidata.org/entity/Q20423286,Jazan Refinery,Oil refinery,,
Saudi Arabia,Q851,http://www.wikidata.org/entity/Q22689994,Jeddah Refinery,Oil refinery,,
Saudi Arabia,Q851,http://www.wikidata.org/entity/Q22689995,Rabigh oil refinery,Oil refinery,,
Saudi Arabia,Q851,http://www.wikidata.org/entity/Q22689993,Riyadh Refinery,Oil refinery,,
Saudi Arabia,Q851,http://www.wikidata.org/entity/Q22689992,Saudi Aramco Jubail Refinery,Oil refinery,,
Saudi Arabia,Q851,http://www.wikidata.org/entity/Q22689999,Yanbu' SAMREF Refinery,Oil refinery,,
Saudi Arabia,Q851,http://www.wikidata.org/entity/Q22689997,Yanbu Saudi Aramco Refinery,Oil refinery,,
Saudi Arabia,Q851,http://www.wikidata.org/entity/Q30750234,SATORP oil refinery,Oil refinery,,
Saudi Arabia,Q851,http://www.wikidata.org/entity/Q22689998,Yanbu Aramco Sinopec Refining Ltd,Oil refinery,,
Japan,Q17,http://www.wikidata.org/entity/Q126127859,Ichihara oil refinery,Oil refinery,,
Japan,Q17,http://www.wikidata.org/entity/Q126127947,Sakai oil refinery,Oil refinery,,
Japan,Q17,http://www.wikidata.org/entity/Q126127910,Yokkaichi oil refinery,Oil refinery,,
Japan,Q17,http://www.wikidata.org/entity/Q126131293,Muroran refinery,Oil refinery,,
Japan,Q17,http://www.wikidata.org/entity/Q126132502,Tokuyama refinery,Oil refinery,,
Japan,Q17,http://www.wikidata.org/entity/Q126133249,Aichi Minamihama refinery,Oil refinery,,
Japan,Q17,http://www.wikidata.org/entity/Q126133695,Aichi Kitahama refinery,Oil refinery,,
Japan,Q17,http://www.wikidata.org/entity/Q126134819,Shikoku refinery,Oil refinery,,
Japan,Q17,http://www.wikidata.org/entity/Q11226757,Marifu Refinery,Oil refinery,,
Japan,Q17,http://www.wikidata.org/entity/Q11226751,Negishi Yokohama Refinery,Oil refinery,,
Japan,Q17,http://www.wikidata.org/entity/Q11226747,Ohita Refinery,Oil refinery,33.26647222,131.68947222
Japan,Q17,http://www.wikidata.org/entity/Q16826197,Hokkaido Refinery,Oil refinery,42.6329406,141.6567966
Japan,Q17,http://www.wikidata.org/entity/Q11528049,Wakayama Refinery,Oil refinery,34.10519444,135.12038889
Italy,Q38,http://www.wikidata.org/entity/Q12525522,Milazzo oil refinery,Oil refinery,,
Italy,Q38,http://www.wikidata.org/entity/Q16594322,Livorno refinery,Oil refinery,43.584777,10.34338
Italy,Q38,http://www.wikidata.org/entity/Q3620614,API Ancona Refinery,Oil refinery,,
Italy,Q38,http://www.wikidata.org/entity/Q3943438,SARPOM,Oil refinery,,
Italy,Q38,http://www.wikidata.org/entity/Q7363000,Rome Refinery,Oil refinery,,
Italy,Q38,http://www.wikidata.org/entity/Q125083346,Q125083346,Oil refinery,37.213350198,15.173095232
Italy,Q38,http://www.wikidata.org/entity/Q114291800,Sannazzaro oil refinery,Oil refinery,,
Italy,Q38,http://www.wikidata.org/entity/Q114294324,Lukoil Impianti Nord Refinery,Oil refinery,,
Italy,Q38,http://www.wikidata.org/entity/Q114294682,Lukoil Impianti Sud Refinery,Oil refinery,,
Iraq,Q796,http://www.wikidata.org/entity/Q6858352,Q6858352,Oil refinery,,
Iraq,Q796,http://www.wikidata.org/entity/Q28936282,Power Plant in Dora,Oil refinery,33.27527778,44.4275
Iraq,Q796,http://www.wikidata.org/entity/Q17991536,Baiji oil refinery,Oil refinery,35.01156,43.49431
Iraq,Q796,http://www.wikidata.org/entity/Q56377061,Q56377061,Oil refinery,,
Iraq,Q796,http://www.wikidata.org/entity/Q114291325,Karbala oil refinery,Oil refinery,,
Iraq,Q796,http://www.wikidata.org/entity/Q114297944,Basra refinery,Oil refinery,,
Iraq,Q796,http://www.wikidata.org/entity/Q114300820,Shuaiba refinery,Oil refinery,,
Iraq,Q796,http://www.wikidata.org/entity/Q121546732,Kirkuk refinery,Oil refinery,,
Spain,Q29,http://www.wikidata.org/entity/Q19826580,Complex Petroquímic de Tarragona,Oil refinery,41.102141,1.22514
Spain,Q29,http://www.wikidata.org/entity/Q5790595,Gibraltar-San Roque Refinery,Oil refinery,36.1858,-5.39897
Spain,Q29,http://www.wikidata.org/entity/Q107392586,Escombreras oil refinery,Oil refinery,37.572855082,-0.923484268
Spain,Q29,http://www.wikidata.org/entity/Q97627632,La Rábida oil refinery,Oil refinery,37.185631601,-6.898670095
Spain,Q29,http://www.wikidata.org/entity/Q25905848,Oil refinery of Muskiz,Oil refinery,43.32767222,-3.10870556
Spain,Q29,http://www.wikidata.org/entity/Q12398795,A Coruña oil refinery,Oil refinery,43.351206705,-8.440411746
Spain,Q29,http://www.wikidata.org/entity/Q3929289,Refinería de Santa Cruz de Tenerife,Oil refinery,28.45277778,-16.26472222
Spain,Q29,http://www.wikidata.org/entity/Q87069547,Q87069547,Oil refinery,38.354502,-0.465347
Spain,Q29,http://www.wikidata.org/entity/Q6103453,Puertollano Refinery,Oil refinery,38.671432948,-4.053828267
Indonesia,Q252,http://www.wikidata.org/entity/Q123932967,Plaju oil refinery,Oil refinery,,
Indonesia,Q252,http://www.wikidata.org/entity/Q123933428,Sorong oil refinery,Oil refinery,,
Indonesia,Q252,http://www.wikidata.org/entity/Q123943888,Sei Pakning Refinery,Oil refinery,,
Indonesia,Q252,http://www.wikidata.org/entity/Q12505203,Cilacap oil refinery,Oil refinery,,
Indonesia,Q252,http://www.wikidata.org/entity/Q106264642,Balongan oil refinery,Oil refinery,,
Indonesia,Q252,http://www.wikidata.org/entity/Q114740307,Grass Root Refinery,Oil refinery,,
Indonesia,Q252,http://www.wikidata.org/entity/Q115293388,Dumai oil refinery,Oil refinery,,
Indonesia,Q252,http://www.wikidata.org/entity/Q115293794,Balikpapan oil refinery,Oil refinery,,
Romania,Q218,http://www.wikidata.org/entity/Q18547291,Dărmănești oil refinery,Oil refinery,46.360094444,26.442847222
Romania,Q218,http://www.wikidata.org/entity/Q7178884,Petrobrazi Refinery,Oil refinery,,
Romania,Q218,http://www.wikidata.org/entity/Q7179010,Petromidia Refinery,Oil refinery,,
Romania,Q218,http://www.wikidata.org/entity/Q130299281,Steaua Română refinerry from Moinești,Oil refinery,,
Romania,Q218,http://www.wikidata.org/entity/Q130323499,Moldonaphta refinerry from Lucăcești,Oil refinery,,
Romania,Q218,http://www.wikidata.org/entity/Q4795740,Arpechim Refinery,Oil refinery,44.8,24.93
Netherlands,Q55,http://www.wikidata.org/entity/Q2569045,Esso refinery in Botlek,Oil refinery,51.870556,4.300833
Netherlands,Q55,http://www.wikidata.org/entity/Q2546145,Q2546145,Oil refinery,,
Netherlands,Q55,http://www.wikidata.org/entity/Q2035024,Shell Pernis,Oil refinery,51.876281,4.346191
Netherlands,Q55,http://www.wikidata.org/entity/Q14525812,Zeeland Refinery,Oil refinery,51.444951,3.7304163
Netherlands,Q55,http://www.wikidata.org/entity/Q2935831,BP Europoort,Oil refinery,51.946363888,4.105152777
Netherlands,Q55,http://www.wikidata.org/entity/Q2681004,Gunvor Energy Rotterdam,Oil refinery,,
Mexico,Q96,http://www.wikidata.org/entity/Q98833946,Tula Refinery,Oil refinery,20.0487427,-99.2719035
Mexico,Q96,http://www.wikidata.org/entity/Q96192296,Refinería Lázaro Cárdenas del Río,Oil refinery,18.016944444,-94.551111111
Mexico,Q96,http://www.wikidata.org/entity/Q107051202,Dos Bocas Refinery,Oil refinery,18.422002986,-93.190859049
Mexico,Q96,http://www.wikidata.org/entity/Q38214236,Francisco I. Madero Refinery,Oil refinery,22.27027778,-97.80638889
Mexico,Q96,http://www.wikidata.org/entity/Q107365152,Ing. Antonio M. Amor Refinery,Oil refinery,20.573931111,-101.195716944
Mexico,Q96,http://www.wikidata.org/entity/Q107373897,Ing. Antonio Dovalí Jaime Refinery,Oil refinery,,
Mexico,Q96,http://www.wikidata.org/entity/Q114309422,Cadereyta Refinery,Oil refinery,,
Iran,Q794,http://www.wikidata.org/entity/Q4118481,Abadan Refinery,Oil refinery,30.345972222,48.274805555
Iran,Q794,http://www.wikidata.org/entity/Q5730379,Tabriz Oil Refinery Company,Oil refinery,,
Iran,Q794,http://www.wikidata.org/entity/Q97165770,Shazand Refinery,Oil refinery,34.003333333,49.476111111
Iran,Q794,http://www.wikidata.org/entity/Q5699698,Kermanshah Refinery,Oil refinery,34.351944444,47.103055555
Iran,Q794,http://www.wikidata.org/entity/Q5715313,Tehran Refinery,Oil refinery,35.54,51.425833333
Kuwait,Q817,http://www.wikidata.org/entity/Q29514016,Q29514016,Oil refinery,,
Kuwait,Q817,http://www.wikidata.org/entity/Q29514033,Mina Abd Allah,Oil refinery,,
Kuwait,Q817,http://www.wikidata.org/entity/Q29513970,Shuaiba refinery,Oil refinery,,
Kuwait,Q817,http://www.wikidata.org/entity/Q4705016,Al Zour Refinery,Oil refinery,,
Kuwait,Q817,http://www.wikidata.org/entity/Q114302189,Mina Al Ahmadi refinery,Oil refinery,,
South Korea,Q884,http://www.wikidata.org/entity/Q121611365,Daesan refinery,Oil refinery,,
South Korea,Q884,http://www.wikidata.org/entity/Q121611617,Ulsan refinery,Oil refinery,,
South Korea,Q884,http://www.wikidata.org/entity/Q121618838,Onsan refinery,Oil refinery,,
South Korea,Q884,http://www.wikidata.org/entity/Q121619042,Yeosu refinery,Oil refinery,,
South Korea,Q884,http://www.wikidata.org/entity/Q121619592,SK Incheon Petrochem,Oil refinery,,
France,Q142,http://www.wikidata.org/entity/Q3417396,Normandy Refinery,Oil refinery,49.4858,0.23509
France,Q142,http://www.wikidata.org/entity/Q3417401,Q3417401,Oil refinery,51.019069,2.259994
France,Q142,http://www.wikidata.org/entity/Q3417399,Raffinerie de Port-Jérôme-Gravenchon,Oil refinery,49.4766,0.55099
France,Q142,http://www.wikidata.org/entity/Q3417393,Lavéra Refinery,Oil refinery,43.3887,4.99736
France,Q142,http://www.wikidata.org/entity/Q3417389,Raffinerie de Feyzin,Oil refinery,45.6719,4.84306
France,Q142,http://www.wikidata.org/entity/Q585061,Q585061,Oil refinery,43.445,4.92722222
France,Q142,http://www.wikidata.org/entity/Q3417391,Oil refinerie of Grandpuits,Oil refinery,48.5888,2.94753
France,Q142,http://www.wikidata.org/entity/Q126927706,Bordeaux Refinery,Oil refinery,45.012222222,-0.529166666
Thailand,Q869,http://www.wikidata.org/entity/Q124253491,Sriracha oil refinery,Oil refinery,,
Thailand,Q869,http://www.wikidata.org/entity/Q124253551,Phra Khanong Refinery,Oil refinery,,
Thailand,Q869,http://www.wikidata.org/entity/Q124253585,Star Petroleum Refinery,Oil refinery,,
Thailand,Q869,http://www.wikidata.org/entity/Q124253630,Thai Oil Refinery,Oil refinery,,
Thailand,Q869,http://www.wikidata.org/entity/Q124256018,IRPC Refinery,Oil refinery,,
Turkey,Q43,http://www.wikidata.org/entity/Q6017970,Tüpraş İzmit Oil Refinery,Oil refinery,40.75,29.766666666
Turkey,Q43,http://www.wikidata.org/entity/Q6013148,Tüpraş İzmir Oil Refinery,Oil refinery,38.805,26.940555555
Turkey,Q43,http://www.wikidata.org/entity/Q5992824,STAR Refinery,Oil refinery,38.8,26.930555555
Turkey,Q43,http://www.wikidata.org/entity/Q25472342,Tüpraş Batman Oil Refinery,Oil refinery,37.88138889,41.14277778
Turkey,Q43,http://www.wikidata.org/entity/Q48815547,Tüpraş Kırıkkale Oil Refinery,Oil refinery,39.752981,33.463819
Denmark,Q35,http://www.wikidata.org/entity/Q12323486,Q12323486,Oil refinery,,
Denmark,Q35,http://www.wikidata.org/entity/Q12332599,Q12332599,Oil refinery,,
Denmark,Q35,http://www.wikidata.org/entity/Q12335113,Crossbridge Energy,Oil refinery,55.592,9.75165
Denmark,Q35,http://www.wikidata.org/entity/Q12336918,Kalundborg Refinery,Oil refinery,55.655,11.096944444
Taiwan,Q865,http://www.wikidata.org/entity/Q16928890,Dalin Refinery,Oil refinery,22.529388888,120.347361111
Taiwan,Q865,http://www.wikidata.org/entity/Q7215612,Mailiao Refinery,Oil refinery,23.792333333,120.194888888
Taiwan,Q865,http://www.wikidata.org/entity/Q17028074,Taoyuan oil refinery,Oil refinery,25.0334,121.308
Taiwan,Q865,http://www.wikidata.org/entity/Q15909831,Kaohsiung Refinery,Oil refinery,22.704435912,120.303683577
Syria,Q858,http://www.wikidata.org/entity/Q114316894,Baniyas Refinery,Oil refinery,35.21891,35.96786
Syria,Q858,http://www.wikidata.org/entity/Q12243471,Q12243471,Oil refinery,,
Syria,Q858,http://www.wikidata.org/entity/Q12243474,Homs Petroleum Refinery,Oil refinery,34.71738,36.63893
Syria,Q858,http://www.wikidata.org/entity/Q12243472,Baniyas Refinery,Oil refinery,35.216944444,35.959444444
Nigeria,Q1033,http://www.wikidata.org/entity/Q124260809,Kaduna Refinery,Oil refinery,,
Nigeria,Q1033,http://www.wikidata.org/entity/Q124260816,Warri Refinery,Oil refinery,,
Nigeria,Q1033,http://www.wikidata.org/entity/Q60748485,Dangote Refinery,Oil refinery,,
Nigeria,Q1033,http://www.wikidata.org/entity/Q121546865,Port Harcourt refinery,Oil refinery,,
Algeria,Q262,http://www.wikidata.org/entity/Q56033648,Skikda  Refinery,Oil refinery,36.874403,6.976233
Algeria,Q262,http://www.wikidata.org/entity/Q56053961,Algiers Refinery,Oil refinery,36.675873,3.116303
Algeria,Q262,http://www.wikidata.org/entity/Q3417377,Adrar Refinery,Oil refinery,28.2074,-0.155568
Algeria,Q262,http://www.wikidata.org/entity/Q3417379,Arzew Refinery,Oil refinery,35.8129,-0.261912
Venezuela,Q717,http://www.wikidata.org/entity/Q2219131,Paraguaná Refinery Complex,Oil refinery,11.74666667,-70.195
Venezuela,Q717,http://www.wikidata.org/entity/Q6103449,Puerto la Cruz refinery,Oil refinery,10.2219,-64.6204
Venezuela,Q717,http://www.wikidata.org/entity/Q5779930,Amuay refinery,Oil refinery,11.74666667,-70.195
Venezuela,Q717,http://www.wikidata.org/entity/Q5779953,El Palito oil refinery,Oil refinery,10.4825,-68.118611111
South Africa,Q258,http://www.wikidata.org/entity/Q131757270,Sapref oil refinery,Oil refinery,-29.97174,30.96612
South Africa,Q258,http://www.wikidata.org/entity/Q121308044,Engen refinery,Oil refinery,-29.9491,30.98419
South Africa,Q258,http://www.wikidata.org/entity/Q2369624,Secunda CTL,Oil refinery,-26.553694444,29.16575
South Africa,Q258,http://www.wikidata.org/entity/Q114306354,Natref refinery,Oil refinery,,
Poland,Q36,http://www.wikidata.org/entity/Q5529384,Gdańsk refinery,Oil refinery,54.347,18.736
Poland,Q36,http://www.wikidata.org/entity/Q65976364,Gdańsk refinery,Oil refinery,54.346477777,18.739591666
Poland,Q36,http://www.wikidata.org/entity/Q7265108,Płock refinery,Oil refinery,52.5858,19.6839
Pakistan,Q843,http://www.wikidata.org/entity/Q4818583,Attock Refinery,Oil refinery,,
Pakistan,Q843,http://www.wikidata.org/entity/Q7125687,Pakistan Refinery,Oil refinery,,
Pakistan,Q843,http://www.wikidata.org/entity/Q121545789,Gwadar refinery,Oil refinery,,
Vietnam,Q881,http://www.wikidata.org/entity/Q7022321,Nghi Son Refinery,Oil refinery,19.34222222,105.79777778
Vietnam,Q881,http://www.wikidata.org/entity/Q3041307,Dung Quat refinery,Oil refinery,15.3525,108.82972222
Vietnam,Q881,http://www.wikidata.org/entity/Q110996046,Long Son Refinery,Oil refinery,,
Kazakhstan,Q232,http://www.wikidata.org/entity/Q4072318,Atyrau oil refinery,Oil refinery,,
Kazakhstan,Q232,http://www.wikidata.org/entity/Q120979334,Pavlodar oil refinery,Oil refinery,,
Kazakhstan,Q232,http://www.wikidata.org/entity/Q120979399,Shymkent oil refinery,Oil refinery,,
German Democratic Republic,Q16957,http://www.wikidata.org/entity/Q111976857,Total Refinery Mitteldeutschland,Oil refinery,51.285,12.0
German Democratic Republic,Q16957,http://www.wikidata.org/entity/Q14524622,PCK refinery,Oil refinery,53.1,14.24
Austria,Q40,http://www.wikidata.org/entity/Q1781733,Oil refinery Vösendorf,Oil refinery,48.123548,16.315861
Austria,Q40,http://www.wikidata.org/entity/Q20740205,OMV Oil refinery Schwechat,Oil refinery,48.145387,16.4983
Austria,Q40,http://www.wikidata.org/entity/Q2127134,Q2127134,Oil refinery,48.2611,16.4079
Peru,Q419,http://www.wikidata.org/entity/Q20024790,La Brea y Pariñas,Oil refinery,,
Peru,Q419,http://www.wikidata.org/entity/Q20024814,La Pampilla Refinery,Oil refinery,-11.920593,-77.133465
Peru,Q419,http://www.wikidata.org/entity/Q19950531,Refinery of Talara,Oil refinery,-4.583962,-81.282294
Libya,Q1016,http://www.wikidata.org/entity/Q4116875,Zawiya Refinery,Oil refinery,,
Libya,Q1016,http://www.wikidata.org/entity/Q7278341,Ras Lanuf Refinery,Oil refinery,30.4747,18.5736
Hungary,Q28,http://www.wikidata.org/entity/Q118453851,Q118453851,Oil refinery,47.89235,21.02869
Hungary,Q28,http://www.wikidata.org/entity/Q114304545,MOL Duna Refinery,Oil refinery,,
Finland,Q33,http://www.wikidata.org/entity/Q18660939,Naantali refinery,Oil refinery,60.44725,22.09144444
Finland,Q33,http://www.wikidata.org/entity/Q18689092,Porvoo refinery,Oil refinery,60.31416667,25.525
United Arab Emirates,Q878,http://www.wikidata.org/entity/Q39049731,Ruwais Refinery,Oil refinery,24.106288,52.727833
United Arab Emirates,Q878,http://www.wikidata.org/entity/Q114303213,Fujairah refinery,Oil refinery,,
Czech Republic,Q213,http://www.wikidata.org/entity/Q130048852,Litvinov refinery,Oil refinery,,
Czech Republic,Q213,http://www.wikidata.org/entity/Q130049076,Kralupy refinery,Oil refinery,,
Sweden,Q34,http://www.wikidata.org/entity/Q1184868,Preemraff Lysekil,Oil refinery,58.34805556,11.41666667
Sweden,Q34,http://www.wikidata.org/entity/Q493050,Engelsbergs oljefabrik,Oil refinery,59.957222222,16.002777777
Greece,Q41,http://www.wikidata.org/entity/Q4034479,Aspropyrgos Refinery,Oil refinery,38.0323,23.5984
Greece,Q41,http://www.wikidata.org/entity/Q5170669,Corinth Refinery,Oil refinery,37.9222,23.0707
Bulgaria,Q219,http://www.wikidata.org/entity/Q901440,LUKOIL Neftochim Burgas,Oil refinery,42.54555556,27.33333333
Bulgaria,Q219,http://www.wikidata.org/entity/Q55240813,Plama Pleven Oil Refinery,Oil refinery,43.401209,24.489544
North Korea,Q423,http://www.wikidata.org/entity/Q25105079,Ponghwa Chemical Factory,Oil refinery,40.06666667,124.55
North Korea,Q423,http://www.wikidata.org/entity/Q25105078,Sungri Refinery,Oil refinery,42.31194444,130.34861111
Portugal,Q45,http://www.wikidata.org/entity/Q101273991,Porto Refinery,Oil refinery,41.209344,-8.706535
Portugal,Q45,http://www.wikidata.org/entity/Q101421676,Sines Refinery,Oil refinery,37.961777,-8.809464
Sudan,Q1049,http://www.wikidata.org/entity/Q7230962,Port Sudan Refinery,Oil refinery,19.598715,37.226296
Sri Lanka,Q854,http://www.wikidata.org/entity/Q61761953,Sapugaskanda Refinery,Oil refinery,6.965833333,79.958333333
Sri Lanka,Q854,http://www.wikidata.org/entity/Q65084514,Hambantota Refinery,Oil refinery,6.121388888,81.0725
Norway,Q20,http://www.wikidata.org/entity/Q28719627,Q28719627,Oil refinery,59.258424,10.495662
Norway,Q20,http://www.wikidata.org/entity/Q59199378,Mongstad Refinery,Oil refinery,60.81022,5.02979
Paraguay,Q733,http://www.wikidata.org/entity/Q7930312,Villa Elisa Refinery,Oil refinery,-25.3869172,-57.6039085
Ghana,Q117,http://www.wikidata.org/entity/Q7697962,Tema Oil Refinery,Oil refinery,5.67304,0.00562
Angola,Q916,http://www.wikidata.org/entity/Q10358476,Lobito Oil Refinery,Oil refinery,-12.329311,13.6093139
Singapore,Q334,http://www.wikidata.org/entity/Q16510567,ExxonMobil Singapore Chemical Plant,Oil refinery,1.27448,103.702
Mongolia,Q711,http://www.wikidata.org/entity/Q131675310,Mongol Refinery,Oil refinery,45.001388888,110.3485
Bahrain,Q398,http://www.wikidata.org/entity/Q114318873,Sitra Oil Refinery,Oil refinery,,
Israel,Q801,http://www.wikidata.org/entity/Q124285258,Haifa Refinery,Oil refinery,,
Principality of Moldavia,Q10957559,http://www.wikidata.org/entity/Q130326304,N. Choss distillery from Lucăcești,Oil refinery,,
Argentina,Q414,http://www.wikidata.org/entity/Q133254939,Q133254939,Oil refinery,-38.766666666,-62.283333333
Switzerland,Q39,http://www.wikidata.org/entity/Q2127126,Raffinerie Collombey,Oil refinery,46.285052,6.951792
Colombia,Q739,http://www.wikidata.org/entity/Q3417387,Cartagena Refinery,Oil refinery,10.315,-75.49722222
Soviet Union,Q15180,http://www.wikidata.org/entity/Q4269070,Kstovo Refinery,Oil refinery,,
United States Virgin Islands,Q11703,http://www.wikidata.org/entity/Q5917063,Hovensa,Oil refinery,17.70444444,-64.75527778
Curaçao,Q25279,http://www.wikidata.org/entity/Q6103445,Isla,Oil refinery,12.1343,-68.9332
New Zealand,Q664,http://www.wikidata.org/entity/Q6773242,Marsden Point Oil Refinery,Oil refinery,-35.840986,174.494734
Bangladesh,Q902,http://www.wikidata.org/entity/Q5330401,Eastern Refinery Limited,Oil refinery,22.16,91.48
German Reich,Q1206012,http://www.wikidata.org/entity/Q107102829,Ebano Asphalt-AG,Oil refinery,,
Azerbaijan,Q227,http://www.wikidata.org/entity/Q55704222,Heydar Aliyev Baku Oil Refinery,Oil refinery,40.406794,49.918732
Ireland,Q27,http://www.wikidata.org/entity/Q98399621,Whitegate refinery,Oil refinery,51.818888888,-8.2475
Philippines,Q928,http://www.wikidata.org/entity/Q104848936,Tabangao Refinery,Oil refinery,13.722083333,121.066027777
Chile,Q298,http://www.wikidata.org/entity/Q108122217,Refinería Aconcagua,Oil refinery,-32.927862325,-71.502005957
Zambia,Q953,http://www.wikidata.org/entity/Q96382026,Indeni Petroleum Refinery,Oil refinery,-13.039166666,28.68
Uruguay,Q77,http://www.wikidata.org/entity/Q110722911,La Teja Refinery,Oil refinery,-34.87515,-56.22998
Serbia,Q403,http://www.wikidata.org/entity/Q110046218,Pančevo oil refinery,Oil refinery,,
Croatia,Q224,http://www.wikidata.org/entity/Q114297321,Rijeka oil refinery,Oil refinery,,
Cameroon,Q1009,http://www.wikidata.org/entity/Q114293002,Limbé oil refinery,Oil refinery,,
Oman,Q842,http://www.wikidata.org/entity/Q111710552,Duqm Refinery,Oil refinery,19.68459,57.683
