country_name,country_qid,entity,label,type,latitude,longitude
Netherlands,Q55,http://www.wikidata.org/entity/Q124629751,Rhino,Battery storage power station,52.51736,5.54469
Netherlands,Q55,http://www.wikidata.org/entity/Q124629753,Leopard,Battery storage power station,53.31061,6.97634
Netherlands,Q55,http://www.wikidata.org/entity/Q124629752,Buffalo,Battery storage power station,52.51736,5.54568
United States,Q30,http://www.wikidata.org/entity/Q116723938,GMP Solar/Storage-Ferrisburgh Hybrid,Battery storage power station,44.133411,-73.14406
United States,Q30,http://www.wikidata.org/entity/Q116724493,Sweeny,Battery storage power station,29.055615,-95.68724
United States,Q30,http://www.wikidata.org/entity/Q116724342,"Maverick Solar 6, LLC",Battery storage power station,33.7,-115.38
United States,Q30,http://www.wikidata.org/entity/Q116723395,Fort Carson Battery Energy Storage System,Battery storage power station,38.745474,-104.7777
United States,Q30,http://www.wikidata.org/entity/Q116724382,Fish Springs,Battery storage power station,40.074741,-119.9742
United States,Q30,http://www.wikidata.org/entity/Q116724173,Partridgeville Hybrid CSG,Battery storage power station,42.571449,-72.25739
United States,Q30,http://www.wikidata.org/entity/Q116724494,Zapata,Battery storage power station,26.932675,-99.23371
United States,Q30,http://www.wikidata.org/entity/Q116723724,Cycz Solar Project CSG Hybrid,Battery storage power station,42.218,-71.9761
United States,Q30,http://www.wikidata.org/entity/Q116724174,Williamsville Hybrid CSG,Battery storage power station,42.469505,-72.06978
United States,Q30,http://www.wikidata.org/entity/Q116724201,"Johanna Energy Center, LLC",Battery storage power station,33.715016,-117.854
United States,Q30,http://www.wikidata.org/entity/Q116723554,"AES Kekaha Solar, LLC Hybrid",Battery storage power station,22.0006,-159.7621
United States,Q30,http://www.wikidata.org/entity/Q116724489,Loop 463,Battery storage power station,28.816475,-97.07487
United States,Q30,http://www.wikidata.org/entity/Q116724234,Dodge Flat,Battery storage power station,40.713024,-119.4672
United States,Q30,http://www.wikidata.org/entity/Q116723907,Chisholm Grid Energy Storage System,Battery storage power station,32.904444,-97.38611
United States,Q30,http://www.wikidata.org/entity/Q116723670,Fresno Bullard High School Hybrid,Battery storage power station,36.818646,-119.8104
United States,Q30,http://www.wikidata.org/entity/Q116724491,Pueblo BA,Battery storage power station,28.678935,-100.4637
United States,Q30,http://www.wikidata.org/entity/Q116723747,Hickory Park Solar Hybrid,Battery storage power station,31.269676,-84.17632
United States,Q30,http://www.wikidata.org/entity/Q116724147,CES Agawam Tuckahoe Solar Hybrid,Battery storage power station,42.059,-72.691
United States,Q30,http://www.wikidata.org/entity/Q116724421,"Horn Rapids Solar, Storage and Training",Battery storage power station,46.3529,-119.3222
United States,Q30,http://www.wikidata.org/entity/Q116723603,"Granby Solar, LLC CSG",Battery storage power station,42.22712,-72.5222
United States,Q30,http://www.wikidata.org/entity/Q116723726,West A&B Solar Project Hybrid CSG,Battery storage power station,42.0748,-72.0038
United States,Q30,http://www.wikidata.org/entity/Q116724221,Lily Solar Hybrid,Battery storage power station,32.533273,-96.42899
United States,Q30,http://www.wikidata.org/entity/Q116723414,Ryan Road Solar LLC Hybrid(CSG),Battery storage power station,42.2637,-72.0639
United States,Q30,http://www.wikidata.org/entity/Q116724366,East Brookfield Adams Road Solar LLC CSG,Battery storage power station,42.196032,-72.03084
United States,Q30,http://www.wikidata.org/entity/Q116724474,Alvin,Battery storage power station,29.433245,-95.24937
United States,Q30,http://www.wikidata.org/entity/Q116723937,GMP Solar/Storage-Milton Hybrid,Battery storage power station,44.392141,-73.10233
United States,Q30,http://www.wikidata.org/entity/Q116724475,Odessa,Battery storage power station,31.871315,-102.3984
United States,Q30,http://www.wikidata.org/entity/Q116724025,Middleton Solar Park,Battery storage power station,42.581678,-70.99867
United States,Q30,http://www.wikidata.org/entity/Q116724365,Ware Palmer Road Solar LLC CSG,Battery storage power station,42.247172,-72.27493
United States,Q30,http://www.wikidata.org/entity/Q116724286,Amaterasu LLC,Battery storage power station,42.519282,-71.6734
United States,Q30,http://www.wikidata.org/entity/Q116724397,"BWC Muddy Brook, LLC Hybrid",Battery storage power station,42.0966,-71.5054
United States,Q30,http://www.wikidata.org/entity/Q116723542,Partridge Hill Solar Hybrid,Battery storage power station,42.1189,-71.9371
United States,Q30,http://www.wikidata.org/entity/Q116723672,Fresno Hoover High School Hybrid,Battery storage power station,36.817816,-119.7707
United States,Q30,http://www.wikidata.org/entity/Q116723385,"Cronin Road Solar 1, LLC CSG Hybrid",Battery storage power station,42.1763,-72.154
United States,Q30,http://www.wikidata.org/entity/Q116724479,Magnolia TX,Battery storage power station,29.488335,-95.13395
United States,Q30,http://www.wikidata.org/entity/Q116724220,Saticoy,Battery storage power station,34.256691,-119.1573
United States,Q30,http://www.wikidata.org/entity/Q116724230,Azure Sky Solar,Battery storage power station,32.998948,-99.5985
United States,Q30,http://www.wikidata.org/entity/Q116723901,Taos Mesa Energy Facility Hybrid,Battery storage power station,36.44,-105.62
United States,Q30,http://www.wikidata.org/entity/Q116724094,Long Beach Convention Center,Battery storage power station,33.765236,-118.1894
United States,Q30,http://www.wikidata.org/entity/Q116724407,"BWC Lake Lashaway, LLC Hybrid",Battery storage power station,42.24,-72.0555
United States,Q30,http://www.wikidata.org/entity/Q116723606,"Owlville Creek Solar, LLC",Battery storage power station,43.08748,-75.77959
United States,Q30,http://www.wikidata.org/entity/Q116724092,Downey,Battery storage power station,33.919368,-118.1289
United States,Q30,http://www.wikidata.org/entity/Q116724410,ZPD-PT Solar Project 2017-023 LLC Hybrid CSG,Battery storage power station,42.07,-72.01
United States,Q30,http://www.wikidata.org/entity/Q116724478,Heights,Battery storage power station,29.389595,-94.94987
United States,Q30,http://www.wikidata.org/entity/Q116723673,Fresno Sunnyside High School Hybrid,Battery storage power station,36.734014,-119.7178
United States,Q30,http://www.wikidata.org/entity/Q116723900,Slate Hybrid,Battery storage power station,36.226955,-119.8948
United States,Q30,http://www.wikidata.org/entity/Q116724067,Randall Solar Project Hybrid,Battery storage power station,42.3921,-71.6611
United States,Q30,http://www.wikidata.org/entity/Q116723656,San Diego Zoo,Battery storage power station,32.739676,-117.1516
United States,Q30,http://www.wikidata.org/entity/Q116723939,GMP Solar/Storage-Essex Hybrid,Battery storage power station,44.285937,-73.02337
United States,Q30,http://www.wikidata.org/entity/Q116723906,Silverstrand Grid Energy Storage System,Battery storage power station,34.20774,-119.0798
United States,Q30,http://www.wikidata.org/entity/Q116724381,ZPD-PT Solar Project 2017-038 Hybrid LLC,Battery storage power station,42.516,-71.6734
United States,Q30,http://www.wikidata.org/entity/Q116723818,Allergan,Battery storage power station,33.67239,-117.8538
United States,Q30,http://www.wikidata.org/entity/Q116723635,Kearsarge Amesbury Hybrid,Battery storage power station,42.837376,-70.93867
United States,Q30,http://www.wikidata.org/entity/Q116723605,"Owlville Creek Solar 2, LLC",Battery storage power station,43.078888,-75.77222
United States,Q30,http://www.wikidata.org/entity/Q116724096,SOCCD,Battery storage power station,33.676445,-117.7773
United States,Q30,http://www.wikidata.org/entity/Q116724487,Bat Cave,Battery storage power station,30.737745,-99.23178
United States,Q30,http://www.wikidata.org/entity/Q116724476,Angleton,Battery storage power station,29.167065,-95.44065
United States,Q30,http://www.wikidata.org/entity/Q116724132,Athens - Coopers Corner BESS,Battery storage power station,45.458119,-93.26763
United States,Q30,http://www.wikidata.org/entity/Q116724340,Desert Harvest II LLC,Battery storage power station,33.8,-115.38
United States,Q30,http://www.wikidata.org/entity/Q116723722,Alicea Solar Project Hybrid CSG,Battery storage power station,42.0686,-72.0062
United States,Q30,http://www.wikidata.org/entity/Q116723723,McDougle-Mitchell Solar Project Hybrid CSG,Battery storage power station,42.1649,-72.0014
United States,Q30,http://www.wikidata.org/entity/Q116724282,Cape San Blas,Battery storage power station,29.732141,-85.39143
United States,Q30,http://www.wikidata.org/entity/Q116724090,Baker,Battery storage power station,33.656528,-117.6841
United States,Q30,http://www.wikidata.org/entity/Q116724155,Mount Kisco Landfill Solar & Storage CSG,Battery storage power station,41.195478,-73.73606
United States,Q30,http://www.wikidata.org/entity/Q116723999,Asheville-Rock Hill Battery,Battery storage power station,35.54012,-82.51738
United States,Q30,http://www.wikidata.org/entity/Q116724492,Ranchtown,Battery storage power station,29.617885,-98.73595
United States,Q30,http://www.wikidata.org/entity/Q116724412,ZPD-PT Solar Project 2017-021 LLC Hybrid CSG,Battery storage power station,42.1,-72.47
United States,Q30,http://www.wikidata.org/entity/Q116724329,Blanchard Road 2 Community Solar,Battery storage power station,44.25479,-76.01178
United States,Q30,http://www.wikidata.org/entity/Q116724332,Great Lakes Seaway Community Solar,Battery storage power station,44.25479,-76.01178
United States,Q30,http://www.wikidata.org/entity/Q116724330,NYS Rte 12 Community Solar,Battery storage power station,44.25479,-76.01178
United States,Q30,http://www.wikidata.org/entity/Q116724093,LAWRP,Battery storage power station,33.63778,-117.7138
United States,Q30,http://www.wikidata.org/entity/Q116723721,Hurteau Solar Project Hybrid,Battery storage power station,42.0248,-71.5925
United States,Q30,http://www.wikidata.org/entity/Q116723795,NY3 Battery,Battery storage power station,41.18512,-74.07467
United States,Q30,http://www.wikidata.org/entity/Q116723737,Walnut Unified School District Walnut HS Hybrid,Battery storage power station,34.02188,-117.8505
United States,Q30,http://www.wikidata.org/entity/Q116724488,Dickinson,Battery storage power station,29.461255,-95.05699
United States,Q30,http://www.wikidata.org/entity/Q116724066,Annese Solar Project Hybrid CSG,Battery storage power station,42.0755,-72.0052
United States,Q30,http://www.wikidata.org/entity/Q116724095,OCSD,Battery storage power station,33.693129,-117.9409
United States,Q30,http://www.wikidata.org/entity/Q116723536,2W Permian Solar Project Hybrid,Battery storage power station,32.116388,-102.5283
United States,Q30,http://www.wikidata.org/entity/Q116724373,"BWC Stony Brook, LLC Hybrid",Battery storage power station,42.6375,-71.4036
United States,Q30,http://www.wikidata.org/entity/Q116724477,Brazoria,Battery storage power station,29.062635,-95.57759
United States,Q30,http://www.wikidata.org/entity/Q116724281,Trenton,Battery storage power station,29.613561,-82.80689
United States,Q30,http://www.wikidata.org/entity/Q116723895,Cool Springs Solar (Hybrid),Battery storage power station,30.747916,-84.68049
United States,Q30,http://www.wikidata.org/entity/Q116723602,"Lansing Renewables, LLC",Battery storage power station,42.59251,-76.56563
United States,Q30,http://www.wikidata.org/entity/Q116724473,Lincoln Medical and Mental Health Center,Battery storage power station,40.816971,-73.92411
United States,Q30,http://www.wikidata.org/entity/Q116724285,Micanopy Energy Storage Facility,Battery storage power station,29.5112,-82.27483
United States,Q30,http://www.wikidata.org/entity/Q116723930,I25 Battery Storage,Battery storage power station,40.140285,-104.978
United States,Q30,http://www.wikidata.org/entity/Q116723509,Imeson Solar,Battery storage power station,30.456753,-81.71486
United States,Q30,http://www.wikidata.org/entity/Q116723757,Solar BESS Hybrid,Battery storage power station,33.979348,-84.55613
United States,Q30,http://www.wikidata.org/entity/Q116723896,Rawhide Prairie Solar Hybrid,Battery storage power station,40.857978,-105.0156
United States,Q30,http://www.wikidata.org/entity/Q116723377,"RT 52 Walden Solar 1, LLC Hybrid",Battery storage power station,41.5841,-74.2163
United States,Q30,http://www.wikidata.org/entity/Q116723819,DATS,Battery storage power station,33.70731,-117.8911
United States,Q30,http://www.wikidata.org/entity/Q116723978,Beebe Substation Battery Storage,Battery storage power station,42.48791,-71.04781
United States,Q30,http://www.wikidata.org/entity/Q116724284,Jennings Energy Storage Facility,Battery storage power station,30.603831,-83.09806
United States,Q30,http://www.wikidata.org/entity/Q116723862,Luna Storage,Battery storage power station,34.68325,-118.3053
United States,Q30,http://www.wikidata.org/entity/Q116723712,Rush Springs Energy Storage (BA),Battery storage power station,34.695647,-97.82971
United States,Q30,http://www.wikidata.org/entity/Q116723662,"Middletown Solar 1, LLC Hybrid CSG",Battery storage power station,41.3902,-74.5199
United States,Q30,http://www.wikidata.org/entity/Q116724091,CSU Long Beach,Battery storage power station,33.78383,-118.108
United States,Q30,http://www.wikidata.org/entity/Q116723592,Camp Atterbury Microgrid Hybrid,Battery storage power station,39.3617,-86.025
United States,Q30,http://www.wikidata.org/entity/Q116723429,UC Santa Cruz Solar,Battery storage power station,36.9911,-122.0532
United States,Q30,http://www.wikidata.org/entity/Q116724490,Lopeno,Battery storage power station,26.687614,-99.10942
United States,Q30,http://www.wikidata.org/entity/Q116723345,Syncarpha Tewksbury Hybrid CSG,Battery storage power station,42.593706,-71.17749
United States,Q30,http://www.wikidata.org/entity/Q116721440,Glendale Battery Energy Storage System,Battery storage power station,34.162327,-118.2837
United States,Q30,http://www.wikidata.org/entity/Q116723120,Hecate Energy Johanna Facility,Battery storage power station,33.714672,-117.8531
United States,Q30,http://www.wikidata.org/entity/Q116722480,Plumsted 537 LLC,Battery storage power station,40.1094,-74.49778
United States,Q30,http://www.wikidata.org/entity/Q116722899,East Hampton Energy Storage Center,Battery storage power station,40.961751,-72.20986
United States,Q30,http://www.wikidata.org/entity/Q116722713,Orange County Energy Storage 2,Battery storage power station,33.715536,-117.8543
United States,Q30,http://www.wikidata.org/entity/Q116721696,NRG Elbow Creek Energy Storage Project,Battery storage power station,32.167575,-101.4792
United States,Q30,http://www.wikidata.org/entity/Q116722715,Orange County Energy Storage 3,Battery storage power station,33.714896,-117.8543
United States,Q30,http://www.wikidata.org/entity/Q116723346,Syncarpha Puddon I Hybrid CSG,Battery storage power station,42.139492,-71.63313
United States,Q30,http://www.wikidata.org/entity/Q116721340,Hampshire College Hybrid,Battery storage power station,42.37686,-72.46914
United States,Q30,http://www.wikidata.org/entity/Q116721971,HEBT Irvine 1,Battery storage power station,33.713489,-117.8521
United States,Q30,http://www.wikidata.org/entity/Q116720971,Henrietta D Energy Storage LLC,Battery storage power station,36.228872,-119.9047
United States,Q30,http://www.wikidata.org/entity/Q116722107,Punkin Center Battery Storage,Battery storage power station,33.87581,-111.3136
United States,Q30,http://www.wikidata.org/entity/Q116722825,Noland Wastewater Treatment Plant Hybrid,Battery storage power station,36.082301,-94.06715
United States,Q30,http://www.wikidata.org/entity/Q116721781,Hopewell Valley High School Hybrid,Battery storage power station,40.328005,-74.8049
United States,Q30,http://www.wikidata.org/entity/Q116723358,East Pulaski BESS,Battery storage power station,43.546613,-76.10403
United States,Q30,http://www.wikidata.org/entity/Q116722826,Westside Wastewater Treatment Plant Hybrid,Battery storage power station,36.04135,-94.14008
United States,Q30,http://www.wikidata.org/entity/Q116722771,Commerce ESS,Battery storage power station,29.43445,-98.61765
United States,Q30,http://www.wikidata.org/entity/Q116721917,Vista Energy Storage System,Battery storage power station,33.203977,-117.2539
United States,Q30,http://www.wikidata.org/entity/Q116720974,Rabbit Hill Energy Storage Project,Battery storage power station,30.587828,-97.68702
United States,Q30,http://www.wikidata.org/entity/Q116722739,Knoxville Battery Energy Storage,Battery storage power station,41.315962,-93.06097
United States,Q30,http://www.wikidata.org/entity/Q116722768,Outer Cape Community Battery,Battery storage power station,42.060267,-70.19419
United States,Q30,http://www.wikidata.org/entity/Q116722997,Vallecito,Battery storage power station,34.407086,-119.5115
United States,Q30,http://www.wikidata.org/entity/Q116720980,McHenry Battery Storage,Battery storage power station,42.331411,-88.27435
United States,Q30,http://www.wikidata.org/entity/Q116722187,Caldwell Wastewater Treatment Plant Hybrid,Battery storage power station,40.838568,-74.31248
United States,Q30,http://www.wikidata.org/entity/Q116722925,San Diego International Airport BESS,Battery storage power station,32.7338,-117.1933
United States,Q30,http://www.wikidata.org/entity/Q116722092,"Stryker 22, L.L.C.",Battery storage power station,40.66538,-75.14447
United States,Q30,http://www.wikidata.org/entity/Q116722902,Montauk Energy Storage Center,Battery storage power station,41.03988,-71.96436
United States,Q30,http://www.wikidata.org/entity/Q116723347,Syncarpha Puddon II Hybrid CSG,Battery storage power station,42.133867,-71.63105
United States,Q30,http://www.wikidata.org/entity/Q116722456,Kingsberry Energy Storage System,Battery storage power station,30.266028,-97.68614
United States,Q30,http://www.wikidata.org/entity/Q116722378,Pima Energy Storage System,Battery storage power station,32.251647,-110.9913
United States,Q30,http://www.wikidata.org/entity/Q116722549,Ashburnham Energy Storage Project,Battery storage power station,42.671444,-71.9267
United States,Q30,http://www.wikidata.org/entity/Q116721534,Vanadium Redox Flow Battery Plant,Battery storage power station,32.682506,-116.9888
United States,Q30,http://www.wikidata.org/entity/Q116722463,Sunshine Gateway Solar Energy Center,Battery storage power station,30.29,-82.75
United States,Q30,http://www.wikidata.org/entity/Q116721148,Genentech-Oceanside Hybrid,Battery storage power station,33.211095,-117.2996
United States,Q30,http://www.wikidata.org/entity/Q116723353,Syncarpha Northampton Hybrid CSG,Battery storage power station,42.290526,-72.70944
United States,Q30,http://www.wikidata.org/entity/Q116723077,Nabb Battery Energy Storage System,Battery storage power station,38.501908,-85.69457
United States,Q30,http://www.wikidata.org/entity/Q116722484,Redstone Arsenal Hybrid,Battery storage power station,34.610987,-86.61155
United States,Q30,http://www.wikidata.org/entity/Q116721977,MA Solar Storage 1 Hybrid,Battery storage power station,42.450729,-71.74263
United States,Q30,http://www.wikidata.org/entity/Q116723352,Syncarpha Blandford Hybrid CSG,Battery storage power station,42.213074,-72.93886
United States,Q30,http://www.wikidata.org/entity/Q116721007,"Blue Summit Storage, LLC",Battery storage power station,34.299,-99.399
United States,Q30,http://www.wikidata.org/entity/Q116720944,CMEEC - Polaris Park Solar Hybrid,Battery storage power station,41.381256,-72.07689
United States,Q30,http://www.wikidata.org/entity/Q116720947,CMEEC - Norwich Stott St Solar Hybrid,Battery storage power station,41.576946,-72.10461
United States,Q30,http://www.wikidata.org/entity/Q116721985,Lockheed Martin RMS Syracuse,Battery storage power station,43.109574,-76.18922
United States,Q30,http://www.wikidata.org/entity/Q116721394,Mt. Tom Solar Project Hybrid,Battery storage power station,42.2686,-72.603
United States,Q30,http://www.wikidata.org/entity/Q116723350,Syncarpha Halifax Hybrid CSG,Battery storage power station,41.983721,-70.85683
United States,Q30,http://www.wikidata.org/entity/Q116721515,AES Lawai Solar Hybrid,Battery storage power station,21.90823,-159.492
United States,Q30,http://www.wikidata.org/entity/Q116721084,Tehachapi Energy Storage Project,Battery storage power station,35.123333,-118.38
United States,Q30,http://www.wikidata.org/entity/Q116723096,Wildcat I Energy Storage LLC,Battery storage power station,33.807988,-116.4898
United States,Q30,http://www.wikidata.org/entity/Q116721933,Pinal Central Energy Center Hybrid,Battery storage power station,32.87555,-111.54961
United States,Q30,http://www.wikidata.org/entity/Q116721670,Volkman Road Solar Array Hybrid,Battery storage power station,38.1492,-87.54821
United States,Q30,http://www.wikidata.org/entity/Q116722865,Eyak Service Center BESS,Battery storage power station,60.54047,-145.7408
United States,Q30,http://www.wikidata.org/entity/Q116723354,Syncarpha Northbridge I Hybrid(CSG),Battery storage power station,42.11239,-71.64826
United States,Q30,http://www.wikidata.org/entity/Q116723094,Acorn I Energy Storage LLC,Battery storage power station,34.196505,-118.9319
United States,Q30,http://www.wikidata.org/entity/Q116722804,Minuteman Energy Storage,Battery storage power station,42.567614,-71.09813
United States,Q30,http://www.wikidata.org/entity/Q116722170,UC Merced Solar Hybrid,Battery storage power station,37.365688,-120.4322
United States,Q30,http://www.wikidata.org/entity/Q116723066,Marengo Battery Storage LLC,Battery storage power station,42.252733,-88.63998
United States,Q30,http://www.wikidata.org/entity/Q116721530,Battle Mountain Solar Project,Battery storage power station,40.718433,-117.0614
United States,Q30,http://www.wikidata.org/entity/Q116723349,Syncarpha Leicester Hybrid CSG,Battery storage power station,42.254281,-71.88788
United States,Q30,http://www.wikidata.org/entity/Q116720985,Mira Loma Energy Storage Facility,Battery storage power station,34.006125,-117.5609
United States,Q30,http://www.wikidata.org/entity/Q116722116,ACUA,Battery storage power station,39.381969,-74.44515
United States,Q30,http://www.wikidata.org/entity/Q116721297,Millikan BESS,Battery storage power station,33.691,-117.833
United States,Q30,http://www.wikidata.org/entity/Q116722281,KCE NY 1,Battery storage power station,42.962412,-73.74651
United States,Q30,http://www.wikidata.org/entity/Q116723043,Acushnet Ball Plant 2,Battery storage power station,41.7197,-70.97138
United States,Q30,http://www.wikidata.org/entity/Q116722660,Kearny Mesa Storage LLC,Battery storage power station,32.815256,-117.1261
United States,Q30,http://www.wikidata.org/entity/Q116722924,Prospect Storage,Battery storage power station,29.149166,-95.65111
United States,Q30,http://www.wikidata.org/entity/Q116723187,Athens BESS,Battery storage power station,45.45,-93.24
United States,Q30,http://www.wikidata.org/entity/Q116722497,Gavilan Community College Solar Project,Battery storage power station,37.003832,-121.5936
United States,Q30,http://www.wikidata.org/entity/Q116721150,RE Garland,Battery storage power station,34.825267,-118.525
United States,Q30,http://www.wikidata.org/entity/Q116720978,Townsite Solar Project Hybrid,Battery storage power station,35.937336,-114.884
United States,Q30,http://www.wikidata.org/entity/Q116722706,Echo River Solar,Battery storage power station,30.296207,-82.86433
United States,Q30,http://www.wikidata.org/entity/Q116722349,Chocksett Rd Energy Storage Project,Battery storage power station,42.451836,-71.73775
United States,Q30,http://www.wikidata.org/entity/Q116722836,CED Northampton Solar LLC Hybrid,Battery storage power station,42.3057,-72.71064
United States,Q30,http://www.wikidata.org/entity/Q116722021,Pacific Union College BESS,Battery storage power station,38.570028,-122.444
United States,Q30,http://www.wikidata.org/entity/Q116720984,Willey Battery Utility,Battery storage power station,39.287747,-84.68031
United States,Q30,http://www.wikidata.org/entity/Q116722810,Happy Hollow CSG Hybrid,Battery storage power station,42.606995,-72.04529
United States,Q30,http://www.wikidata.org/entity/Q116723376,"Finchville Solar, LLC Hybrid CSG",Battery storage power station,41.4565,-74.5465
United States,Q30,http://www.wikidata.org/entity/Q116721972,HEBT Irvine 2,Battery storage power station,33.665246,-117.7682
United States,Q30,http://www.wikidata.org/entity/Q116721745,Beacon BESS 1,Battery storage power station,35.256526,-118.0275
United States,Q30,http://www.wikidata.org/entity/Q116722779,Searcy Solar Hybrid,Battery storage power station,35.233,-91.69
United States,Q30,http://www.wikidata.org/entity/Q116723147,Anoka BESS,Battery storage power station,45.32,-93.48
United States,Q30,http://www.wikidata.org/entity/Q116723049,98th Street Battery Storage Station,Battery storage power station,40.679137,-73.84019
United States,Q30,http://www.wikidata.org/entity/Q116721970,HEBT WLA 1,Battery storage power station,33.669266,-117.6468
United States,Q30,http://www.wikidata.org/entity/Q116722303,Diablo Energy Storage,Battery storage power station,38.028792,-121.9006
United States,Q30,http://www.wikidata.org/entity/Q116722735,Elkhorn Battery Energy Storage System,Battery storage power station,36.808039,-121.7818
United States,Q30,http://www.wikidata.org/entity/Q116721909,New Orleans Solar Power Plant,Battery storage power station,30.011409,-90.02397
United States,Q30,http://www.wikidata.org/entity/Q116722104,Parkview Battery,Battery storage power station,42.26,-85.64972
United States,Q30,http://www.wikidata.org/entity/Q116721459,Iron Horse Battery Storage Hybrid,Battery storage power station,32.098492,-110.8191
United States,Q30,http://www.wikidata.org/entity/Q116723355,Syncarpha Northbridge II Hybrid CSG,Battery storage power station,42.115652,-71.64405
United States,Q30,http://www.wikidata.org/entity/Q116722576,Station 9 Energy Storage System,Battery storage power station,42.187743,-70.97645
United States,Q30,http://www.wikidata.org/entity/Q116721127,MESA 1,Battery storage power station,47.936194,-122.2469
United States,Q30,http://www.wikidata.org/entity/Q116721012,Stanton Energy Reliability Center Hybrid,Battery storage power station,33.806801,-117.9858
United States,Q30,http://www.wikidata.org/entity/Q116722448,Cox Battery Energy Storage,Battery storage power station,37.135022,-93.32436
United States,Q30,http://www.wikidata.org/entity/Q116721698,Top Gun Energy Storage,Battery storage power station,32.876198,-117.1678
United States,Q30,http://www.wikidata.org/entity/Q116721752,Panasonic Carport Solar Hybrid,Battery storage power station,39.808719,-104.7815
United States,Q30,http://www.wikidata.org/entity/Q116722663,Meyersdale Battery,Battery storage power station,39.790739,-79.00205
United States,Q30,http://www.wikidata.org/entity/Q116722072,AES ES GILBERT,Battery storage power station,33.446804,-111.9563
United States,Q30,http://www.wikidata.org/entity/Q116723146,Hinesburg,Battery storage power station,44.36115,-73.07076
United States,Q30,http://www.wikidata.org/entity/Q116721147,"Blythe Solar 110, LLC",Battery storage power station,33.68,-114.742
United States,Q30,http://www.wikidata.org/entity/Q116720915,Escondido Energy Storage,Battery storage power station,33.124446,-117.1143
United States,Q30,http://www.wikidata.org/entity/Q116725344,County of San Diego COC Hybrid,Battery storage power station,32.833645,-117.1311
United States,Q30,http://www.wikidata.org/entity/Q116724680,Kearsarge Montague BD(CSG),Battery storage power station,42.585933,-72.55801
United States,Q30,http://www.wikidata.org/entity/Q116725108,Gilead Oceanside Solar Project,Battery storage power station,33.213138,-117.3042
United States,Q30,http://www.wikidata.org/entity/Q116724619,Old Cedar Solar Energy Storage,Battery storage power station,35.713,-79.788
United States,Q30,http://www.wikidata.org/entity/Q116724611,Hall Solar Energy Storage,Battery storage power station,34.799,-77.947
United States,Q30,http://www.wikidata.org/entity/Q116725014,South Goshen Community Solar,Battery storage power station,41.3927,-74.3478
United States,Q30,http://www.wikidata.org/entity/Q116725388,Santa Ana Storage 2,Battery storage power station,33.715016,-117.854
United States,Q30,http://www.wikidata.org/entity/Q116725410,77 Farm to Market Rd Hybrid(CSG),Battery storage power station,41.79455,-70.72339
United States,Q30,http://www.wikidata.org/entity/Q116724989,Cranberry Highway Solar LLC,Battery storage power station,41.787462,-70.74522
United States,Q30,http://www.wikidata.org/entity/Q116725357,"Clark Road Solar 1, LLC",Battery storage power station,42.59613,-72.02024
United States,Q30,http://www.wikidata.org/entity/Q116724692,Hot Springs Energy Storage & Microgrid,Battery storage power station,35.89071,-82.82513
United States,Q30,http://www.wikidata.org/entity/Q116724871,Swoose I,Battery storage power station,31.45115,-103.0962
United States,Q30,http://www.wikidata.org/entity/Q116725042,Noble Solar,Battery storage power station,33.261505,-97.23806
United States,Q30,http://www.wikidata.org/entity/Q116724561,TX7 Flat Top,Battery storage power station,31.19791,-103.3607
United States,Q30,http://www.wikidata.org/entity/Q116724520,Norwich Solar and Energy Storage CSG,Battery storage power station,42.552861,-75.52957
United States,Q30,http://www.wikidata.org/entity/Q116724603,Arlington Energy Center II,Battery storage power station,33.69088,-114.7749
United States,Q30,http://www.wikidata.org/entity/Q116724642,Arlington Energy Center III,Battery storage power station,33.69088,-114.7749
United States,Q30,http://www.wikidata.org/entity/Q116724564,Wilmot Energy Center LLC,Battery storage power station,32.043502,-110.8927
United States,Q30,http://www.wikidata.org/entity/Q116725094,Lincoln WWTF Hybrid,Battery storage power station,38.859,-121.346
United States,Q30,http://www.wikidata.org/entity/Q116724742,West Haydenville PJ Community Solar,Battery storage power station,42.3831,-72.7111
United States,Q30,http://www.wikidata.org/entity/Q116724982,UMass PV Lot 22,Battery storage power station,42.381,-72.533
United States,Q30,http://www.wikidata.org/entity/Q116725282,Crane Battery Energy Storage System,Battery storage power station,38.813511,-86.88642
United States,Q30,http://www.wikidata.org/entity/Q116724624,Gambit Energy Storage - Angleton Storage,Battery storage power station,29.16801,-95.44506
United States,Q30,http://www.wikidata.org/entity/Q116725324,Mt Pleasant Community Center,Battery storage power station,41.09999,-73.77155
United States,Q30,http://www.wikidata.org/entity/Q116724677,Kearny South Energy Storage,Battery storage power station,32.832886,-117.1323
United States,Q30,http://www.wikidata.org/entity/Q116725247,Coso Battery Storage,Battery storage power station,36.006945,-117.8106
United States,Q30,http://www.wikidata.org/entity/Q116724872,Triple Butte I,Battery storage power station,30.75956,-103.0679
United States,Q30,http://www.wikidata.org/entity/Q116724847,Edwards Sanborn E2,Battery storage power station,34.941507,-118.129
United States,Q30,http://www.wikidata.org/entity/Q116724576,"Grissom Solar, LLC",Battery storage power station,36.23891,-77.89755
United States,Q30,http://www.wikidata.org/entity/Q116724629,Wynwood Energy Storage,Battery storage power station,25.798978,-80.1971
United States,Q30,http://www.wikidata.org/entity/Q116724937,Bissell Solar and Battery Generator,Battery storage power station,43.007,-85.724
United States,Q30,http://www.wikidata.org/entity/Q116724578,Volney II,Battery storage power station,43.341,-76.354
United States,Q30,http://www.wikidata.org/entity/Q116724679,Kearsarge Haverhill,Battery storage power station,42.75288,-71.04697
United States,Q30,http://www.wikidata.org/entity/Q116724745,Maple(CSG),Battery storage power station,42.062793,-71.26433
United States,Q30,http://www.wikidata.org/entity/Q116725291,Dodge County Solar Hybrid,Battery storage power station,41.612,-96.752
United States,Q30,http://www.wikidata.org/entity/Q116724687,"Rabbitbrush Solar, LLC",Battery storage power station,34.83,-118.32
United States,Q30,http://www.wikidata.org/entity/Q116724766,Madison ESS,Battery storage power station,44.793,-69.876
United States,Q30,http://www.wikidata.org/entity/Q116725436,Danville BESS 1,Battery storage power station,36.578864,-79.38409
United States,Q30,http://www.wikidata.org/entity/Q116724764,Rumford ESS,Battery storage power station,44.532169,-70.51896
United States,Q30,http://www.wikidata.org/entity/Q116724846,Edwards Sanborn E1A,Battery storage power station,34.961922,-118.1242
United States,Q30,http://www.wikidata.org/entity/Q116724726,LeConte Energy Storage,Battery storage power station,32.677208,-115.6702
United States,Q30,http://www.wikidata.org/entity/Q116725139,Sealed Air Madera Solar Project,Battery storage power station,36.945582,-120.056
United States,Q30,http://www.wikidata.org/entity/Q116724933,ASD Wallum MA Solar LLC(CSG),Battery storage power station,42.011623,-71.76049
United States,Q30,http://www.wikidata.org/entity/Q116724743,Brookwood Drive Community Solar,Battery storage power station,41.59,-71.0942
United States,Q30,http://www.wikidata.org/entity/Q116724574,Arlington Microgrid,Battery storage power station,48.15614,-122.1502
United States,Q30,http://www.wikidata.org/entity/Q116724925,"BigBeau Solar, LLC",Battery storage power station,34.907041,-118.3441
United States,Q30,http://www.wikidata.org/entity/Q116725141,Chukar Battery Energy Storage System,Battery storage power station,39.55636,-119.4367
United States,Q30,http://www.wikidata.org/entity/Q116725178,Gilead Sciences La Verne Rooftop Solar,Battery storage power station,34.09623,-117.7819
United States,Q30,http://www.wikidata.org/entity/Q116725179,West Valley Mission CCD Solar Project,Battery storage power station,37.264377,-122.006
United States,Q30,http://www.wikidata.org/entity/Q116724765,Madison BTM,Battery storage power station,44.804,-69.841
United States,Q30,http://www.wikidata.org/entity/Q116725032,Byrd Ranch Storage,Battery storage power station,29.056,-95.686
United States,Q30,http://www.wikidata.org/entity/Q116724612,Ludie Brown Solar Energy Storage,Battery storage power station,34.831,-77.77
United States,Q30,http://www.wikidata.org/entity/Q116724963,South Sioux City Energy Storage,Battery storage power station,42.433124,-96.4072
United States,Q30,http://www.wikidata.org/entity/Q116724562,TX8 Worsham,Battery storage power station,31.35658,-103.3365
United States,Q30,http://www.wikidata.org/entity/Q116724536,ZPD-PT Solar Project 2017-006 LLC Hybrid,Battery storage power station,42.23,-72.21
United States,Q30,http://www.wikidata.org/entity/Q116724731,Sanborn BESS 2,Battery storage power station,35.027264,-118.1401
United States,Q30,http://www.wikidata.org/entity/Q116724718,Orangeville Storage,Battery storage power station,42.738686,-78.23973
United States,Q30,http://www.wikidata.org/entity/Q116725380,0 Hammond St CSG,Battery storage power station,41.808547,-70.72668
United States,Q30,http://www.wikidata.org/entity/Q116724843,276 Federal Rd(CSG),Battery storage power station,41.805144,-70.72524
United States,Q30,http://www.wikidata.org/entity/Q116724614,Lowe Solar Energy Storage,Battery storage power station,35.718429,-79.90948
United States,Q30,http://www.wikidata.org/entity/Q116724617,Spencer Meadow Solar Energy Storage,Battery storage power station,35.718429,-79.90948
United States,Q30,http://www.wikidata.org/entity/Q116725302,North Fork TX,Battery storage power station,30.748955,-97.87571
United States,Q30,http://www.wikidata.org/entity/Q116725277,Blanchard Road 1 Community Solar,Battery storage power station,44.25479,-76.01178
United States,Q30,http://www.wikidata.org/entity/Q116725346,SEPV Sierra,Battery storage power station,34.733011,-118.1385
United States,Q30,http://www.wikidata.org/entity/Q116725390,Edwards Sanborn S1,Battery storage power station,35.02769,-118.1328
United States,Q30,http://www.wikidata.org/entity/Q116725428,Charlemont A,Battery storage power station,42.642,-72.896
United States,Q30,http://www.wikidata.org/entity/Q116724870,Flower Valley I,Battery storage power station,31.197283,-103.3618
United States,Q30,http://www.wikidata.org/entity/Q116724767,Redwood Coast Airport Microgrid,Battery storage power station,40.967222,-124.1044
United States,Q30,http://www.wikidata.org/entity/Q116724676,Kearny North Energy Storage,Battery storage power station,32.83347,-117.1344
United States,Q30,http://www.wikidata.org/entity/Q116725409,71 Charlotte Furnace Rd Hybrid(CSG),Battery storage power station,41.797106,-70.7416
United States,Q30,http://www.wikidata.org/entity/Q116725138,Highland Park Borough Solar,Battery storage power station,40.4966,-74.41746
United States,Q30,http://www.wikidata.org/entity/Q116724845,Edwards Sanborn E3,Battery storage power station,34.946324,-118.1265
United States,Q30,http://www.wikidata.org/entity/Q116724730,Sanborn BESS 1,Battery storage power station,35.027264,-118.1392
United States,Q30,http://www.wikidata.org/entity/Q116724968,196 Tremont St(CSG),Battery storage power station,41.842933,-70.7307
United States,Q30,http://www.wikidata.org/entity/Q116724978,Crimson,Battery storage power station,33.57345,-114.8145
United States,Q30,http://www.wikidata.org/entity/Q116725109,Gilead Foster City Solar Project,Battery storage power station,37.568597,-122.278
United States,Q30,http://www.wikidata.org/entity/Q116724908,59 Federal Rd(CSG),Battery storage power station,41.828475,-70.72121
United States,Q30,http://www.wikidata.org/entity/Q116724683,Hudson - High Desert Hybrid,Battery storage power station,34.6365,-117.3724
United States,Q30,http://www.wikidata.org/entity/Q116725236,Cal Flats BESS,Battery storage power station,35.866665,-120.3294
United States,Q30,http://www.wikidata.org/entity/Q116725121,USS Itasca Clean Energy Solar LLC,Battery storage power station,47.21051,-93.51823
United States,Q30,http://www.wikidata.org/entity/Q116724849,NMSU Solar and Storage,Battery storage power station,32.286048,-106.7445
United States,Q30,http://www.wikidata.org/entity/Q116724563,TX2 Port Lavaca,Battery storage power station,28.58673,-96.68376
United States,Q30,http://www.wikidata.org/entity/Q116725411,299 Farm to Market Rd Hybrid(CSG),Battery storage power station,41.795092,-70.72704
United States,Q30,http://www.wikidata.org/entity/Q116725290,Burt County Solar Hybrid,Battery storage power station,41.863778,-96.23217
United States,Q30,http://www.wikidata.org/entity/Q116724723,"Dunstable Solar 1, LLC",Battery storage power station,42.6656,-71.5168
United States,Q30,http://www.wikidata.org/entity/Q116724566,Breckenridge Solar,Battery storage power station,42.17406,-72.3158
United States,Q30,http://www.wikidata.org/entity/Q116724570,Wilmarth Solar,Battery storage power station,42.025049,-71.35355
United States,Q30,http://www.wikidata.org/entity/Q116725315,Decorah Battery,Battery storage power station,43.324,-91.793
United States,Q30,http://www.wikidata.org/entity/Q116724755,Tierra Buena Energy Storage,Battery storage power station,39.17133,-121.6621
United States,Q30,http://www.wikidata.org/entity/Q116724913,UMass Boston,Battery storage power station,42.312977,-71.03637
United States,Q30,http://www.wikidata.org/entity/Q116724541,BYU - Hawaii,Battery storage power station,21.640774,-157.9251
United States,Q30,http://www.wikidata.org/entity/Q116724949,160 Tihonet Rd Hybrid(CSG),Battery storage power station,41.793414,-70.71267
United States,Q30,http://www.wikidata.org/entity/Q116724684,Blodgett Solar CSG,Battery storage power station,42.678889,-71.44511
United States,Q30,http://www.wikidata.org/entity/Q116725284,Auburn Solar Project,Battery storage power station,42.13,-71.87
United States,Q30,http://www.wikidata.org/entity/Q116724881,Edwards Sanborn S3,Battery storage power station,35.01644,-118.1225
United States,Q30,http://www.wikidata.org/entity/Q116725177,Google Moffett Park Solar Project,Battery storage power station,37.405313,-122.0175
United States,Q30,http://www.wikidata.org/entity/Q116724736,Glenmere Lake,Battery storage power station,41.3698,-74.366
United States,Q30,http://www.wikidata.org/entity/Q116724678,Kearsarge William Way,Battery storage power station,42.081919,-71.49245
United States,Q30,http://www.wikidata.org/entity/Q116724763,Ocean State BTM,Battery storage power station,41.938,-71.685
United States,Q30,http://www.wikidata.org/entity/Q116724947,Blythe Mesa Solar II,Battery storage power station,33.640813,-114.6803
United States,Q30,http://www.wikidata.org/entity/Q116725450,Portage Industrial Battery,Battery storage power station,43.552111,-89.48773
United States,Q30,http://www.wikidata.org/entity/Q116740400,Springbok 3 Solar Farm Hybrid,Battery storage power station,35.171153,-118.0017
United States,Q30,http://www.wikidata.org/entity/Q126913757,Superstition Energy Storage Facility,Battery storage power station,33.35904,-111.83115
United States,Q30,http://www.wikidata.org/entity/Q126913713,Sierra Estrella Energy Storage Facility,Battery storage power station,33.41056,-112.31426
United States,Q30,http://www.wikidata.org/entity/Q116740345,"AES ES ALAMITOS, LLC",Battery storage power station,33.770202,-118.0997
United States,Q30,http://www.wikidata.org/entity/Q116716416,Mililani South Solar Farm,Battery storage power station,21.427916,-158.0199
United States,Q30,http://www.wikidata.org/entity/Q116720911,Pala Energy Storage Yard,Battery storage power station,33.35651,-117.1136
United States,Q30,http://www.wikidata.org/entity/Q116697723,Hoef's Road Storage,Battery storage power station,31.031247,-103.4626
United States,Q30,http://www.wikidata.org/entity/Q14683300,McCoy Solar Energy Project,Battery storage power station,33.7167,-114.75
United States,Q30,http://www.wikidata.org/entity/Q116716133,Battery Energy Storage System,Battery storage power station,64.8167,-147.725
United States,Q30,http://www.wikidata.org/entity/Q116720601,Castle Gap Solar Hybrid,Battery storage power station,31.255,-102.272
United States,Q30,http://www.wikidata.org/entity/Q116697635,TX12 Silicon Hill Storage,Battery storage power station,30.41217,-97.57405
United States,Q30,http://www.wikidata.org/entity/Q116718599,ESS Battery Microgrid,Battery storage power station,57.799167,-152.4042
United States,Q30,http://www.wikidata.org/entity/Q116697729,Brookville Smart Bus Depot Microgrid,Battery storage power station,38.99903,-77.058
United States,Q30,http://www.wikidata.org/entity/Q116718933,Prosperity Energy Storage Facility Hybrid,Battery storage power station,35.001944,-106.6372
United States,Q30,http://www.wikidata.org/entity/Q116720767,Beech Ridge Energy Storage,Battery storage power station,38.0878,-80.4925
United States,Q30,http://www.wikidata.org/entity/Q116697712,Coyote Springs (TX),Battery storage power station,31.39471,-103.6303
United States,Q30,http://www.wikidata.org/entity/Q116697713,Faulkner,Battery storage power station,31.262381,-103.7949
United States,Q30,http://www.wikidata.org/entity/Q116720572,"Blythe Solar III, LLC Hybrid",Battery storage power station,33.656,-114.742
United States,Q30,http://www.wikidata.org/entity/Q116720860,ETT Presidio NaS Battery,Battery storage power station,29.566263,-104.3554
United States,Q30,http://www.wikidata.org/entity/Q116718286,Auwahi Wind Energy Hybrid,Battery storage power station,20.596,-156.318
United States,Q30,http://www.wikidata.org/entity/Q11990070,Moss Landing Power Plant,Battery storage power station,36.8049,-121.782
United States,Q30,http://www.wikidata.org/entity/Q116720894,KIUC Kapaia PV and BA Storage Project Hybrid,Battery storage power station,21.997272,-159.3792
United States,Q30,http://www.wikidata.org/entity/Q116720352,KCP&L SmartGrid Innovation Park,Battery storage power station,39.040263,-94.57122
United States,Q30,http://www.wikidata.org/entity/Q116697611,Brockelman Road Solar 2,Battery storage power station,42.48392,-71.71081
United States,Q30,http://www.wikidata.org/entity/Q116713079,Biola University Hybrid,Battery storage power station,33.906953,-118.0131
United States,Q30,http://www.wikidata.org/entity/Q116697533,Ocracoke Hybrid,Battery storage power station,35.109444,-75.97972
United States,Q30,http://www.wikidata.org/entity/Q116697813,Horizon Energy (PR) Hybrid,Battery storage power station,17.979256,-66.22053
United States,Q30,http://www.wikidata.org/entity/Q116720471,RE Tranquillity,Battery storage power station,36.581365,-120.4045
United States,Q30,http://www.wikidata.org/entity/Q116697721,Saddleback,Battery storage power station,31.332883,-103.4984
United States,Q30,http://www.wikidata.org/entity/Q116697722,Toyah Power Station,Battery storage power station,31.113909,-103.6655
United States,Q30,http://www.wikidata.org/entity/Q116719102,RE Mustang LLC,Battery storage power station,36.221667,-119.9031
United States,Q30,http://www.wikidata.org/entity/Q116720484,Grand Ridge Battery Projects,Battery storage power station,41.2269,-88.6836
United States,Q30,http://www.wikidata.org/entity/Q116720708,HMV Minster Energy Storage System,Battery storage power station,40.398844,-84.38727
United States,Q30,http://www.wikidata.org/entity/Q116697773,Blacksmith Road Solar 1,Battery storage power station,41.60169,-70.605
United States,Q30,http://www.wikidata.org/entity/Q116718655,Battery Utility of Ohio,Battery storage power station,40.260278,-82.83306
United States,Q30,http://www.wikidata.org/entity/Q116697724,Sunlight Storage,Battery storage power station,33.803,-115.402
United States,Q30,http://www.wikidata.org/entity/Q116713039,Great Lakes Hydro America - ME,Battery storage power station,45.647179,-68.70437
United States,Q30,http://www.wikidata.org/entity/Q116720551,Citrus Solar Energy Center Hybrid,Battery storage power station,27.320919,-81.80686
United States,Q30,http://www.wikidata.org/entity/Q116720811,Glacier Battery Storage,Battery storage power station,48.88804,-121.9462
United States,Q30,http://www.wikidata.org/entity/Q116697585,Orange Coast College PH2 Solar Project,Battery storage power station,33.672565,-117.9125
United States,Q30,http://www.wikidata.org/entity/Q116696412,Palaau Power Hybrid,Battery storage power station,21.106,-157.0647
United States,Q30,http://www.wikidata.org/entity/Q116697016,Nantucket Hybrid,Battery storage power station,41.2583,-70.0517
United States,Q30,http://www.wikidata.org/entity/Q116712624,VESI Pomona,Battery storage power station,34.059444,-117.7742
United States,Q30,http://www.wikidata.org/entity/Q116720808,Salem Smart Power Center,Battery storage power station,44.922,-123.0183
United States,Q30,http://www.wikidata.org/entity/Q4878734,Beckjord Power Station,Battery storage power station,38.9921,-84.2972
United States,Q30,http://www.wikidata.org/entity/Q116697638,TX23 Roughneck Storage,Battery storage power station,29.15923,-95.6626
United States,Q30,http://www.wikidata.org/entity/Q96419470,Tehachapi Energy Storage Project,Battery storage power station,35.123333333,-118.38
United States,Q30,http://www.wikidata.org/entity/Q116720912,Ortega Highway Energy Storage,Battery storage power station,33.562061,-117.5438
United States,Q30,http://www.wikidata.org/entity/Q116720706,Clinton Battery,Battery storage power station,39.295883,-83.96078
United States,Q30,http://www.wikidata.org/entity/Q116720871,Stafford Hill Solar Hybrid,Battery storage power station,43.619444,-72.95028
United States,Q30,http://www.wikidata.org/entity/Q116697633,TX11 Republic Road Storage,Battery storage power station,30.881424,-96.62542
United States,Q30,http://www.wikidata.org/entity/Q116718287,Foothills Solar Plant Hybrid,Battery storage power station,32.6396,-114.4308
United States,Q30,http://www.wikidata.org/entity/Q116716116,Cotton Center Solar Hybrid,Battery storage power station,33.034722,-112.6617
United States,Q30,http://www.wikidata.org/entity/Q116720908,GMP Solar - Panton Hybrid,Battery storage power station,44.085795,-73.19539
United States,Q30,http://www.wikidata.org/entity/Q15222103,Green Mountain Wind Energy Center,Battery storage power station,39.84948056,-79.06836389
United States,Q30,http://www.wikidata.org/entity/Q11965001,DeCordova Steam Electric Station,Battery storage power station,32.4036,-97.70145
United States,Q30,http://www.wikidata.org/entity/Q99771957,Gateway Energy Storage,Battery storage power station,32.570555555,-116.910833333
United States,Q30,http://www.wikidata.org/entity/Q116720523,Manatee Solar Energy Center,Battery storage power station,27.607469,-82.35528
United States,Q30,http://www.wikidata.org/entity/Q116697620,Ventura,Battery storage power station,41.668886,-70.99138
United States,Q30,http://www.wikidata.org/entity/Q116697764,Lancaster Area Battery,Battery storage power station,34.6864,-118.3045
United States,Q30,http://www.wikidata.org/entity/Q116715605,Notrees Windpower Hybrid,Battery storage power station,31.995,-102.8283
United States,Q30,http://www.wikidata.org/entity/Q116697711,Cedarville (TX),Battery storage power station,31.514106,-103.4524
United States,Q30,http://www.wikidata.org/entity/Q116697718,Lonestar,Battery storage power station,31.594864,-103.2498
United States,Q30,http://www.wikidata.org/entity/Q116720476,AES Warrior Run Energy Storage Project,Battery storage power station,39.593075,-78.74533
United States,Q30,http://www.wikidata.org/entity/Q116697742,Swoose II,Battery storage power station,31.45115,-103.3618
United States,Q30,http://www.wikidata.org/entity/Q116720913,Canyon Crest Academy,Battery storage power station,32.95907,-117.1916
United States,Q30,http://www.wikidata.org/entity/Q116697740,Flower Valley II,Battery storage power station,31.197285,-103.3618
United States,Q30,http://www.wikidata.org/entity/Q116697710,Caterina,Battery storage power station,28.34705,-99.6737
United States,Q30,http://www.wikidata.org/entity/Q116697636,TX13 Endurance Park Storage,Battery storage power station,32.85583,-100.9917
United States,Q30,http://www.wikidata.org/entity/Q116719828,KRS I Anahola Solar Hybrid,Battery storage power station,22.131667,-159.3031
United States,Q30,http://www.wikidata.org/entity/Q116720512,Babcock Solar Energy Center Hybrid,Battery storage power station,26.861592,-81.75101
United States,Q30,http://www.wikidata.org/entity/Q7562243,Sonoran Solar Energy,Battery storage power station,33.2434,-112.5425
United States,Q30,http://www.wikidata.org/entity/Q112170265,Manatee Energy Storage Center,Battery storage power station,27.597788055,-82.349193055
United States,Q30,http://www.wikidata.org/entity/Q12010683,William F Wyman Hybrid Power Plant,Battery storage power station,43.7508,-70.1567
United States,Q30,http://www.wikidata.org/entity/Q116697744,Crossett Power Management LLC,Battery storage power station,31.191687,-102.3172
United States,Q30,http://www.wikidata.org/entity/Q116720571,"Blythe Solar II, LLC",Battery storage power station,33.68,-114.73
United States,Q30,http://www.wikidata.org/entity/Q116718728,Sierra Nevada Brewing Co Hybrid,Battery storage power station,39.724167,-121.8153
United States,Q30,http://www.wikidata.org/entity/Q116720910,Borrego Springs Energy Storage,Battery storage power station,33.27011,-116.3496
United States,Q30,http://www.wikidata.org/entity/Q116697720,Rattlesnake (TX),Battery storage power station,31.568978,-103.2266
United States,Q30,http://www.wikidata.org/entity/Q116696873,Pebbly Beach Generating Station Hybrid,Battery storage power station,33.333056,-118.3103
United States,Q30,http://www.wikidata.org/entity/Q116718690,OCI Alamo Solar I Hybrid,Battery storage power station,29.271667,-98.44472
United States,Q30,http://www.wikidata.org/entity/Q116720907,Cedartown Battery Energy Storage Project,Battery storage power station,34.041026,-85.22325
United States,Q30,http://www.wikidata.org/entity/Q116716424,FPL Energy Illinois Wind LLC Hybrid,Battery storage power station,41.7678,-88.8867
United States,Q30,http://www.wikidata.org/entity/Q116718472,Marshalltown Generating Station,Battery storage power station,42.043333,-92.87278
United States,Q30,http://www.wikidata.org/entity/Q116697803,Oriana Energy Hybrid,Battery storage power station,18.475032,-67.04641
United States,Q30,http://www.wikidata.org/entity/Q116697618,Faunce Corner Community Solar,Battery storage power station,41.672831,-70.9895
United States,Q30,http://www.wikidata.org/entity/Q116716135,University of California San Diego Hybrid,Battery storage power station,32.8747,-117.2392
United States,Q30,http://www.wikidata.org/entity/Q116720914,El Cajon Energy Storage,Battery storage power station,32.8115,-117.0505
Belgium,Q31,http://www.wikidata.org/entity/Q124629755,Green Turtle,Battery storage power station,51.0484,5.6948
Belgium,Q31,http://www.wikidata.org/entity/Q124629754,Blue Marlin,Battery storage power station,51.1236,5.7742
Namibia,Q1030,http://www.wikidata.org/entity/Q110933453,Erongo Battery Energy Storage System,Battery storage power station,-21.496944444,16.027777777
Australia,Q408,http://www.wikidata.org/entity/Q125232391,Kwinana Battery Energy Storage System 1,Battery storage power station,-32.198337,115.775155
Australia,Q408,http://www.wikidata.org/entity/Q125495010,Waroona BESS,Battery storage power station,-32.832643,115.706596
Australia,Q408,http://www.wikidata.org/entity/Q130899765,Cunderdin Solar Farm,Battery storage power station,-31.6487,117.278
Australia,Q408,http://www.wikidata.org/entity/Q131275914,Kemerton BESS,Battery storage power station,-33.1364367,115.736385
Australia,Q408,http://www.wikidata.org/entity/Q130425514,Waroona Renewable Energy Hub,Battery storage power station,-32.897124,115.808681
Australia,Q408,http://www.wikidata.org/entity/Q110028566,Victorian Big Battery,Battery storage power station,-38.04,144.29
Australia,Q408,http://www.wikidata.org/entity/Q125494783,Kwinana Battery Energy Storage System 2,Battery storage power station,-32.199615,115.773899
Australia,Q408,http://www.wikidata.org/entity/Q125478570,Cunderdin BESS,Battery storage power station,-31.6598,117.22687
Australia,Q408,http://www.wikidata.org/entity/Q133441831,Merredin Big Battery,Battery storage power station,-31.535317,118.226734
Australia,Q408,http://www.wikidata.org/entity/Q81954527,Gannawarra Energy Storage System,Battery storage power station,-35.734,143.78
Australia,Q408,http://www.wikidata.org/entity/Q55608875,Dalrymple ESCRI battery,Battery storage power station,-34.936,137.744
Australia,Q408,http://www.wikidata.org/entity/Q69243821,Ballarat Energy Storage System,Battery storage power station,-37.5675,143.919888888
Australia,Q408,http://www.wikidata.org/entity/Q134210188,Dinawan Energy Hub,Battery storage power station,-35.057388888,145.788805555
Australia,Q408,http://www.wikidata.org/entity/Q130282688,Port Hedland BESS,Battery storage power station,-20.433150361,118.556009169
Australia,Q408,http://www.wikidata.org/entity/Q133720667,Kondinin Energy Storage and Solar,Battery storage power station,-32.4589,118.2495
Australia,Q408,http://www.wikidata.org/entity/Q129871111,Eraring battery energy storage project Stage 1,Battery storage power station,-33.06432,151.51638
Australia,Q408,http://www.wikidata.org/entity/Q129873373,Eraring battery energy storage project Stage 2,Battery storage power station,-33.06223,151.521359
Australia,Q408,http://www.wikidata.org/entity/Q125482429,Collie Battery,Battery storage power station,-33.30845,116.27984
Australia,Q408,http://www.wikidata.org/entity/Q51636003,Hornsdale Power Reserve,Battery storage power station,-33.08587,138.51834
Australia,Q408,http://www.wikidata.org/entity/Q133465225,KWINANA ESR2,Battery storage power station,-32.198336944,115.775155
Australia,Q408,http://www.wikidata.org/entity/Q134451021,Merredin BESS,Battery storage power station,-31.4809,118.2745
Australia,Q408,http://www.wikidata.org/entity/Q133465099,Collie BESS Stage 2,Battery storage power station,-33.30845,116.279838888
Australia,Q408,http://www.wikidata.org/entity/Q125477125,Collie Battery Energy Storage System,Battery storage power station,-33.33141,116.23499
Australia,Q408,http://www.wikidata.org/entity/Q125494930,Muchea Battery,Battery storage power station,-31.5488581,115.6285548
Australia,Q408,http://www.wikidata.org/entity/Q125477705,BESS Wagerup,Battery storage power station,-32.915431,115.917348
United Kingdom,Q145,http://www.wikidata.org/entity/Q116878879,Nursling Battery,Battery storage power station,50.942355,-1.484869
United Kingdom,Q145,http://www.wikidata.org/entity/Q116884580,Whitelee Battery,Battery storage power station,55.6954,-4.17331
United Kingdom,Q145,http://www.wikidata.org/entity/Q116878862,Hawkers Hill Energy Park,Battery storage power station,51.013772,-2.208174
United Kingdom,Q145,http://www.wikidata.org/entity/Q116885632,Cowstead Battery Storage,Battery storage power station,51.40865,0.76793
United Kingdom,Q145,http://www.wikidata.org/entity/Q117462281,Chapel Farm Battery Storage,Battery storage power station,51.9266,-0.4963
United Kingdom,Q145,http://www.wikidata.org/entity/Q116883955,Port of Tyne Energy Storage,Battery storage power station,54.977384,-1.455827
United Kingdom,Q145,http://www.wikidata.org/entity/Q116884092,Cowley Battery Storage,Battery storage power station,51.709925,-1.189058
United Kingdom,Q145,http://www.wikidata.org/entity/Q117011275,Wishaw Battery,Battery storage power station,55.76927,-3.93867
United Kingdom,Q145,http://www.wikidata.org/entity/Q116878129,Brook Farm Battery,Battery storage power station,52.074,1.05
United Kingdom,Q145,http://www.wikidata.org/entity/Q120667636,Tollgate Battery Storage Facility,Battery storage power station,51.73539,-0.23706
United Kingdom,Q145,http://www.wikidata.org/entity/Q116884330,Back Lane Battery,Battery storage power station,53.22386,-1.37484
United Kingdom,Q145,http://www.wikidata.org/entity/Q116878177,Arbroath Battery,Battery storage power station,56.56497,-2.619634
United Kingdom,Q145,http://www.wikidata.org/entity/Q116878847,Contego Battery,Battery storage power station,50.95526,-0.162756
United Kingdom,Q145,http://www.wikidata.org/entity/Q116878016,Capenhurst Battery,Battery storage power station,53.265694444,-2.943583333
United Kingdom,Q145,http://www.wikidata.org/entity/Q116878153,Roosecote Battery,Battery storage power station,54.105,-3.189
United Kingdom,Q145,http://www.wikidata.org/entity/Q117066391,Fideoak Mill Battery Storage,Battery storage power station,51.018497,-3.157186
United Kingdom,Q145,http://www.wikidata.org/entity/Q116890190,Hunningley Stairfoot BESS,Battery storage power station,53.54841,-1.45007
Switzerland,Q39,http://www.wikidata.org/entity/Q123414212,BESS Walenstadt,Battery storage power station,47.11629,9.32272
