country_name,country_qid,entity,label,type,latitude,longitude
France,Q142,http://www.wikidata.org/entity/Q1489205,Brennilis Nuclear Power Plant,Nuclear power plant,48.35333333,-3.87222222
France,Q142,http://www.wikidata.org/entity/Q288334,Cruas Nuclear Power Plant,Nuclear power plant,44.63388889,4.75388889
France,Q142,http://www.wikidata.org/entity/Q2825920,Plogoff nuclear power project,Nuclear power plant,48.0375,-4.664722
France,Q142,http://www.wikidata.org/entity/Q1465285,Golfech Nuclear Power Plant,Nuclear power plant,44.11111111,0.84027778
France,Q142,http://www.wikidata.org/entity/Q676411,Fessenheim Nuclear Power Plant,Nuclear power plant,47.90361111,7.5625
France,Q142,http://www.wikidata.org/entity/Q154006,Tricastin nuclear power plant,Nuclear power plant,44.331,4.73148
France,Q142,http://www.wikidata.org/entity/Q390252,Flamanville Nuclear Power Plant,Nuclear power plant,49.53722222,-1.8825
France,Q142,http://www.wikidata.org/entity/Q644493,Saint-Laurent Nuclear Power Plant,Nuclear power plant,47.72055556,1.57861111
France,Q142,http://www.wikidata.org/entity/Q1735581,Chinon Nuclear Power Plant,Nuclear power plant,47.23055556,0.17055556
France,Q142,http://www.wikidata.org/entity/Q1471555,Nogent Nuclear Power Plant,Nuclear power plant,48.51611111,3.51777778
France,Q142,http://www.wikidata.org/entity/Q918661,Dampierre Nuclear Power Plant,Nuclear power plant,47.73361111,2.5175
France,Q142,http://www.wikidata.org/entity/Q1739375,Civaux Nuclear Power Plant,Nuclear power plant,46.45611111,0.65416667
France,Q142,http://www.wikidata.org/entity/Q1645882,Belleville Nuclear Power Plant,Nuclear power plant,47.509722222,2.875
France,Q142,http://www.wikidata.org/entity/Q113368,Phénix,Nuclear power plant,44.14333333,4.71166667
France,Q142,http://www.wikidata.org/entity/Q2409863,Saint-Alban Nuclear Power Plant,Nuclear power plant,45.40472222,4.75583333
France,Q142,http://www.wikidata.org/entity/Q1530519,Paluel Nuclear Power Plant,Nuclear power plant,49.85805556,0.63555556
France,Q142,http://www.wikidata.org/entity/Q1186009,Bugey Nuclear Power Plant,Nuclear power plant,45.79722222,5.27
France,Q142,http://www.wikidata.org/entity/Q1739389,Superphénix,Nuclear power plant,45.75833333,5.47222222
France,Q142,http://www.wikidata.org/entity/Q1739363,Blayais Nuclear Power Plant,Nuclear power plant,45.25611111,-0.69166667
France,Q142,http://www.wikidata.org/entity/Q15116524,Marcoule Nuclear Power Plant,Nuclear power plant,44.150739016,4.714284865
France,Q142,http://www.wikidata.org/entity/Q2366994,Carnet nuclear power project,Nuclear power plant,47.2812,-1.97559
France,Q142,http://www.wikidata.org/entity/Q1739377,Chooz Nuclear Power Plant,Nuclear power plant,50.09,4.790556
France,Q142,http://www.wikidata.org/entity/Q1739407,Gravelines Nuclear Power Station,Nuclear power plant,51.01361111,2.13611111
France,Q142,http://www.wikidata.org/entity/Q19950917,Erdeven nuclear power project,Nuclear power plant,47.6231,-3.18379
France,Q142,http://www.wikidata.org/entity/Q1318977,Penly Nuclear Power Plant,Nuclear power plant,49.97666667,1.21194444
France,Q142,http://www.wikidata.org/entity/Q1371612,Cattenom Nuclear Power Plant,Nuclear power plant,49.415833,6.218056
United Kingdom,Q145,http://www.wikidata.org/entity/Q3664618,Q3664618,Nuclear power plant,,
United Kingdom,Q145,http://www.wikidata.org/entity/Q1466261,Torness Nuclear Power Station,Nuclear power plant,55.968,-2.40908
United Kingdom,Q145,http://www.wikidata.org/entity/Q1595271,Berkeley nuclear power station,Nuclear power plant,51.6925,-2.49361
United Kingdom,Q145,http://www.wikidata.org/entity/Q97585855,Bradwell B nuclear power station,Nuclear power plant,51.741388888,0.896944444
United Kingdom,Q145,http://www.wikidata.org/entity/Q525334,Trawsfynydd nuclear power station,Nuclear power plant,52.9249,-3.94844
United Kingdom,Q145,http://www.wikidata.org/entity/Q1536182,Hinkley Point B Nuclear Power Station,Nuclear power plant,51.2088898,-3.1280887
United Kingdom,Q145,http://www.wikidata.org/entity/Q1739372,Chapelcross nuclear power station,Nuclear power plant,55.01561944,-3.2265
United Kingdom,Q145,http://www.wikidata.org/entity/Q1739500,Wylfa Nuclear Power Station,Nuclear power plant,53.4167,-4.48333
United Kingdom,Q145,http://www.wikidata.org/entity/Q54296442,Hinkley Point nuclear power stations,Nuclear power plant,51.209,-3.127
United Kingdom,Q145,http://www.wikidata.org/entity/Q55063313,Sizewell C nuclear power station,Nuclear power plant,52.215,1.61972
United Kingdom,Q145,http://www.wikidata.org/entity/Q1739449,Oldbury Nuclear Power Station,Nuclear power plant,51.6489,-2.57083
United Kingdom,Q145,http://www.wikidata.org/entity/Q104946709,Sizewell B power station,Nuclear power plant,52.215,1.61972
United Kingdom,Q145,http://www.wikidata.org/entity/Q5944807,Hunterston A nuclear power station,Nuclear power plant,55.7222,-4.89
United Kingdom,Q145,http://www.wikidata.org/entity/Q782133,Hunterston B nuclear power station,Nuclear power plant,55.7221,-4.89009
United Kingdom,Q145,http://www.wikidata.org/entity/Q211150,Bradwell nuclear power station,Nuclear power plant,51.7414,0.896944
United Kingdom,Q145,http://www.wikidata.org/entity/Q104946799,Heysham 1 power station,Nuclear power plant,54.0304,-2.91719
United Kingdom,Q145,http://www.wikidata.org/entity/Q104946958,Dungeness A power station,Nuclear power plant,50.9132,0.96392
United Kingdom,Q145,http://www.wikidata.org/entity/Q3664630,Windscale Advanced Gas Cooled Reactor,Nuclear power plant,54.4205,-3.4975
United Kingdom,Q145,http://www.wikidata.org/entity/Q572403,Hartlepool Nuclear Power Station,Nuclear power plant,54.635,-1.18083
United Kingdom,Q145,http://www.wikidata.org/entity/Q1765322,Hinkley Point A nuclear power station,Nuclear power plant,51.208739,-3.133743
United Kingdom,Q145,http://www.wikidata.org/entity/Q1753259,Calder Hall,Nuclear power plant,54.41981667,-3.49202778
United Kingdom,Q145,http://www.wikidata.org/entity/Q104946950,Dungeness B power station,Nuclear power plant,50.9134,0.95976
United Kingdom,Q145,http://www.wikidata.org/entity/Q828534,Winfrith,Nuclear power plant,50.68405833,-2.26953611
United Kingdom,Q145,http://www.wikidata.org/entity/Q104946808,Heysham 2 power station,Nuclear power plant,54.0273,-2.91504
United Kingdom,Q145,http://www.wikidata.org/entity/Q5767271,Hinkley Point C nuclear power station,Nuclear power plant,51.2061104,-3.142916
Japan,Q17,http://www.wikidata.org/entity/Q1500817,Fugen Nuclear Power Plant,Nuclear power plant,35.75444444,136.01638889
Japan,Q17,http://www.wikidata.org/entity/Q114295,Fukushima Daiichi Nuclear Power Plant,Nuclear power plant,37.42138889,141.0325
Japan,Q17,http://www.wikidata.org/entity/Q1513575,Genkai Nuclear Power Plant,Nuclear power plant,33.51555556,129.83722222
Japan,Q17,http://www.wikidata.org/entity/Q11573334,Q11573334,Nuclear power plant,,
Japan,Q17,http://www.wikidata.org/entity/Q738945,Tōkai Nuclear Power Plant,Nuclear power plant,36.46638889,140.60666667
Japan,Q17,http://www.wikidata.org/entity/Q21777235,Tokai No.2 Power Station,Nuclear power plant,36.466388888,140.606666666
Japan,Q17,http://www.wikidata.org/entity/Q11527936,Tokai Power Station,Nuclear power plant,36.466389,140.606667
Japan,Q17,http://www.wikidata.org/entity/Q17224591,Hidaka nuclear power plant,Nuclear power plant,33.92672222,135.06544444
Japan,Q17,http://www.wikidata.org/entity/Q24860756,Q24860756,Nuclear power plant,35.53263889,135.82447222
Japan,Q17,http://www.wikidata.org/entity/Q1623116,Tsuruga Nuclear Power Plant,Nuclear power plant,35.75222222,136.02083333
Japan,Q17,http://www.wikidata.org/entity/Q935091,Ōma Nuclear Power Plant,Nuclear power plant,41.50972222,140.91027778
Japan,Q17,http://www.wikidata.org/entity/Q2008105,Higashidōri Nuclear Power Plant,Nuclear power plant,41.18805556,141.39027778
Japan,Q17,http://www.wikidata.org/entity/Q11614891,Q11614891,Nuclear power plant,34.21944444,136.4275
Japan,Q17,http://www.wikidata.org/entity/Q725100,Kashiwazaki-Kariwa Nuclear Power Plant,Nuclear power plant,37.428333333,138.601666666
Japan,Q17,http://www.wikidata.org/entity/Q11360506,Kaminoseki Nuclear Power Plant,Nuclear power plant,33.79194444,132.03458333
Japan,Q17,http://www.wikidata.org/entity/Q11369655,Q11369655,Nuclear power plant,35.65572222,134.88083333
Japan,Q17,http://www.wikidata.org/entity/Q132319518,Ashihama nuclear power plant,Nuclear power plant,,
Japan,Q17,http://www.wikidata.org/entity/Q995979,Hamaoka Nuclear Power Plant,Nuclear power plant,34.62361111,138.1425
Japan,Q17,http://www.wikidata.org/entity/Q24861291,Q24861291,Nuclear power plant,33.83183333,134.71652778
Japan,Q17,http://www.wikidata.org/entity/Q1739471,Shimane Nuclear Power Plant,Nuclear power plant,35.53833333,132.99916667
Japan,Q17,http://www.wikidata.org/entity/Q1735730,Sendai Nuclear Power Plant,Nuclear power plant,31.83388889,130.18972222
Japan,Q17,http://www.wikidata.org/entity/Q384685,Mihama Nuclear Power Plant,Nuclear power plant,35.70243,135.963415
Japan,Q17,http://www.wikidata.org/entity/Q24861835,Q24861835,Nuclear power plant,35.65191667,134.60497222
Japan,Q17,http://www.wikidata.org/entity/Q24862576,Q24862576,Nuclear power plant,31.38241667,131.25344444
Japan,Q17,http://www.wikidata.org/entity/Q24862545,Q24862545,Nuclear power plant,33.20263889,133.23402778
Japan,Q17,http://www.wikidata.org/entity/Q838816,Fukushima Daini Nuclear Power Plant,Nuclear power plant,37.31944,141.02111
Japan,Q17,http://www.wikidata.org/entity/Q1557429,Takahama Nuclear Power Plant,Nuclear power plant,35.52222222,135.50472222
Japan,Q17,http://www.wikidata.org/entity/Q1201465,Ikata Nuclear Power Plant,Nuclear power plant,33.49083333,132.31111111
Japan,Q17,http://www.wikidata.org/entity/Q1633906,Ōi Nuclear Power Plant,Nuclear power plant,35.54055556,135.65194444
Japan,Q17,http://www.wikidata.org/entity/Q1331046,Monju Nuclear Power Plant,Nuclear power plant,35.74027778,135.98805556
Japan,Q17,http://www.wikidata.org/entity/Q3367024,Namie-Odaka Nuclear Power Plant,Nuclear power plant,37.51338889,141.03419444
Japan,Q17,http://www.wikidata.org/entity/Q1067623,Onagawa Nuclear Power Plant,Nuclear power plant,38.40111111,141.49972222
Japan,Q17,http://www.wikidata.org/entity/Q367676,Tomari Nuclear Power Plant,Nuclear power plant,43.03722222,140.51333333
Japan,Q17,http://www.wikidata.org/entity/Q672931,Shika Nuclear Power Plant,Nuclear power plant,37.06111111,136.72638889
Japan,Q17,http://www.wikidata.org/entity/Q24861532,Q24861532,Nuclear power plant,43.57208333,141.39508333
Russia,Q159,http://www.wikidata.org/entity/Q16698859,Smolensk Nuclear Power Plant II,Nuclear power plant,54.166667,33.233333
Russia,Q159,http://www.wikidata.org/entity/Q1739453,Obninsk Nuclear Power Plant,Nuclear power plant,55.083888888,36.571388888
Russia,Q159,http://www.wikidata.org/entity/Q1640751,Kola Nuclear Power Plant,Nuclear power plant,67.46528,32.48333
Russia,Q159,http://www.wikidata.org/entity/Q673826,Akademik Lomonosov,Nuclear power plant,69.70975,170.309888888
Russia,Q159,http://www.wikidata.org/entity/Q1739356,Balakovo Nuclear Power Plant,Nuclear power plant,52.09444444,47.95833333
Russia,Q159,http://www.wikidata.org/entity/Q1739463,Rostov Nuclear Power Plant,Nuclear power plant,47.59944444,42.36416667
Russia,Q159,http://www.wikidata.org/entity/Q3664619,Nizhegorodsk Nuclear Power Plant,Nuclear power plant,55.74722222,42.36472222
Russia,Q159,http://www.wikidata.org/entity/Q1739418,Kalinin Nuclear Power Plant,Nuclear power plant,57.906944444,35.063055555
Russia,Q159,http://www.wikidata.org/entity/Q1739434,Leningrad Nuclear Power Plant II,Nuclear power plant,59.8305,29.0571
Russia,Q159,http://www.wikidata.org/entity/Q1739448,Novovoronezh Nuclear Power Plant,Nuclear power plant,51.2699437,39.1981888
Russia,Q159,http://www.wikidata.org/entity/Q835791,Novovoronezh Nuclear Power Plant II,Nuclear power plant,51.26499,39.21145
Russia,Q159,http://www.wikidata.org/entity/Q2944616,Q2944616,Nuclear power plant,54.0675,61.5734
Russia,Q159,http://www.wikidata.org/entity/Q1739436,Kursk Nuclear Power Plant,Nuclear power plant,51.675,35.60555556
Russia,Q159,http://www.wikidata.org/entity/Q3664615,Kursk Nuclear Power Plant 2,Nuclear power plant,51.68703,35.58372
Russia,Q159,http://www.wikidata.org/entity/Q3664612,Kola Nuclear Power Plant II,Nuclear power plant,67.466667,32.466667
Russia,Q159,http://www.wikidata.org/entity/Q1739361,Bilibino Nuclear Power Plant,Nuclear power plant,68.05086,166.5385041
Russia,Q159,http://www.wikidata.org/entity/Q1739359,Beloyarsk Nuclear Power Station,Nuclear power plant,56.85,61.31666667
Russia,Q159,http://www.wikidata.org/entity/Q3279825,Leningrad Nuclear Power Plant,Nuclear power plant,59.8521,29.0512
Russia,Q159,http://www.wikidata.org/entity/Q119041297,Q119041297,Nuclear power plant,,
Russia,Q159,http://www.wikidata.org/entity/Q123245450,Q123245450,Nuclear power plant,,
Russia,Q159,http://www.wikidata.org/entity/Q123335776,Q123335776,Nuclear power plant,,
Russia,Q159,http://www.wikidata.org/entity/Q129932709,Q129932709,Nuclear power plant,,
Russia,Q159,http://www.wikidata.org/entity/Q129941416,Q129941416,Nuclear power plant,,
Russia,Q159,http://www.wikidata.org/entity/Q130324051,Q130324051,Nuclear power plant,,
Russia,Q159,http://www.wikidata.org/entity/Q1739422,Kaliningrad Nuclear Power Plant,Nuclear power plant,54.940619,22.166276
Russia,Q159,http://www.wikidata.org/entity/Q1739474,Smolensk Nuclear Power Plant,Nuclear power plant,54.16666667,33.23333333
India,Q668,http://www.wikidata.org/entity/Q124613606,Mahi Banswara Atomic Power Plant,Nuclear power plant,23.529444444,74.590555555
India,Q668,http://www.wikidata.org/entity/Q3664609,Q3664609,Nuclear power plant,,
India,Q668,http://www.wikidata.org/entity/Q1739415,Kakrapar Atomic Power Station,Nuclear power plant,21.23861111,73.35
India,Q668,http://www.wikidata.org/entity/Q337376,Kudankulam Nuclear Power Plant,Nuclear power plant,8.16833333,77.7125
India,Q668,http://www.wikidata.org/entity/Q972715,Madras Atomic Power Station,Nuclear power plant,12.55833333,80.175
India,Q668,http://www.wikidata.org/entity/Q250830,Rajasthan Atomic Power Station,Nuclear power plant,24.87222222,75.61388889
India,Q668,http://www.wikidata.org/entity/Q1739475,Tarapur Atomic Power Station,Nuclear power plant,19.82777778,72.66111111
India,Q668,http://www.wikidata.org/entity/Q3664613,Kovvada Atomic Power Project,Nuclear power plant,,
India,Q668,http://www.wikidata.org/entity/Q3664617,Mithi Virdi Nuclear Power Plant,Nuclear power plant,,
India,Q668,http://www.wikidata.org/entity/Q1739416,Kaiga Atomic Power Station..,Nuclear power plant,14.86666667,74.43888889
India,Q668,http://www.wikidata.org/entity/Q131686976,Kerala Nuclear Power Station,Nuclear power plant,12.250315712,75.27993409
India,Q668,http://www.wikidata.org/entity/Q24949566,Chutka Nuclear Power Plant,Nuclear power plant,22.78055556,80.08972222
India,Q668,http://www.wikidata.org/entity/Q1642138,Jaitapur Nuclear Power Project,Nuclear power plant,16.58333333,73.325
India,Q668,http://www.wikidata.org/entity/Q3664614,Gorakhpur Nuclear Power Plant,Nuclear power plant,29.4497,75.68
India,Q668,http://www.wikidata.org/entity/Q1312991,Narora Atomic Power Station,Nuclear power plant,28.15833333,78.40833333
India,Q668,http://www.wikidata.org/entity/Q3664611,Q3664611,Nuclear power plant,12.558333,80.175
India,Q668,http://www.wikidata.org/entity/Q117848044,Haripur Nuclear Power Plant,Nuclear power plant,,
Germany,Q183,http://www.wikidata.org/entity/Q569510,Isar Nuclear Power Plant,Nuclear power plant,48.6056,12.2931
Germany,Q183,http://www.wikidata.org/entity/Q688190,Emsland Nuclear Power Plant,Nuclear power plant,52.4742,7.31786
Germany,Q183,http://www.wikidata.org/entity/Q302114,Neckarwestheim Nuclear Power Plant,Nuclear power plant,49.0411,9.175
Germany,Q183,http://www.wikidata.org/entity/Q566211,THTR-300,Nuclear power plant,51.679167,7.971667
Germany,Q183,http://www.wikidata.org/entity/Q569525,Philippsburg Nuclear Power Plant,Nuclear power plant,49.2527,8.43644
Germany,Q183,http://www.wikidata.org/entity/Q657018,Grohnde Nuclear Power Plant,Nuclear power plant,52.0353,9.41333
Germany,Q183,http://www.wikidata.org/entity/Q1566977,Q1566977,Nuclear power plant,48.6537,10.7082
Germany,Q183,http://www.wikidata.org/entity/Q679563,Brokdorf Nuclear Power Plant,Nuclear power plant,53.850833333,9.344722222
Germany,Q183,http://www.wikidata.org/entity/Q535877,Lingen Nuclear Power Plant,Nuclear power plant,52.4828,7.3069
Germany,Q183,http://www.wikidata.org/entity/Q883247,Niederaichbach nuclear power station,Nuclear power plant,48.6046,12.304
Germany,Q183,http://www.wikidata.org/entity/Q656869,Grafenrheinfeld Nuclear Power Plant,Nuclear power plant,49.9841,10.1847
Germany,Q183,http://www.wikidata.org/entity/Q543775,Rheinsberg Nuclear Power Plant,Nuclear power plant,53.147,12.9902
Germany,Q183,http://www.wikidata.org/entity/Q452789,SNR-300,Nuclear power plant,51.7631,6.32694
Germany,Q183,http://www.wikidata.org/entity/Q318042,Großwelzheim Nuclear Power Plant,Nuclear power plant,50.05814167,8.98713056
Germany,Q183,http://www.wikidata.org/entity/Q870534,Q870534,Nuclear power plant,49.0993,8.43289
Germany,Q183,http://www.wikidata.org/entity/Q1739493,Wyhl nuclear power station,Nuclear power plant,48.186,7.6414
Germany,Q183,http://www.wikidata.org/entity/Q870170,Mehrzweckforschungsreaktor Karlsruhe,Nuclear power plant,49.1042,8.43234
Germany,Q183,http://www.wikidata.org/entity/Q300178,AVR reactor,Nuclear power plant,50.9029,6.42121
Germany,Q183,http://www.wikidata.org/entity/Q655061,Unterweser Nuclear Power Plant,Nuclear power plant,53.4277,8.4802
Germany,Q183,http://www.wikidata.org/entity/Q704293,Brunsbüttel Nuclear Power Plant,Nuclear power plant,53.8917,9.20167
Germany,Q183,http://www.wikidata.org/entity/Q543712,Mülheim-Kärlich Nuclear Power Plant,Nuclear power plant,50.4078,7.48972
Germany,Q183,http://www.wikidata.org/entity/Q473952,Kahl Nuclear Power Plant,Nuclear power plant,50.059119444,8.987272222
Germany,Q183,http://www.wikidata.org/entity/Q94805,Biblis Nuclear Power Plant,Nuclear power plant,49.71,8.415277777
Germany,Q183,http://www.wikidata.org/entity/Q323216,Würgassen Nuclear Power Plant,Nuclear power plant,51.6392,9.39139
Germany,Q183,http://www.wikidata.org/entity/Q657029,Gundremmingen Nuclear Power Plant,Nuclear power plant,48.5147,10.4022
Germany,Q183,http://www.wikidata.org/entity/Q703271,Krümmel Nuclear Power Plant,Nuclear power plant,53.41,10.4089
Germany,Q183,http://www.wikidata.org/entity/Q1739403,Q1739403,Nuclear power plant,51.6773,7.9729
Germany,Q183,http://www.wikidata.org/entity/Q535990,Stade Nuclear Power Plant,Nuclear power plant,53.62,9.53083
Germany,Q183,http://www.wikidata.org/entity/Q536084,Obrigheim Nuclear Power Plant,Nuclear power plant,49.3645,9.07627
Germany,Q183,http://www.wikidata.org/entity/Q655947,Greifswald Nuclear Power Plant,Nuclear power plant,54.14058611,13.66442222
People's Republic of China,Q148,http://www.wikidata.org/entity/Q1124801,Q1124801,Nuclear power plant,,
People's Republic of China,Q148,http://www.wikidata.org/entity/Q3664623,Q3664623,Nuclear power plant,,
People's Republic of China,Q148,http://www.wikidata.org/entity/Q3664632,Q3664632,Nuclear power plant,,
People's Republic of China,Q148,http://www.wikidata.org/entity/Q28223974,Xudabao Nuclear Power Plant,Nuclear power plant,40.351352,120.5465412
People's Republic of China,Q148,http://www.wikidata.org/entity/Q1483977,Qinshan Nuclear Power Plant,Nuclear power plant,30.43598333,120.9581
People's Republic of China,Q148,http://www.wikidata.org/entity/Q85860592,Taipingling Nuclear Power Plant,Nuclear power plant,22.695437,114.978919
People's Republic of China,Q148,http://www.wikidata.org/entity/Q17762235,Q17762235,Nuclear power plant,,
People's Republic of China,Q148,http://www.wikidata.org/entity/Q17764341,Q17764341,Nuclear power plant,,
People's Republic of China,Q148,http://www.wikidata.org/entity/Q3664621,Lufeng Nuclear Power Plant,Nuclear power plant,22.75,115.8
People's Republic of China,Q148,http://www.wikidata.org/entity/Q136274,Changjiang Nuclear Power Plant,Nuclear power plant,19.459916,108.898838
People's Republic of China,Q148,http://www.wikidata.org/entity/Q1029360,Fangjiashan Nuclear Power Plant,Nuclear power plant,30.441342,120.941758
People's Republic of China,Q148,http://www.wikidata.org/entity/Q3664633,Q3664633,Nuclear power plant,29.7375,112.82638889
People's Republic of China,Q148,http://www.wikidata.org/entity/Q135679,Fangchenggang Nuclear Power Plant,Nuclear power plant,21.667305748,108.562731597
People's Republic of China,Q148,http://www.wikidata.org/entity/Q30894423,Q30894423,Nuclear power plant,,
People's Republic of China,Q148,http://www.wikidata.org/entity/Q30894434,Q30894434,Nuclear power plant,,
People's Republic of China,Q148,http://www.wikidata.org/entity/Q30899943,Q30899943,Nuclear power plant,,
People's Republic of China,Q148,http://www.wikidata.org/entity/Q2944606,Pengze Nuclear Power Plant,Nuclear power plant,,
People's Republic of China,Q148,http://www.wikidata.org/entity/Q1739439,Ling Ao Nuclear Power Plant,Nuclear power plant,22.60478889,114.55148889
People's Republic of China,Q148,http://www.wikidata.org/entity/Q1029384,Haiyang Nuclear Power Plant,Nuclear power plant,36.70833333,121.38333333
People's Republic of China,Q148,http://www.wikidata.org/entity/Q3664610,Hongshiding Nuclear Power Plant,Nuclear power plant,,
People's Republic of China,Q148,http://www.wikidata.org/entity/Q3664628,Taohuajiang Nuclear Power Plant,Nuclear power plant,,
People's Republic of China,Q148,http://www.wikidata.org/entity/Q17017842,Jiamusi Nuclear Power Plant,Nuclear power plant,,
People's Republic of China,Q148,http://www.wikidata.org/entity/Q4644510,816 Nuclear Military Plant,Nuclear power plant,29.5569,107.507
People's Republic of China,Q148,http://www.wikidata.org/entity/Q124739962,Jinqimen Nuclear Power Plant,Nuclear power plant,29.0564,121.9448
People's Republic of China,Q148,http://www.wikidata.org/entity/Q48838058,Q48838058,Nuclear power plant,,
People's Republic of China,Q148,http://www.wikidata.org/entity/Q1029398,Sanmen Nuclear Power Station,Nuclear power plant,29.10111111,121.64194444
People's Republic of China,Q148,http://www.wikidata.org/entity/Q964007,Daya Bay Nuclear Power Plant,Nuclear power plant,22.59726389,114.54323056
People's Republic of China,Q148,http://www.wikidata.org/entity/Q30894437,Sanming Nuclear Power Plant,Nuclear power plant,,
People's Republic of China,Q148,http://www.wikidata.org/entity/Q17012735,Sanba Nuclear Power Plant,Nuclear power plant,30.99,106.3
People's Republic of China,Q148,http://www.wikidata.org/entity/Q112150280,San'ao Nuclear Power Plant,Nuclear power plant,27.20158,120.51252
People's Republic of China,Q148,http://www.wikidata.org/entity/Q135639,Xianning Nuclear Power Plant,Nuclear power plant,29.66,114.67
People's Republic of China,Q148,http://www.wikidata.org/entity/Q123002687,Lianjiang Nuclear Power Plant,Nuclear power plant,21.554166666,109.806944444
People's Republic of China,Q148,http://www.wikidata.org/entity/Q1519910,Taishan Nuclear Power Plant,Nuclear power plant,21.918,112.982
People's Republic of China,Q148,http://www.wikidata.org/entity/Q1840807,China Experimental Fast Reactor,Nuclear power plant,39.740929,116.030139
People's Republic of China,Q148,http://www.wikidata.org/entity/Q1739478,Tianwan Nuclear Power Plant,Nuclear power plant,34.686944444,119.459722222
People's Republic of China,Q148,http://www.wikidata.org/entity/Q85764720,Guangxi Bailong Nuclear Power Project,Nuclear power plant,21.545277777,108.293888888
People's Republic of China,Q148,http://www.wikidata.org/entity/Q14159771,Shidao Bay Nuclear Power Plant,Nuclear power plant,36.972222222,122.528888888
People's Republic of China,Q148,http://www.wikidata.org/entity/Q132171,Hongyanhe Nuclear Power Plant,Nuclear power plant,39.80194444,121.475
People's Republic of China,Q148,http://www.wikidata.org/entity/Q1029375,Yangjiang Nuclear Power Station,Nuclear power plant,21.7083,112.261
People's Republic of China,Q148,http://www.wikidata.org/entity/Q586892,Fuqing Nuclear Power Plant,Nuclear power plant,25.44583333,119.44722222
People's Republic of China,Q148,http://www.wikidata.org/entity/Q28409026,Xiapu Nuclear Power Plant,Nuclear power plant,26.803611111,120.155
People's Republic of China,Q148,http://www.wikidata.org/entity/Q109377736,San'ao nuclear power plant,Nuclear power plant,27.2013582,120.5157494
People's Republic of China,Q148,http://www.wikidata.org/entity/Q30894419,Zhangzhou Nuclear Power Plant,Nuclear power plant,23.829166666,117.491666666
People's Republic of China,Q148,http://www.wikidata.org/entity/Q835447,Ningde Nuclear Power Plant,Nuclear power plant,27.045,120.28333333
People's Republic of China,Q148,http://www.wikidata.org/entity/Q130397099,Q130397099,Nuclear power plant,,
People's Republic of China,Q148,http://www.wikidata.org/entity/Q130397101,Q130397101,Nuclear power plant,,
People's Republic of China,Q148,http://www.wikidata.org/entity/Q15938258,Nanyang Nuclear Power Plant,Nuclear power plant,33.31861111,112.54083333
United States,Q30,http://www.wikidata.org/entity/Q1418603,LaSalle County Nuclear Generating Station,Nuclear power plant,41.24556,-88.66917
United States,Q30,http://www.wikidata.org/entity/Q1557235,Virgil C. Summer Nuclear Generating Station,Nuclear power plant,34.2986,-81.3147
United States,Q30,http://www.wikidata.org/entity/Q5197089,Saxton Nuclear Generating Station,Nuclear power plant,40.2269,-78.2419
United States,Q30,http://www.wikidata.org/entity/Q1247509,Byron Nuclear Generating Station,Nuclear power plant,42.0742,-89.2819
United States,Q30,http://www.wikidata.org/entity/Q571906,Grand Gulf Nuclear Generating Station,Nuclear power plant,32.0067,-91.0483
United States,Q30,http://www.wikidata.org/entity/Q847648,Shoreham Nuclear Power Plant,Nuclear power plant,40.9611,-72.865
United States,Q30,http://www.wikidata.org/entity/Q1516337,Edwin I. Hatch Nuclear Power Plant,Nuclear power plant,31.9342,-82.3439
United States,Q30,http://www.wikidata.org/entity/Q7639757,Sundesert Nuclear Power Plant,Nuclear power plant,33.4498,-114.783
United States,Q30,http://www.wikidata.org/entity/Q1432276,Comanche Peak Nuclear Power Plant,Nuclear power plant,32.2983,-97.785
United States,Q30,http://www.wikidata.org/entity/Q1735267,Beaver Valley Nuclear Generating Station,Nuclear power plant,40.6233,-80.4306
United States,Q30,http://www.wikidata.org/entity/Q655384,Humboldt Bay Nuclear Power Plant,Nuclear power plant,40.7413,-124.209
United States,Q30,http://www.wikidata.org/entity/Q1516283,Dresden Generating Station,Nuclear power plant,41.3897,-88.2681
United States,Q30,http://www.wikidata.org/entity/Q4936447,Bodega Bay Nuclear Power Plant,Nuclear power plant,38.3052,-123.059
United States,Q30,http://www.wikidata.org/entity/Q1516546,Diablo Canyon Power Plant,Nuclear power plant,35.2108,-120.856
United States,Q30,http://www.wikidata.org/entity/Q2944609,Pathfinder Nuclear Generating Station,Nuclear power plant,43.6036,-96.6375
United States,Q30,http://www.wikidata.org/entity/Q1233845,Rancho Seco Nuclear Generating Station,Nuclear power plant,38.3453,-121.122
United States,Q30,http://www.wikidata.org/entity/Q533357,Palisades Nuclear Generating Station,Nuclear power plant,42.3228,-86.3144
United States,Q30,http://www.wikidata.org/entity/Q2944597,Ginna Nuclear Generating Station,Nuclear power plant,43.2778,-77.31
United States,Q30,http://www.wikidata.org/entity/Q1516276,Hope Creek Nuclear Generating Station,Nuclear power plant,39.46777778,-75.53805556
United States,Q30,http://www.wikidata.org/entity/Q891025,BONUS Reactor Facility,Nuclear power plant,18.366389,-67.268611
United States,Q30,http://www.wikidata.org/entity/Q862589,Three Mile Island Nuclear Generating Station,Nuclear power plant,40.152047,-76.724911
United States,Q30,http://www.wikidata.org/entity/Q836572,Vallecitos Nuclear Center,Nuclear power plant,37.6133,-121.84
United States,Q30,http://www.wikidata.org/entity/Q1637580,North Anna Nuclear Generating Station,Nuclear power plant,38.0606,-77.7894
United States,Q30,http://www.wikidata.org/entity/Q575633,Connecticut Yankee Nuclear Power Plant,Nuclear power plant,41.4819,-72.4992
United States,Q30,http://www.wikidata.org/entity/Q985274,Arkansas Nuclear One,Nuclear power plant,35.3103,-93.2314
United States,Q30,http://www.wikidata.org/entity/Q1739385,Crystal River 3 Nuclear Power Plant,Nuclear power plant,28.9575,-82.6983
United States,Q30,http://www.wikidata.org/entity/Q1493850,Callaway Energy Center,Nuclear power plant,38.7617,-91.78
United States,Q30,http://www.wikidata.org/entity/Q1536314,Oyster Creek Nuclear Generating Station,Nuclear power plant,39.8147,-74.205
United States,Q30,http://www.wikidata.org/entity/Q1516618,Columbia Generating Station,Nuclear power plant,46.4711,-119.334
United States,Q30,http://www.wikidata.org/entity/Q1739367,Calvert Cliffs Nuclear Power Plant,Nuclear power plant,38.4319,-76.4422
United States,Q30,http://www.wikidata.org/entity/Q1516539,Brunswick Nuclear Generating Station,Nuclear power plant,33.9583,-78.0103
United States,Q30,http://www.wikidata.org/entity/Q7441789,Sears Isle Nuclear Power Plant,Nuclear power plant,,
United States,Q30,http://www.wikidata.org/entity/Q2944605,Millstone Nuclear Power Plant,Nuclear power plant,41.31194444,-72.16861111
United States,Q30,http://www.wikidata.org/entity/Q28854324,Blue Castle Project,Nuclear power plant,39.013898,-110.240249
United States,Q30,http://www.wikidata.org/entity/Q1739494,Waterford Nuclear Generating Station,Nuclear power plant,29.9953,-90.4711
United States,Q30,http://www.wikidata.org/entity/Q1516614,Indian Point Energy Center,Nuclear power plant,41.269722222,-73.952222222
United States,Q30,http://www.wikidata.org/entity/Q4883120,Bell Bend Nuclear Power Plant,Nuclear power plant,41.0833,-76.15
United States,Q30,http://www.wikidata.org/entity/Q838461,Trojan Nuclear Power Plant,Nuclear power plant,46.0383,-122.885
United States,Q30,http://www.wikidata.org/entity/Q947549,Vogtle Electric Generating Plant,Nuclear power plant,33.1433,-81.7606
United States,Q30,http://www.wikidata.org/entity/Q1514659,Kewaunee Power Station,Nuclear power plant,44.3422,-87.5361
United States,Q30,http://www.wikidata.org/entity/Q475652,Seabrook Station Nuclear Power Plant,Nuclear power plant,42.8989,-70.8508
United States,Q30,http://www.wikidata.org/entity/Q24525665,Phipps Bend Nuclear Power Plant,Nuclear power plant,36.46694444,-82.8075
United States,Q30,http://www.wikidata.org/entity/Q3664606,William States Lee III Nuclear Generating Station,Nuclear power plant,35.0333,-81.5111
United States,Q30,http://www.wikidata.org/entity/Q1739496,Watts Bar Nuclear Generating Station,Nuclear power plant,35.6028,-84.7894
United States,Q30,http://www.wikidata.org/entity/Q1516266,Limerick Generating Station,Nuclear power plant,40.2267,-75.5872
United States,Q30,http://www.wikidata.org/entity/Q5092188,Cherokee Nuclear Power Plant,Nuclear power plant,35.0365,-81.5112
United States,Q30,http://www.wikidata.org/entity/Q1517424,Joseph M. Farley Nuclear Generating Station,Nuclear power plant,31.2231,-85.1117
United States,Q30,http://www.wikidata.org/entity/Q133059522,Virgil C. Summer Nuclear Station,Nuclear power plant,34.29649535,-81.316761822
United States,Q30,http://www.wikidata.org/entity/Q1739400,Fort Calhoun Nuclear Generating Station,Nuclear power plant,41.5203,-96.0772
United States,Q30,http://www.wikidata.org/entity/Q928750,Duane Arnold Energy Center,Nuclear power plant,42.1006,-91.7772
United States,Q30,http://www.wikidata.org/entity/Q675779,Bellefonte Nuclear Generating Station,Nuclear power plant,34.7086,-85.9292
United States,Q30,http://www.wikidata.org/entity/Q1639556,Sequoyah Nuclear Generating Station,Nuclear power plant,35.2264,-85.0917
United States,Q30,http://www.wikidata.org/entity/Q1739404,Hallam Nuclear Power Facility,Nuclear power plant,40.558333333,-96.784694444
United States,Q30,http://www.wikidata.org/entity/Q522938,Enrico Fermi Nuclear Generating Station,Nuclear power plant,41.9628,-83.2575
United States,Q30,http://www.wikidata.org/entity/Q674107,Braidwood Nuclear Generating Station,Nuclear power plant,41.2436,-88.2292
United States,Q30,http://www.wikidata.org/entity/Q1517795,Catawba Nuclear Station,Nuclear power plant,35.0517,-81.07
United States,Q30,http://www.wikidata.org/entity/Q1568903,Shearon Harris Nuclear Power Plant,Nuclear power plant,35.6333,-78.955
United States,Q30,http://www.wikidata.org/entity/Q1536231,Point Beach Nuclear Plant,Nuclear power plant,44.2811,-87.5367
United States,Q30,http://www.wikidata.org/entity/Q841463,Yankee Rowe Nuclear Power Station,Nuclear power plant,42.7278,-72.9291
United States,Q30,http://www.wikidata.org/entity/Q3664616,Levy County Nuclear Power Plant,Nuclear power plant,29.0733,-82.6217
United States,Q30,http://www.wikidata.org/entity/Q2944614,Quad Cities Nuclear Generating Station,Nuclear power plant,41.7264,-90.31
United States,Q30,http://www.wikidata.org/entity/Q1739425,La Crosse Boiling Water Reactor,Nuclear power plant,43.5601,-91.2315
United States,Q30,http://www.wikidata.org/entity/Q5469815,Forked River Nuclear Power Plant,Nuclear power plant,39.813,-74.218
United States,Q30,http://www.wikidata.org/entity/Q1739379,Clinton Nuclear Generating Station,Nuclear power plant,40.1722,-88.835
United States,Q30,http://www.wikidata.org/entity/Q1516622,James A. FitzPatrick Nuclear Power Plant,Nuclear power plant,43.5233,-76.3983
United States,Q30,http://www.wikidata.org/entity/Q1537026,Monticello Nuclear Generating Plant,Nuclear power plant,45.3336,-93.8492
United States,Q30,http://www.wikidata.org/entity/Q969222,Perry Nuclear Generating Station,Nuclear power plant,41.8008,-81.1433
United States,Q30,http://www.wikidata.org/entity/Q1739396,Elk River Station,Nuclear power plant,45.2952,-93.5567
United States,Q30,http://www.wikidata.org/entity/Q1739392,Davis-Besse Nuclear Power Station,Nuclear power plant,41.59692,-83.088999
United States,Q30,http://www.wikidata.org/entity/Q1516627,Maine Yankee Nuclear Power Plant,Nuclear power plant,43.95055556,-69.69611111
United States,Q30,http://www.wikidata.org/entity/Q290561,River Bend Nuclear Generating Station,Nuclear power plant,30.7567,-91.3333
United States,Q30,http://www.wikidata.org/entity/Q836576,H. B. Robinson Nuclear Generating Station,Nuclear power plant,34.4028,-80.1583
United States,Q30,http://www.wikidata.org/entity/Q839256,Zion Nuclear Power Station,Nuclear power plant,42.4464,-87.803
United States,Q30,http://www.wikidata.org/entity/Q654974,Nine Mile Point Nuclear Generating Station,Nuclear power plant,43.5208,-76.4069
United States,Q30,http://www.wikidata.org/entity/Q4357176,Sturgis,Nuclear power plant,37.131388888,-76.6475
United States,Q30,http://www.wikidata.org/entity/Q1739383,Cooper Nuclear Station,Nuclear power plant,40.3619,-95.6414
United States,Q30,http://www.wikidata.org/entity/Q24068,McGuire Nuclear Station,Nuclear power plant,35.4325,-80.9483
United States,Q30,http://www.wikidata.org/entity/Q762368,San Onofre Nuclear Generating Station,Nuclear power plant,33.3689,-117.555
United States,Q30,http://www.wikidata.org/entity/Q1739486,Turkey Point Nuclear Generating Station,Nuclear power plant,25.4342,-80.3306
United States,Q30,http://www.wikidata.org/entity/Q371357,South Texas Nuclear Generating Station,Nuclear power plant,28.7956,-96.0489
United States,Q30,http://www.wikidata.org/entity/Q1567468,Surry Nuclear Power Plant,Nuclear power plant,37.1656,-76.6978
United States,Q30,http://www.wikidata.org/entity/Q1739457,WNP-3 and WNP-5,Nuclear power plant,46.9598,-123.47
United States,Q30,http://www.wikidata.org/entity/Q1650555,Browns Ferry Nuclear Power Plant,Nuclear power plant,34.7039,-87.1186
United States,Q30,http://www.wikidata.org/entity/Q2944613,Prairie Island Nuclear Power Plant,Nuclear power plant,44.6217,-92.6331
United States,Q30,http://www.wikidata.org/entity/Q1535402,Peach Bottom Nuclear Generating Station,Nuclear power plant,39.7583,-76.2681
United States,Q30,http://www.wikidata.org/entity/Q1508667,Palo Verde Nuclear Generating Station,Nuclear power plant,33.3892,-112.865
United States,Q30,http://www.wikidata.org/entity/Q1426933,Oconee Nuclear Station,Nuclear power plant,34.7939,-82.8981
United States,Q30,http://www.wikidata.org/entity/Q1579871,St. Lucie Nuclear Power Plant,Nuclear power plant,27.3486,-80.2464
United States,Q30,http://www.wikidata.org/entity/Q163911,Wolf Creek Generating Station,Nuclear power plant,38.2389,-95.6889
United States,Q30,http://www.wikidata.org/entity/Q1739490,Vermont Yankee Nuclear Power Plant,Nuclear power plant,42.7789,-72.5131
United States,Q30,http://www.wikidata.org/entity/Q836568,Big Rock Point Nuclear Power Plant,Nuclear power plant,45.3589,-85.1972
United States,Q30,http://www.wikidata.org/entity/Q605091,Donald C. Cook Nuclear Generating Station,Nuclear power plant,41.9754,-86.5659
United States,Q30,http://www.wikidata.org/entity/Q1535057,Salem Nuclear Power Plant,Nuclear power plant,39.46297722,-75.53422451
United States,Q30,http://www.wikidata.org/entity/Q611354,Susquehanna Steam Electric Station,Nuclear power plant,41.0889,-76.1489
United States,Q30,http://www.wikidata.org/entity/Q1536186,Pilgrim Nuclear Power Station,Nuclear power plant,41.945,-70.5783
United States,Q30,http://www.wikidata.org/entity/Q850462,Piqua Nuclear Generating Station,Nuclear power plant,40.1323,-84.2348
Sweden,Q34,http://www.wikidata.org/entity/Q1575435,Forsmark Nuclear Power Plant,Nuclear power plant,60.40333333,18.16666667
Sweden,Q34,http://www.wikidata.org/entity/Q656534,Barsebäck Nuclear Power Plant,Nuclear power plant,55.74444444,12.92083333
Sweden,Q34,http://www.wikidata.org/entity/Q205774,Ringhals Nuclear Power Plant,Nuclear power plant,57.26111111,12.10833333
Sweden,Q34,http://www.wikidata.org/entity/Q1539046,Oskarshamn Nuclear Power Plant,Nuclear power plant,57.41555556,16.67111111
Sweden,Q34,http://www.wikidata.org/entity/Q1739508,Ågesta Nuclear Plant,Nuclear power plant,59.20611111,18.0825
Sweden,Q34,http://www.wikidata.org/entity/Q4357537,R4 nuclear reactor,Nuclear power plant,58.55305556,16.83277778
South Korea,Q884,http://www.wikidata.org/entity/Q496248,Hanul Nuclear Power Plant,Nuclear power plant,37.1,129.38333333
South Korea,Q884,http://www.wikidata.org/entity/Q123393,Shin Wolsong Nuclear Power Plant,Nuclear power plant,35.721483,129.479615
South Korea,Q884,http://www.wikidata.org/entity/Q496260,Hanbit Nuclear Power Plant,Nuclear power plant,35.415,126.42388889
South Korea,Q884,http://www.wikidata.org/entity/Q484896,Wolseong Nuclear Power Plant,Nuclear power plant,35.71111111,129.475
South Korea,Q884,http://www.wikidata.org/entity/Q3664625,Shin Hanul Nuclear Power Plant,Nuclear power plant,37.075,129.4061111
South Korea,Q884,http://www.wikidata.org/entity/Q486898,Kori Nuclear Power Plant,Nuclear power plant,35.3202246,129.2946142
Canada,Q16,http://www.wikidata.org/entity/Q1111040,Gentilly Nuclear Generating Station,Nuclear power plant,46.3958,-72.3569
Canada,Q16,http://www.wikidata.org/entity/Q946530,Douglas Point Nuclear Generating Station,Nuclear power plant,44.3333,-81.6
Canada,Q16,http://www.wikidata.org/entity/Q1739391,Darlington Nuclear Generating Station,Nuclear power plant,43.8728,-78.7197
Canada,Q16,http://www.wikidata.org/entity/Q1739455,Pickering Nuclear Generating Station,Nuclear power plant,43.8117,-79.0658
Canada,Q16,http://www.wikidata.org/entity/Q795104,Bruce Nuclear Generating Stationc,Nuclear power plant,44.3253,-81.5994
Canada,Q16,http://www.wikidata.org/entity/Q115100127,Gentilly-2 Generating Station,Nuclear power plant,46.395,-72.3558333
Canada,Q16,http://www.wikidata.org/entity/Q948689,Nuclear Power Demonstration,Nuclear power plant,46.1867,-77.6578
Canada,Q16,http://www.wikidata.org/entity/Q1391137,Point Lepreau Nuclear Generating Station,Nuclear power plant,45.06944444,-66.45555556
Spain,Q29,http://www.wikidata.org/entity/Q5760813,Q5760813,Nuclear power plant,,
Spain,Q29,http://www.wikidata.org/entity/Q1739484,Trillo Nuclear Power Plant,Nuclear power plant,40.70138889,-2.62222222
Spain,Q29,http://www.wikidata.org/entity/Q1715858,Cofrentes Nuclear Power Plant,Nuclear power plant,39.21666667,-1.05
Spain,Q29,http://www.wikidata.org/entity/Q1640098,Ascó Nuclear Power Plant,Nuclear power plant,41.2,0.56944444
Spain,Q29,http://www.wikidata.org/entity/Q5760816,Central Nuclear de Moral de Sayago,Nuclear power plant,41.49045,-6.08054722
Spain,Q29,http://www.wikidata.org/entity/Q121162350,Q121162350,Nuclear power plant,43.724286325,-7.549451002
Spain,Q29,http://www.wikidata.org/entity/Q1561460,José Cabrera Nuclear Power Station,Nuclear power plant,40.349167,-2.884444
Spain,Q29,http://www.wikidata.org/entity/Q1739488,Valdecaballeros Nuclear Power Plant,Nuclear power plant,39.29083,-5.18056
Spain,Q29,http://www.wikidata.org/entity/Q1431041,Almaraz Nuclear Power Plant,Nuclear power plant,39.80805556,-5.69694444
Spain,Q29,http://www.wikidata.org/entity/Q1695264,Santa María de Garoña Nuclear Power Plant,Nuclear power plant,42.775,-3.20833333
Spain,Q29,http://www.wikidata.org/entity/Q507704,Vandellòs Nuclear Power Plant,Nuclear power plant,40.95138889,0.86666667
Spain,Q29,http://www.wikidata.org/entity/Q1520384,Lemoniz Nuclear Power Plant,Nuclear power plant,43.43333,-2.8725
Italy,Q38,http://www.wikidata.org/entity/Q1739370,Caorso Nuclear Power Plant,Nuclear power plant,45.07222222,9.87222222
Italy,Q38,http://www.wikidata.org/entity/Q1626301,Enrico Fermi Nuclear Power Plant,Nuclear power plant,45.184166666,8.277555555
Italy,Q38,http://www.wikidata.org/entity/Q1528979,CIRENE,Nuclear power plant,41.427222,12.808056
Italy,Q38,http://www.wikidata.org/entity/Q3664533,Q3664533,Nuclear power plant,45.25166667,8.19388889
Italy,Q38,http://www.wikidata.org/entity/Q1724901,Garigliano Nuclear Power Plant,Nuclear power plant,41.25833333,13.83472222
Italy,Q38,http://www.wikidata.org/entity/Q615128,Montalto di Castro Nuclear Power Station,Nuclear power plant,42.3588,11.5314
Italy,Q38,http://www.wikidata.org/entity/Q1739429,Latina Nuclear Power Plant,Nuclear power plant,41.425277777,12.807
Iran,Q794,http://www.wikidata.org/entity/Q7067988,Nuclear Power Plant,Nuclear power plant,,
Iran,Q794,http://www.wikidata.org/entity/Q1353243,Darkhovin Nuclear Power Plant,Nuclear power plant,30.707268,48.379687
Iran,Q794,http://www.wikidata.org/entity/Q204637,Bushehr Nuclear Power Plant,Nuclear power plant,28.82888889,50.88722222
Iran,Q794,http://www.wikidata.org/entity/Q113146110,Saveh nuclear power plant,Nuclear power plant,,
Iran,Q794,http://www.wikidata.org/entity/Q115207006,Isfahan nuclear power plant,Nuclear power plant,,
Switzerland,Q39,http://www.wikidata.org/entity/Q1480246,Kaiseraugst Nuclear Power Plant,Nuclear power plant,47.54,7.74889
Switzerland,Q39,http://www.wikidata.org/entity/Q686931,Mühleberg Nuclear Power Plant,Nuclear power plant,46.9708,7.27028
Switzerland,Q39,http://www.wikidata.org/entity/Q281837,Leibstadt Nuclear Power Plant,Nuclear power plant,47.6013,8.18375
Switzerland,Q39,http://www.wikidata.org/entity/Q687422,Gösgen Nuclear Power Plant,Nuclear power plant,47.3658,7.96889
Switzerland,Q39,http://www.wikidata.org/entity/Q663406,Niederamt Nuclear Power Plant,Nuclear power plant,47.3659,7.97423
Switzerland,Q39,http://www.wikidata.org/entity/Q686800,Beznau Nuclear Power Plant,Nuclear power plant,47.5522,8.22778
Ukraine,Q212,http://www.wikidata.org/entity/Q186223,South Ukraine Nuclear Power Plant,Nuclear power plant,47.81666667,31.21666667
Ukraine,Q212,http://www.wikidata.org/entity/Q4515680,Chyhyryn Nuclear Power Plant,Nuclear power plant,49.08944444,32.79
Ukraine,Q212,http://www.wikidata.org/entity/Q909477,Zaporizhzhia Nuclear Power Plant,Nuclear power plant,47.508333333,34.591666666
Ukraine,Q212,http://www.wikidata.org/entity/Q301915,Rivne Nuclear Power Plant,Nuclear power plant,51.32777778,25.89166667
Ukraine,Q212,http://www.wikidata.org/entity/Q215419,Chernobyl Nuclear Power Plant,Nuclear power plant,51.389553,30.099147
Ukraine,Q212,http://www.wikidata.org/entity/Q1037144,Khmelnytskyi Nuclear Power Plant,Nuclear power plant,50.305,26.645
Czech Republic,Q213,http://www.wikidata.org/entity/Q1502091,Temelín Nuclear Power Station,Nuclear power plant,49.18194444,14.38138889
Czech Republic,Q213,http://www.wikidata.org/entity/Q92584370,Tetov Nuclear Power Plant,Nuclear power plant,50.1067564,15.8373111
Czech Republic,Q213,http://www.wikidata.org/entity/Q687033,Dukovany Nuclear Power Station,Nuclear power plant,49.08509444,16.14899167
Czech Republic,Q213,http://www.wikidata.org/entity/Q111128253,Q111128253,Nuclear power plant,,
Czech Republic,Q213,http://www.wikidata.org/entity/Q92584373,Blahutovice Nuclear Powerstation,Nuclear power plant,49.5912878,17.8692861
Taiwan,Q865,http://www.wikidata.org/entity/Q712574,Jinshan Nuclear Power Plant,Nuclear power plant,25.29147459,121.56767324
Taiwan,Q865,http://www.wikidata.org/entity/Q711929,Kuosheng Nuclear Power Plant,Nuclear power plant,25.2029346,121.66286004
Taiwan,Q865,http://www.wikidata.org/entity/Q707536,Longmen Nuclear Power Plant,Nuclear power plant,25.03832756,121.9241153
Taiwan,Q865,http://www.wikidata.org/entity/Q712797,Maanshan Nuclear Power Plant,Nuclear power plant,21.958092,120.751612
Slovakia,Q214,http://www.wikidata.org/entity/Q13419743,Bohunice A1 Nuclear Power Plant,Nuclear power plant,48.4918,17.6728
Slovakia,Q214,http://www.wikidata.org/entity/Q111128523,Q111128523,Nuclear power plant,,
Slovakia,Q214,http://www.wikidata.org/entity/Q833602,Bohunice Nuclear Power Plant,Nuclear power plant,48.49444444,17.68055556
Slovakia,Q214,http://www.wikidata.org/entity/Q1085951,Mochovce Nuclear Power Plant,Nuclear power plant,48.26388889,18.45694444
Turkey,Q43,http://www.wikidata.org/entity/Q1630042,Akkuyu Nuclear Power Plant,Nuclear power plant,36.14444444,33.54111111
Turkey,Q43,http://www.wikidata.org/entity/Q13220866,Sinop Nuclear Power Plant,Nuclear power plant,42.0,35.0
Turkey,Q43,http://www.wikidata.org/entity/Q110259610,İğneada Nuclear Power Plant,Nuclear power plant,,
Poland,Q36,http://www.wikidata.org/entity/Q124313589,Choczewo Nuclear Power Plant,Nuclear power plant,54.7961,17.7875
Poland,Q36,http://www.wikidata.org/entity/Q9252499,"""Warta"" Nuclear Power Plant",Nuclear power plant,52.7941,16.4958
Poland,Q36,http://www.wikidata.org/entity/Q108904470,Warta-Klempic Nuclear Power Station,Nuclear power plant,,
Finland,Q33,http://www.wikidata.org/entity/Q1412996,Olkiluoto Nuclear Power Plant,Nuclear power plant,61.23666667,21.44222222
Finland,Q33,http://www.wikidata.org/entity/Q743467,Hanhikivi Nuclear Power Plant,Nuclear power plant,64.53055556,24.26388889
Finland,Q33,http://www.wikidata.org/entity/Q1061884,Loviisa Nuclear Power Plant,Nuclear power plant,60.37222223,26.34722223
Soviet Union,Q15180,http://www.wikidata.org/entity/Q4342936,Pamir-630D,Nuclear power plant,,
Soviet Union,Q15180,http://www.wikidata.org/entity/Q4515680,Chyhyryn Nuclear Power Plant,Nuclear power plant,49.08944444,32.79
Soviet Union,Q15180,http://www.wikidata.org/entity/Q114388647,Q114388647,Nuclear power plant,,
Belgium,Q31,http://www.wikidata.org/entity/Q1739399,Doel Nuclear Power Station,Nuclear power plant,51.32528,4.26111
Belgium,Q31,http://www.wikidata.org/entity/Q1739481,Tihange Nuclear Power Station,Nuclear power plant,50.53278,5.27556
Belarus,Q184,http://www.wikidata.org/entity/Q2639309,Belarusian nuclear power plant,Nuclear power plant,54.7610424,26.0927793
Belarus,Q184,http://www.wikidata.org/entity/Q113146107,Q113146107,Nuclear power plant,,
Argentina,Q414,http://www.wikidata.org/entity/Q1756456,Atucha Nuclear Power Plant,Nuclear power plant,-33.9675265,-59.2058638
Argentina,Q414,http://www.wikidata.org/entity/Q597821,Embalse Nuclear Power Station,Nuclear power plant,-32.232,-64.443
South Africa,Q258,http://www.wikidata.org/entity/Q3664629,Q3664629,Nuclear power plant,,
South Africa,Q258,http://www.wikidata.org/entity/Q941797,Koeberg Nuclear Power Station,Nuclear power plant,-33.67666667,18.43194444
Lithuania,Q37,http://www.wikidata.org/entity/Q847687,Ignalina Nuclear Power Plant,Nuclear power plant,55.604444,26.56
Lithuania,Q37,http://www.wikidata.org/entity/Q1537471,Visaginas Nuclear Power Plant,Nuclear power plant,55.60569944,26.5758419
Pakistan,Q843,http://www.wikidata.org/entity/Q82404,Chashma Nuclear Power Complex,Nuclear power plant,32.39157,71.463777
Pakistan,Q843,http://www.wikidata.org/entity/Q1274134,Karachi Nuclear Power Plant,Nuclear power plant,24.845,66.787778
Netherlands,Q55,http://www.wikidata.org/entity/Q575275,Dodewaard nuclear power plant,Nuclear power plant,51.899444,5.686111
Netherlands,Q55,http://www.wikidata.org/entity/Q1381790,Borssele Nuclear Power Station,Nuclear power plant,51.431944,3.716667
Brazil,Q155,http://www.wikidata.org/entity/Q740586,Angra Nuclear Power Plant,Nuclear power plant,-23.00833333,-44.45833333
Brazil,Q155,http://www.wikidata.org/entity/Q119041233,Q119041233,Nuclear power plant,,
Romania,Q218,http://www.wikidata.org/entity/Q1248956,Cernavodă Nuclear Power Plant,Nuclear power plant,44.32234722,28.05728056
Romania,Q218,http://www.wikidata.org/entity/Q117710013,Q117710013,Nuclear power plant,,
Vietnam,Q881,http://www.wikidata.org/entity/Q7038787,Ninh Thuận 1 Nuclear Power Plant,Nuclear power plant,11.41333333,108.97472222
Vietnam,Q881,http://www.wikidata.org/entity/Q7038783,Ninh Thuận 2 Nuclear Power Plant,Nuclear power plant,11.69055556,109.17527778
Cuba,Q241,http://www.wikidata.org/entity/Q1520114,Juragua Nuclear Power Plant,Nuclear power plant,22.0669,-80.5092
Cuba,Q241,http://www.wikidata.org/entity/Q114388645,Q114388645,Nuclear power plant,,
Nigeria,Q1033,http://www.wikidata.org/entity/Q48795688,Itu nuclear power plant,Nuclear power plant,5.205,7.97
Nigeria,Q1033,http://www.wikidata.org/entity/Q48795655,Geregu nuclear power plant,Nuclear power plant,7.57,6.69
Mexico,Q96,http://www.wikidata.org/entity/Q371499,Laguna Verde Nuclear Power Station,Nuclear power plant,19.72078333,-96.40634167
Slovenia,Q215,http://www.wikidata.org/entity/Q474478,Krško Nuclear Power Plant,Nuclear power plant,45.93841389,15.51546944
Austria,Q40,http://www.wikidata.org/entity/Q593463,Zwentendorf Nuclear Power Plant,Nuclear power plant,48.3544,15.8847
Egypt,Q79,http://www.wikidata.org/entity/Q30083718,El Dabaa Nuclear Power Plant,Nuclear power plant,31.044166666,28.497777777
Egypt,Q79,http://www.wikidata.org/entity/Q119041234,Q119041234,Nuclear power plant,,
Philippines,Q928,http://www.wikidata.org/entity/Q2805405,Bataan Nuclear Power Plant,Nuclear power plant,14.62916667,120.31361111
Australia,Q408,http://www.wikidata.org/entity/Q1000969,Jervis Bay Nuclear Power Plant proposal,Nuclear power plant,-35.126244,150.753686
Armenia,Q399,http://www.wikidata.org/entity/Q946058,Armenian Nuclear Power Plant,Nuclear power plant,40.18247222,44.1425
Hungary,Q28,http://www.wikidata.org/entity/Q1188635,Paks Nuclear Power Plant,Nuclear power plant,46.5725,18.85416667
Bulgaria,Q219,http://www.wikidata.org/entity/Q1032792,Kozloduy Nuclear Power Plant,Nuclear power plant,43.74613889,23.77050556
Luxembourg,Q32,http://www.wikidata.org/entity/Q13101619,Remerschen nuclear power station,Nuclear power plant,49.4934,6.362
United Arab Emirates,Q878,http://www.wikidata.org/entity/Q19959586,Barakah nuclear power plant,Nuclear power plant,23.967777777,52.231666666
Bangladesh,Q902,http://www.wikidata.org/entity/Q7380438,Rooppur Nuclear Power Plant,Nuclear power plant,24.0701411,89.0461556
Morocco,Q1028,http://www.wikidata.org/entity/Q25384399,Sidi Boulbra,Nuclear power plant,31.908466,-9.464205
Uzbekistan,Q265,http://www.wikidata.org/entity/Q60851209,Nuclear power plant in the Jizzakh region of Uzbekistan,Nuclear power plant,40.583333333,67.333333333
Portugal,Q45,http://www.wikidata.org/entity/Q118877142,Central Nuclear de Ferrel,Nuclear power plant,,
Georgia,Q230,http://www.wikidata.org/entity/Q121254962,Q121254962,Nuclear power plant,,
Azerbaijan,Q227,http://www.wikidata.org/entity/Q121682653,Səngəçal Nuclear Power Station,Nuclear power plant,,
