country_name,country_qid,entity,label,type,latitude,longitude
United Kingdom,Q145,http://www.wikidata.org/entity/Q1629859,Drax power station,Biomass-fired power station,53.7358,-0.996389
France,Q142,http://www.wikidata.org/entity/Q1839493,Provence Power Station,Biomass-fired power station,43.469438888,5.486111111
France,Q142,http://www.wikidata.org/entity/Q2944719,Port-Est bioenergy power plant,Biomass-fired power station,-20.93056,55.32694
France,Q142,http://www.wikidata.org/entity/Q65923053,Q65923053,Biomass-fired power station,-20.9142559,55.6351399
Denmark,Q35,http://www.wikidata.org/entity/Q7719474,Herning Power Station,Biomass-fired power station,56.1213,9.00694
Denmark,Q35,http://www.wikidata.org/entity/Q3432984,Asnæs Power Station,Biomass-fired power station,55.66130556,11.07894444
Denmark,Q35,http://www.wikidata.org/entity/Q12001324,Skærbæk Power Station,Biomass-fired power station,55.5117,9.6148
Denmark,Q35,http://www.wikidata.org/entity/Q3432240,Avedøre Power Station,Biomass-fired power station,55.602761,12.47925
Denmark,Q35,http://www.wikidata.org/entity/Q12301241,Amager power station,Biomass-fired power station,55.68555556,12.62611111
Denmark,Q35,http://www.wikidata.org/entity/Q1355591,Studstrup Power Station,Biomass-fired power station,56.251388888,10.344444444
Uganda,Q1036,http://www.wikidata.org/entity/Q20894753,Mayuge Thermal Power Station,Biomass-fired power station,0.50527778,33.41555556
Uganda,Q1036,http://www.wikidata.org/entity/Q18386727,Kaliro Power Station,Biomass-fired power station,0.936389,33.4831
Uganda,Q1036,http://www.wikidata.org/entity/Q6414458,Kinyara Power Station,Biomass-fired power station,1.63555556,31.60555556
Uganda,Q1036,http://www.wikidata.org/entity/Q6699741,Lugazi Power Station,Biomass-fired power station,0.38,32.945
Uganda,Q1036,http://www.wikidata.org/entity/Q6349473,Kakira Power Station,Biomass-fired power station,0.50888889,33.29
Brazil,Q155,http://www.wikidata.org/entity/Q106515584,Q106515584,Biomass-fired power station,-21.86583333,-54.02222222
Brazil,Q155,http://www.wikidata.org/entity/Q106515587,Q106515587,Biomass-fired power station,-21.5859451,-54.2482728
Brazil,Q155,http://www.wikidata.org/entity/Q106515577,Q106515577,Biomass-fired power station,-20.5982356,-51.6102418
Brazil,Q155,http://www.wikidata.org/entity/Q106515583,Q106515583,Biomass-fired power station,-17.695,-51.62027778
Germany,Q183,http://www.wikidata.org/entity/Q864563,Lünen biomass power station,Biomass-fired power station,51.6212,7.46615
Germany,Q183,http://www.wikidata.org/entity/Q20671817,Emden power station,Biomass-fired power station,53.3404,7.2102
United States,Q30,http://www.wikidata.org/entity/Q116715229,Roseburg Forest Products Biomass,Biomass-fired power station,41.435556,-122.3769
United States,Q30,http://www.wikidata.org/entity/Q116713024,Kaukauna Paper Mill,Biomass-fired power station,44.2826,-88.2534
United States,Q30,http://www.wikidata.org/entity/Q116714123,Columbus MS,Biomass-fired power station,33.3602,-88.46
United States,Q30,http://www.wikidata.org/entity/Q116712664,Mesquite Lake Energy Park Plant 2,Biomass-fired power station,32.903826,-115.5119
United States,Q30,http://www.wikidata.org/entity/Q116712796,ReEnergy Stratton LLC,Biomass-fired power station,45.140614,-70.42558
United States,Q30,http://www.wikidata.org/entity/Q116714528,Georgia-Pacific Brewton Mill,Biomass-fired power station,31.077,-87.1116
United States,Q30,http://www.wikidata.org/entity/Q116714628,Sauder Power Plant,Biomass-fired power station,41.515211,-84.29355
United States,Q30,http://www.wikidata.org/entity/Q116714273,Alabama Pine Pulp,Biomass-fired power station,31.5825,-87.4889
United States,Q30,http://www.wikidata.org/entity/Q116712857,Florence Mill,Biomass-fired power station,34.1497,-79.5606
United States,Q30,http://www.wikidata.org/entity/Q116714075,Big Valley Power LLC,Biomass-fired power station,41.1325,-121.1372
United States,Q30,http://www.wikidata.org/entity/Q116713071,Interstate Paper LLC Riceboro,Biomass-fired power station,31.741629,-81.40786
United States,Q30,http://www.wikidata.org/entity/Q116714042,Sierra Pacific Lincoln Facility,Biomass-fired power station,38.9032,-121.3097
United States,Q30,http://www.wikidata.org/entity/Q116713205,Mt Poso Cogeneration,Biomass-fired power station,35.576323,-119.0062
United States,Q30,http://www.wikidata.org/entity/Q116714598,Enderlin,Biomass-fired power station,46.6144,-97.5765
United States,Q30,http://www.wikidata.org/entity/Q116713020,International Paper Georgetown Mill,Biomass-fired power station,33.360185,-79.30257
United States,Q30,http://www.wikidata.org/entity/Q116712681,Georgia-Pacific Corp - Nekoosa Mill,Biomass-fired power station,44.3142,-89.8964
United States,Q30,http://www.wikidata.org/entity/Q116712594,Stored Solar Bethlehem LLC,Biomass-fired power station,44.3274,-71.68
United States,Q30,http://www.wikidata.org/entity/Q116712833,"Stored Solar Tamworth, LLC",Biomass-fired power station,43.835833,-71.1967
United States,Q30,http://www.wikidata.org/entity/Q116714101,Woodland Biomass Power Ltd,Biomass-fired power station,38.6905,-121.7371
United States,Q30,http://www.wikidata.org/entity/Q116714104,"Stored Solar Springfield, LLC",Biomass-fired power station,43.442871,-72.056
United States,Q30,http://www.wikidata.org/entity/Q116714332,Nippon Dynawave Packaging Longview WA,Biomass-fired power station,46.1236,-122.9728
United States,Q30,http://www.wikidata.org/entity/Q116714269,Cadillac Renewable Energy,Biomass-fired power station,44.26169,-85.43522
United States,Q30,http://www.wikidata.org/entity/Q116712898,Covington Facility,Biomass-fired power station,37.799722,-79.9947
United States,Q30,http://www.wikidata.org/entity/Q116712935,Co-Gen II LLC,Biomass-fired power station,42.961126,-123.3591
United States,Q30,http://www.wikidata.org/entity/Q116714566,Cox Waste to Energy,Biomass-fired power station,37.3208,-85.3611
United States,Q30,http://www.wikidata.org/entity/Q116714515,WestRock Demopolis Mill,Biomass-fired power station,32.4541,-87.9759
United States,Q30,http://www.wikidata.org/entity/Q116712790,Sappi Cloquet Mill,Biomass-fired power station,46.7243,-92.4298
United States,Q30,http://www.wikidata.org/entity/Q116713023,International Paper Texarkana Mill,Biomass-fired power station,33.2553,-94.0696
United States,Q30,http://www.wikidata.org/entity/Q116712734,Georgia-Pacific Big Island,Biomass-fired power station,37.534,-79.357
United States,Q30,http://www.wikidata.org/entity/Q116712712,S D Warren Westbrook,Biomass-fired power station,43.684857,-70.35315
United States,Q30,http://www.wikidata.org/entity/Q116713021,Mansfield Mill,Biomass-fired power station,32.1575,-93.5562
United States,Q30,http://www.wikidata.org/entity/Q116714254,International Paper Riverdale Mill,Biomass-fired power station,32.426016,-86.87091
United States,Q30,http://www.wikidata.org/entity/Q116712755,Pacific-Ultrapower Chinese Station,Biomass-fired power station,37.874056,-120.4776
United States,Q30,http://www.wikidata.org/entity/Q116714106,"Stored Solar Whitefield, LLC",Biomass-fired power station,44.358047,-71.5449
United States,Q30,http://www.wikidata.org/entity/Q116712789,Clearwater Paper APP CB,Biomass-fired power station,33.7061,-91.2371
United States,Q30,http://www.wikidata.org/entity/Q116714141,Billerud Quinnesec Mill,Biomass-fired power station,45.7956,-87.9556
United States,Q30,http://www.wikidata.org/entity/Q116714315,Rumford Cogeneration,Biomass-fired power station,44.5513,-70.5414
United States,Q30,http://www.wikidata.org/entity/Q116714346,U S Alliance Coosa Pines,Biomass-fired power station,33.328107,-86.35683
United States,Q30,http://www.wikidata.org/entity/Q116712685,International Paper Savannah Mill,Biomass-fired power station,32.100354,-81.12425
United States,Q30,http://www.wikidata.org/entity/Q116712862,Hopewell Mill,Biomass-fired power station,37.2914,-77.2816
United States,Q30,http://www.wikidata.org/entity/Q116714643,Packaging Corp. of America Jackson Mill,Biomass-fired power station,31.4894,-87.8989
United States,Q30,http://www.wikidata.org/entity/Q116713055,Stockton Biomass,Biomass-fired power station,37.943633,-121.3304
United States,Q30,http://www.wikidata.org/entity/Q116712939,"Ryegate Associates, LLC",Biomass-fired power station,44.2131,-72.0572
United States,Q30,http://www.wikidata.org/entity/Q116712735,Clewiston Sugar House,Biomass-fired power station,26.7351,-80.9377
United States,Q30,http://www.wikidata.org/entity/Q116712726,Buckeye Florida LP,Biomass-fired power station,30.0688,-83.5253
United States,Q30,http://www.wikidata.org/entity/Q116713178,Longview Fibre,Biomass-fired power station,46.103887,-122.9184
United States,Q30,http://www.wikidata.org/entity/Q116712684,Pixelle Specialty Solutions LLC - Spring Grove Facility,Biomass-fired power station,39.870935,-76.86812
United States,Q30,http://www.wikidata.org/entity/Q116713031,Ashdown,Biomass-fired power station,33.6417,-94.1083
United States,Q30,http://www.wikidata.org/entity/Q116712905,Co-Gen LLC,Biomass-fired power station,44.458696,-118.7206
United States,Q30,http://www.wikidata.org/entity/Q116712621,Packaging Corp of America,Biomass-fired power station,35.0471,-88.2661
United States,Q30,http://www.wikidata.org/entity/Q116714326,Craven County Wood Energy LP,Biomass-fired power station,35.130193,-77.16788
United States,Q30,http://www.wikidata.org/entity/Q116714072,Escanaba Mill,Biomass-fired power station,45.8044,-87.0891
United States,Q30,http://www.wikidata.org/entity/Q116712724,Flint River Operations,Biomass-fired power station,32.2544,-84.0667
United States,Q30,http://www.wikidata.org/entity/Q116713222,International Paper Riegelwood Mill,Biomass-fired power station,34.3533,-78.2137
United States,Q30,http://www.wikidata.org/entity/Q116713113,Graphic Packaging International Augusta Mill,Biomass-fired power station,33.328259,-81.95308
United States,Q30,http://www.wikidata.org/entity/Q116714271,Gaylord Container Bogalusa,Biomass-fired power station,30.7811,-89.8575
United States,Q30,http://www.wikidata.org/entity/Q116713200,"Stored Solar Fitchburg, LLC",Biomass-fired power station,42.5428,-71.8528
United States,Q30,http://www.wikidata.org/entity/Q116714224,Bowater Newsprint Calhoun Operation,Biomass-fired power station,35.2964,-84.7569
United States,Q30,http://www.wikidata.org/entity/Q116712998,International Paper Franklin Mill,Biomass-fired power station,36.6803,-76.9128
United States,Q30,http://www.wikidata.org/entity/Q116712689,Somerset Plant,Biomass-fired power station,44.703467,-69.64744
United States,Q30,http://www.wikidata.org/entity/Q116713207,Okeelanta Cogeneration,Biomass-fired power station,26.5769,-80.7469
United States,Q30,http://www.wikidata.org/entity/Q116714847,Nacogdoches Power,Biomass-fired power station,31.832132,-94.90064
United States,Q30,http://www.wikidata.org/entity/Q116714539,Mead Coated Board,Biomass-fired power station,32.1761,-85.0272
United States,Q30,http://www.wikidata.org/entity/Q116714103,Covanta Mendota,Biomass-fired power station,36.755896,-120.3654
United States,Q30,http://www.wikidata.org/entity/Q116714144,KapStone Kraft Paper Corp,Biomass-fired power station,36.4769,-77.6414
United States,Q30,http://www.wikidata.org/entity/Q116713028,Georgia-Pacific Cedar Springs,Biomass-fired power station,31.166,-85.0951
United States,Q30,http://www.wikidata.org/entity/Q116713149,Riverwood International Macon Mill,Biomass-fired power station,32.7714,-83.6281
United States,Q30,http://www.wikidata.org/entity/Q116712849,National Energy of McBain,Biomass-fired power station,44.204,-85.2206
United States,Q30,http://www.wikidata.org/entity/Q116714322,Finch Paper,Biomass-fired power station,43.3084,-73.6376
United States,Q30,http://www.wikidata.org/entity/Q116714125,Domtar Paper Co LLC Plymouth NC,Biomass-fired power station,35.8628,-76.7831
United States,Q30,http://www.wikidata.org/entity/Q116712779,Mosinee Mill,Biomass-fired power station,44.7881,-89.6917
United States,Q30,http://www.wikidata.org/entity/Q116712787,Clearwater Paper IPP Lewiston,Biomass-fired power station,46.423056,-116.9764
United States,Q30,http://www.wikidata.org/entity/Q116712990,International Paper Prattville Mill,Biomass-fired power station,32.4187,-86.4718
United States,Q30,http://www.wikidata.org/entity/Q116713198,Ingredion Winston Salem,Biomass-fired power station,36.033761,-80.2274
United States,Q30,http://www.wikidata.org/entity/Q116714175,Port Townsend Paper,Biomass-fired power station,48.0931,-122.7958
United States,Q30,http://www.wikidata.org/entity/Q116714733,Kentucky Mills,Biomass-fired power station,37.8948,-86.6854
United States,Q30,http://www.wikidata.org/entity/Q116714139,International Paper Pensacola,Biomass-fired power station,30.5966,-87.3264
United States,Q30,http://www.wikidata.org/entity/Q116712879,Wheelabrator Shasta,Biomass-fired power station,40.428329,-122.2792
United States,Q30,http://www.wikidata.org/entity/Q116712997,Sylvamo Corporation Eastover Facility,Biomass-fired power station,33.8872,-80.6397
United States,Q30,http://www.wikidata.org/entity/Q116712851,National Energy of Lincoln,Biomass-fired power station,44.68,-83.4167
United States,Q30,http://www.wikidata.org/entity/Q116712732,Packaging of America Tomahawk Mill,Biomass-fired power station,45.4431,-89.7342
United States,Q30,http://www.wikidata.org/entity/Q116714119,Biomass One LP,Biomass-fired power station,42.436111,-122.85
United States,Q30,http://www.wikidata.org/entity/Q116713159,Sierra Pacific Sonora,Biomass-fired power station,37.966389,-120.3178
United States,Q30,http://www.wikidata.org/entity/Q116712682,Dillard Complex,Biomass-fired power station,43.0895,-123.4156
United States,Q30,http://www.wikidata.org/entity/Q116713027,International Paper Vicksburg Mill,Biomass-fired power station,32.5292,-90.7742
United States,Q30,http://www.wikidata.org/entity/Q116712937,Enterprise Sugar Factory,Biomass-fired power station,29.903611,-91.72556
United States,Q30,http://www.wikidata.org/entity/Q116714660,Plummer Cogen,Biomass-fired power station,47.331006,-116.8904
United States,Q30,http://www.wikidata.org/entity/Q116714138,Canton North Carolina,Biomass-fired power station,35.535,-82.8411
United States,Q30,http://www.wikidata.org/entity/Q116714919,Sierra Pacific Aberdeen,Biomass-fired power station,46.9728,-123.7739
United States,Q30,http://www.wikidata.org/entity/Q116714037,Fairhaven Power,Biomass-fired power station,40.7995,-124.2028
United States,Q30,http://www.wikidata.org/entity/Q116712620,Wadham Energy LP,Biomass-fired power station,39.1062,-122.1096
United States,Q30,http://www.wikidata.org/entity/Q116712859,WestRock Panama City Mill,Biomass-fired power station,30.141984,-85.6211
United States,Q30,http://www.wikidata.org/entity/Q116714508,International Paper Pine Hill Mill,Biomass-fired power station,31.9698,-87.4806
United States,Q30,http://www.wikidata.org/entity/Q116712856,Port Wentworth Mill,Biomass-fired power station,32.1561,-81.1586
United States,Q30,http://www.wikidata.org/entity/Q116713213,Johnsonburg Mill,Biomass-fired power station,41.491466,-78.67576
United States,Q30,http://www.wikidata.org/entity/Q116714295,Genesee Power Station LP,Biomass-fired power station,43.08511,-83.66939
United States,Q30,http://www.wikidata.org/entity/Q116712860,Westrock Hodge (LA),Biomass-fired power station,32.2752,-92.7277
United States,Q30,http://www.wikidata.org/entity/Q116715182,Sierra Pacific Burlington Facility,Biomass-fired power station,48.4481,-122.4331
United States,Q30,http://www.wikidata.org/entity/Q116715051,Medford Operation,Biomass-fired power station,42.355517,-122.9046
United States,Q30,http://www.wikidata.org/entity/Q116714071,Fernandina Beach Mill,Biomass-fired power station,30.681823,-81.45541
United States,Q30,http://www.wikidata.org/entity/Q116712358,Georgia-Pacific Palatka Operations,Biomass-fired power station,29.6807,-81.6809
United States,Q30,http://www.wikidata.org/entity/Q116712309,Wisconsin Rapids Pulp Mill,Biomass-fired power station,44.3953,-89.826
United States,Q30,http://www.wikidata.org/entity/Q116712201,Alabama River Pulp,Biomass-fired power station,31.5825,-87.4889
United States,Q30,http://www.wikidata.org/entity/Q116712510,Humboldt Sawmill Company,Biomass-fired power station,40.4728,-124.1014
United States,Q30,http://www.wikidata.org/entity/Q116712438,HL Power,Biomass-fired power station,40.368338,-120.2648
United States,Q30,http://www.wikidata.org/entity/Q116712498,Plant 31 Paper Mill,Biomass-fired power station,32.486787,-92.1496
United States,Q30,http://www.wikidata.org/entity/Q116712465,Grayling Generating Station,Biomass-fired power station,44.604921,-84.69058
United States,Q30,http://www.wikidata.org/entity/Q6860078,Milltown Biomass-to-Energy Power Station,Biomass-fired power station,38.358888888,-86.283888888
United States,Q30,http://www.wikidata.org/entity/Q116712381,Collins Pine Project,Biomass-fired power station,40.303422,-121.2444
United States,Q30,http://www.wikidata.org/entity/Q116712538,WestRock (TX),Biomass-fired power station,30.3419,-94.0656
United States,Q30,http://www.wikidata.org/entity/Q116712586,International Paper Valliant OK,Biomass-fired power station,33.9961,-95.1114
United States,Q30,http://www.wikidata.org/entity/Q116712366,Pine Bluff Mill,Biomass-fired power station,34.221213,-91.90737
United States,Q30,http://www.wikidata.org/entity/Q116712262,ReEnergy Livermore Falls,Biomass-fired power station,44.431667,-70.1619
United States,Q30,http://www.wikidata.org/entity/Q5501798,French Island Generating Plant,Biomass-fired power station,43.8292,-91.2594
United States,Q30,http://www.wikidata.org/entity/Q116712541,Sierra Pacific Burney Facility,Biomass-fired power station,40.8767,-121.7016
United States,Q30,http://www.wikidata.org/entity/Q116712166,PInova Inc,Biomass-fired power station,31.164772,-81.47872
United States,Q30,http://www.wikidata.org/entity/Q116712425,Blue Lake Power LLC,Biomass-fired power station,40.8786,-123.9942
United States,Q30,http://www.wikidata.org/entity/Q116712287,International Paper - Orange,Biomass-fired power station,30.2178,-93.7422
United States,Q30,http://www.wikidata.org/entity/Q116712333,Jesup Plant,Biomass-fired power station,31.6593,-81.8439
United States,Q30,http://www.wikidata.org/entity/Q116712337,Fernandina Plant,Biomass-fired power station,30.6612,-81.473
United States,Q30,http://www.wikidata.org/entity/Q116712348,Agrilectric Power Partners Ltd,Biomass-fired power station,30.2012,-93.1269
United States,Q30,http://www.wikidata.org/entity/Q116712217,Pixelle Specialty Solutions LLC - Chillicothe Facility,Biomass-fired power station,39.324611,-82.97404
United States,Q30,http://www.wikidata.org/entity/Q116712310,Boise Cascade International Falls,Biomass-fired power station,48.6067,-93.4066
United States,Q30,http://www.wikidata.org/entity/Q116712126,WestRock-West Point Mill,Biomass-fired power station,37.5392,-76.8053
United States,Q30,http://www.wikidata.org/entity/Q116712378,Burney Forest Products,Biomass-fired power station,40.879719,-121.7203
United States,Q30,http://www.wikidata.org/entity/Q116712209,Leaf River Cellulose LLC,Biomass-fired power station,31.2434,-89.0456
United States,Q30,http://www.wikidata.org/entity/Q116712435,Altavista Power Station,Biomass-fired power station,37.118674,-79.27355
United States,Q30,http://www.wikidata.org/entity/Q116696356,J C McNeil,Biomass-fired power station,44.4917,-73.20806
United States,Q30,http://www.wikidata.org/entity/Q116712427,Indeck Jonesboro Energy Center,Biomass-fired power station,44.6781,-67.5477
United States,Q30,http://www.wikidata.org/entity/Q116697433,Bay Front,Biomass-fired power station,46.587222,-90.9017
United States,Q30,http://www.wikidata.org/entity/Q116712305,ReEnergy Black River,Biomass-fired power station,44.03647,-75.77204
United States,Q30,http://www.wikidata.org/entity/Q116712239,Bridgewater Power LP,Biomass-fired power station,43.7155,-71.6585
United States,Q30,http://www.wikidata.org/entity/Q116712289,Inland Paperboard Packaging Rome,Biomass-fired power station,34.2528,-85.3275
United States,Q30,http://www.wikidata.org/entity/Q116712580,Cosmo Specialty Fibers Plant,Biomass-fired power station,46.954071,-123.7611
United States,Q30,http://www.wikidata.org/entity/Q116712589,"Multitrade Rabun Gap, LLC",Biomass-fired power station,34.9536,-83.3786
United States,Q30,http://www.wikidata.org/entity/Q116712432,Hopewell Power Station,Biomass-fired power station,37.297834,-77.28298
United States,Q30,http://www.wikidata.org/entity/Q116712392,Eastern Correctional Institute,Biomass-fired power station,38.159,-75.704
United States,Q30,http://www.wikidata.org/entity/Q116712243,Desert View Power,Biomass-fired power station,33.586,-116.0873
United States,Q30,http://www.wikidata.org/entity/Q116697469,Manitowoc,Biomass-fired power station,44.082,-87.6558
United States,Q30,http://www.wikidata.org/entity/Q116712428,Indeck West Enfield Energy Center,Biomass-fired power station,45.2537,-68.62792
United States,Q30,http://www.wikidata.org/entity/Q12002398,Springerville Generating Station,Biomass-fired power station,34.3186,-109.1639
United States,Q30,http://www.wikidata.org/entity/Q116712543,Sierra Pacific Quincy Facility,Biomass-fired power station,39.941165,-120.9092
United States,Q30,http://www.wikidata.org/entity/Q116711947,Kapstone,Biomass-fired power station,32.9,-79.9667
United States,Q30,http://www.wikidata.org/entity/Q19387773,Schiller Power Plant,Biomass-fired power station,43.0978,-70.7842
United States,Q30,http://www.wikidata.org/entity/Q116712359,"Woodland Pulp, LLC",Biomass-fired power station,45.1554,-67.4012
United States,Q30,http://www.wikidata.org/entity/Q116712268,Lumberton,Biomass-fired power station,34.59,-78.9968
United States,Q30,http://www.wikidata.org/entity/Q116712352,Brunswick Cellulose,Biomass-fired power station,31.175406,-81.52164
United States,Q30,http://www.wikidata.org/entity/Q5321971,E. J. Stoneman Generating Station,Biomass-fired power station,42.7083,-90.9847
United States,Q30,http://www.wikidata.org/entity/Q116712313,DeRidder Mill,Biomass-fired power station,30.8606,-93.3756
United States,Q30,http://www.wikidata.org/entity/Q116712258,Hillman Power LLC,Biomass-fired power station,45.0688,-83.8932
United States,Q30,http://www.wikidata.org/entity/Q116712397,Red Shield Envir Old Town Facility,Biomass-fired power station,44.918063,-68.63554
United States,Q30,http://www.wikidata.org/entity/Q116712430,Rio Bravo Fresno,Biomass-fired power station,36.688915,-119.7232
United States,Q30,http://www.wikidata.org/entity/Q116712219,Domtar Kingsport Mill,Biomass-fired power station,36.5489,-82.5667
United States,Q30,http://www.wikidata.org/entity/Q116712434,Rio Bravo Rocklin,Biomass-fired power station,38.8319,-121.3137
United States,Q30,http://www.wikidata.org/entity/Q116696709,M L Hibbard,Biomass-fired power station,46.735331,-92.15171
United States,Q30,http://www.wikidata.org/entity/Q116712393,St Francisville Mill,Biomass-fired power station,30.7108,-91.3236
United States,Q30,http://www.wikidata.org/entity/Q116712584,IP Springfield Oregon,Biomass-fired power station,44.0569,-122.9555
United States,Q30,http://www.wikidata.org/entity/Q116712396,Georgia-Pacific Consr Prods LP-Naheola,Biomass-fired power station,32.2268,-88.0252
United States,Q30,http://www.wikidata.org/entity/Q5446470,Fibrominn,Biomass-fired power station,45.322222222,-95.63
United States,Q30,http://www.wikidata.org/entity/Q116712582,International Paper Co. - New Bern Mill,Biomass-fired power station,35.212,-77.1144
United States,Q30,http://www.wikidata.org/entity/Q116712472,Covanta Delano Energy,Biomass-fired power station,35.7144,-119.2337
United States,Q30,http://www.wikidata.org/entity/Q116712559,Snider Industries,Biomass-fired power station,32.574722,-94.37389
United States,Q30,http://www.wikidata.org/entity/Q116696673,John H Warden,Biomass-fired power station,46.7553,-88.4558
United States,Q30,http://www.wikidata.org/entity/Q116712537,Tamarack Energy Partnership,Biomass-fired power station,44.954853,-116.3871
United States,Q30,http://www.wikidata.org/entity/Q116696327,Kettle Falls Generating Station,Biomass-fired power station,48.620336,-118.1111
United States,Q30,http://www.wikidata.org/entity/Q116718334,Burgess BioPower,Biomass-fired power station,44.471944,-71.17528
United States,Q30,http://www.wikidata.org/entity/Q116721995,Douglas County Forest Products,Biomass-fired power station,43.2898,-123.3616
United States,Q30,http://www.wikidata.org/entity/Q116720741,Albany Green Energy,Biomass-fired power station,31.5559,-84.1103
United States,Q30,http://www.wikidata.org/entity/Q116719876,Woodville Renewable Power Project,Biomass-fired power station,30.748333,-94.4375
United States,Q30,http://www.wikidata.org/entity/Q116718262,Darrington,Biomass-fired power station,48.269737,-121.6
United States,Q30,http://www.wikidata.org/entity/Q116715757,Koda Biomass Plant,Biomass-fired power station,44.7956,-93.5386
United States,Q30,http://www.wikidata.org/entity/Q116716046,Marlboro Mill,Biomass-fired power station,34.605,-79.785
United States,Q30,http://www.wikidata.org/entity/Q116718374,Georgia-Pacific Toledo Mill,Biomass-fired power station,44.611944,-123.9319
United States,Q30,http://www.wikidata.org/entity/Q116718683,City of Hayward WWTP,Biomass-fired power station,37.633526,-122.1397
United States,Q30,http://www.wikidata.org/entity/Q116716414,Deerhaven Renewable,Biomass-fired power station,29.7675,-82.39639
United States,Q30,http://www.wikidata.org/entity/Q116734151,Southampton Power Station,Biomass-fired power station,36.6525,-76.9953
United States,Q30,http://www.wikidata.org/entity/Q116720824,Athens Energy,Biomass-fired power station,44.945514,-69.66071
United States,Q30,http://www.wikidata.org/entity/Q116721083,SPI Anderson 2,Biomass-fired power station,40.472283,-122.3242
United States,Q30,http://www.wikidata.org/entity/Q116716031,Seneca Sustainable Energy LLC,Biomass-fired power station,44.116306,-123.179
United States,Q30,http://www.wikidata.org/entity/Q116724547,Georges River Energy,Biomass-fired power station,44.3331,-69.2019
United States,Q30,http://www.wikidata.org/entity/Q116718579,McKinley Paper Co. - Washington Mill,Biomass-fired power station,48.134722,-123.4656
United States,Q30,http://www.wikidata.org/entity/Q116716043,Westervelt Moundville Cogen,Biomass-fired power station,32.960714,-87.65542
United States,Q30,http://www.wikidata.org/entity/Q116715437,Evergreen BioPower LLC,Biomass-fired power station,44.770792,-122.612
United States,Q30,http://www.wikidata.org/entity/Q116723091,Carolina Poultry Power Farmville,Biomass-fired power station,35.591719,-77.61451
United States,Q30,http://www.wikidata.org/entity/Q116718224,Piedmont Green Power,Biomass-fired power station,33.045278,-84.12556
United States,Q30,http://www.wikidata.org/entity/Q116715343,Novo BioPower Plant,Biomass-fired power station,34.503158,-110.335
United States,Q30,http://www.wikidata.org/entity/Q116718706,Halifax County Biomass,Biomass-fired power station,36.701389,-78.87333
United States,Q30,http://www.wikidata.org/entity/Q116715495,Plainfield Renewable Energy LLC,Biomass-fired power station,41.664376,-71.92418
United States,Q30,http://www.wikidata.org/entity/Q116725446,Abel Road Bioenergy,Biomass-fired power station,39.145608,-122.1186
United States,Q30,http://www.wikidata.org/entity/Q116716299,Western Renewable Energy,Biomass-fired power station,34.093006,-109.29
United States,Q30,http://www.wikidata.org/entity/Q116718388,Rothschild Biomass Cogen Facility,Biomass-fired power station,44.887778,-89.62972
United States,Q30,http://www.wikidata.org/entity/Q116718232,Sonoco Products Co,Biomass-fired power station,34.385278,-80.06778
United States,Q30,http://www.wikidata.org/entity/Q116718806,Allendale Biomass,Biomass-fired power station,32.995,-81.28194
United States,Q30,http://www.wikidata.org/entity/Q116715412,Ampersand Chowchilla Biomass LLC,Biomass-fired power station,37.106668,-120.2485
United States,Q30,http://www.wikidata.org/entity/Q116720578,Dinuba Energy,Biomass-fired power station,36.571485,-119.4192
United States,Q30,http://www.wikidata.org/entity/Q116724204,POET Biorefining - Chancellor,Biomass-fired power station,43.3705,-96.9598
United States,Q30,http://www.wikidata.org/entity/Q116720567,PCA-Valdosta Mill,Biomass-fired power station,30.694444,-83.30306
United States,Q30,http://www.wikidata.org/entity/Q116715739,WestRock (WA),Biomass-fired power station,47.266069,-122.4283
United States,Q30,http://www.wikidata.org/entity/Q116715785,Mesquite Lake Water & Power Plant 1,Biomass-fired power station,32.906569,-115.5137
United States,Q30,http://www.wikidata.org/entity/Q116718717,Eagle Valley Clean Energy LLC Biomass,Biomass-fired power station,39.648056,-106.9431
United States,Q30,http://www.wikidata.org/entity/Q116718373,International Paper Red River Mill,Biomass-fired power station,31.905833,-93.1725
United States,Q30,http://www.wikidata.org/entity/Q116720898,GRP Franklin Renewable Energy Facility,Biomass-fired power station,34.376111,-83.33056
United States,Q30,http://www.wikidata.org/entity/Q116718159,Middlebury College,Biomass-fired power station,44.0075,-73.17694
United States,Q30,http://www.wikidata.org/entity/Q116716282,Georgia-Pacific Wauna Mill,Biomass-fired power station,46.153955,-123.4066
United States,Q30,http://www.wikidata.org/entity/Q116718807,Dorchester Biomass,Biomass-fired power station,33.238611,-80.45028
United States,Q30,http://www.wikidata.org/entity/Q116715413,El Nido Facility,Biomass-fired power station,37.1867,-120.4903
United States,Q30,http://www.wikidata.org/entity/Q116715360,St Paul Cogeneration,Biomass-fired power station,44.942889,-93.09656
United States,Q30,http://www.wikidata.org/entity/Q116715779,Savannah River Site Biomass Cogen,Biomass-fired power station,33.283333,-81.66667
United States,Q30,http://www.wikidata.org/entity/Q116719815,Stoltze CoGen1,Biomass-fired power station,48.3877,-114.2409
United States,Q30,http://www.wikidata.org/entity/Q116721600,GRP Madison Renewable Energy Facility,Biomass-fired power station,34.040559,-83.1929
Japan,Q17,http://www.wikidata.org/entity/Q11305138,Summit Myojo Power Corporation Itoigawa Biomass-fired Power Station,Biomass-fired power station,37.027777777,137.8495
Japan,Q17,http://www.wikidata.org/entity/Q40836142,Q40836142,Biomass-fired power station,44.335555555,143.367777777
Spain,Q29,http://www.wikidata.org/entity/Q5760762,Q5760762,Biomass-fired power station,40.84222222,-1.95611111
Spain,Q29,http://www.wikidata.org/entity/Q6408485,Biollano biomass power plant,Biomass-fired power station,38.65611111,-3.98638889
Uruguay,Q77,http://www.wikidata.org/entity/Q111466667,UPM Power Plant,Biomass-fired power station,-33.1165623,-58.2581592
Uruguay,Q77,http://www.wikidata.org/entity/Q111466599,Montes del Plata Power Plant,Biomass-fired power station,-34.2261431,-58.0550891
Singapore,Q334,http://www.wikidata.org/entity/Q116735026,Tembusu Multi-Utilities Complex,Biomass-fired power station,1.2763845,103.6677057
Chile,Q298,http://www.wikidata.org/entity/Q7909434,Valdivia Pulp Mill,Biomass-fired power station,-39.565777777,-72.899972222
Netherlands,Q55,http://www.wikidata.org/entity/Q3212088,biomass power station Moerdijk,Biomass-fired power station,51.68806,4.58083
Namibia,Q1030,http://www.wikidata.org/entity/Q126923294,Tsumeb Biomass Power Station,Biomass-fired power station,-19.223888888,17.708333333
Rwanda,Q1037,http://www.wikidata.org/entity/Q25221452,Gishoma Thermal Power Station,Biomass-fired power station,-2.6670832,28.9399731
Hungary,Q28,http://www.wikidata.org/entity/Q11994119,Oroszlány power plant,Biomass-fired power station,47.5017073,18.2702353
Belgium,Q31,http://www.wikidata.org/entity/Q11998171,Rodenhuize Power Plant,Biomass-fired power station,51.134722,3.776111
Italy,Q38,http://www.wikidata.org/entity/Q16538823,centrale del Mercure,Biomass-fired power station,39.982163888,16.021294444
South Africa,Q258,http://www.wikidata.org/entity/Q107241996,Ngodwana Biomass Power Station,Biomass-fired power station,-25.575555555,30.664722222
Ivory Coast,Q1008,http://www.wikidata.org/entity/Q107292934,Ayebo Biomass Power Station,Biomass-fired power station,5.439444444,-3.269166666
