country_name,country_qid,entity,label,type,latitude,longitude
Australia,Q408,http://www.wikidata.org/entity/Q85750759,Carpentaria Gas Pipeline,Natural gas pipeline,,
Australia,Q408,http://www.wikidata.org/entity/Q85802337,South West Queensland Pipeline,Natural gas pipeline,,
Australia,Q408,http://www.wikidata.org/entity/Q1158896,Dampier to Bunbury Natural Gas Pipeline,Natural gas pipeline,-20.62,116.77
Australia,Q408,http://www.wikidata.org/entity/Q7389541,SEAGas pipeline,Natural gas pipeline,-34.763055555,138.505
Australia,Q408,http://www.wikidata.org/entity/Q24191375,Moomba Adelaide Pipeline System,Natural gas pipeline,,
Australia,Q408,http://www.wikidata.org/entity/Q132892236,APLNG Pipeline,Natural gas pipeline,,
Australia,Q408,http://www.wikidata.org/entity/Q55610434,Eastern Gas Pipeline,Natural gas pipeline,,
Australia,Q408,http://www.wikidata.org/entity/Q60763690,Amadeus Gas Pipeline,Natural gas pipeline,,
Australia,Q408,http://www.wikidata.org/entity/Q60763653,Northern Gas Pipeline,Natural gas pipeline,,
Australia,Q408,http://www.wikidata.org/entity/Q5580140,Goldfields Gas Pipeline,Natural gas pipeline,-22.624826467,116.194920135
Australia,Q408,http://www.wikidata.org/entity/Q28220345,Moomba to Sydney Pipeline,Natural gas pipeline,-28.11,140.21
Russia,Q159,http://www.wikidata.org/entity/Q666347,South Stream,Natural gas pipeline,,
Russia,Q159,http://www.wikidata.org/entity/Q154125,Nord Stream 1,Natural gas pipeline,,
Russia,Q159,http://www.wikidata.org/entity/Q2043650,Dzuarikau–Tskhinvali pipeline,Natural gas pipeline,43.01486111,44.40176667
Russia,Q159,http://www.wikidata.org/entity/Q24933882,Q24933882,Natural gas pipeline,,
Russia,Q159,http://www.wikidata.org/entity/Q2426237,Urengoy–Pomary–Uzhhorod pipeline,Natural gas pipeline,,
Russia,Q159,http://www.wikidata.org/entity/Q519472,Blue Stream,Natural gas pipeline,,
Russia,Q159,http://www.wikidata.org/entity/Q2898164,Power of Siberia,Natural gas pipeline,,
Russia,Q159,http://www.wikidata.org/entity/Q4430444,Soyuz Gas Pipeline,Natural gas pipeline,,
Russia,Q159,http://www.wikidata.org/entity/Q18810087,TurkStream,Natural gas pipeline,,
Russia,Q159,http://www.wikidata.org/entity/Q612962,Yamal–Europe pipeline,Natural gas pipeline,,
Russia,Q159,http://www.wikidata.org/entity/Q5612395,Gryazovets–Vyborg gas pipeline,Natural gas pipeline,,
Russia,Q159,http://www.wikidata.org/entity/Q714068,Sakhalin–Khabarovsk–Vladivostok pipeline,Natural gas pipeline,,
Russia,Q159,http://www.wikidata.org/entity/Q727880,Central Asia–Center gas pipeline system,Natural gas pipeline,,
Russia,Q159,http://www.wikidata.org/entity/Q21644350,Nord Stream 2,Natural gas pipeline,,
Russia,Q159,http://www.wikidata.org/entity/Q110586381,Nord Stream,Natural gas pipeline,,
Germany,Q183,http://www.wikidata.org/entity/Q1744133,Q1744133,Natural gas pipeline,,
Germany,Q183,http://www.wikidata.org/entity/Q1309833,Trans Europa Naturgas Pipeline,Natural gas pipeline,,
Germany,Q183,http://www.wikidata.org/entity/Q154125,Nord Stream 1,Natural gas pipeline,,
Germany,Q183,http://www.wikidata.org/entity/Q1997737,Netra,Natural gas pipeline,,
Germany,Q183,http://www.wikidata.org/entity/Q1564220,MIDAL,Natural gas pipeline,,
Germany,Q183,http://www.wikidata.org/entity/Q1676509,JAGAL,Natural gas pipeline,,
Germany,Q183,http://www.wikidata.org/entity/Q25389071,Q25389071,Natural gas pipeline,,
Germany,Q183,http://www.wikidata.org/entity/Q2138929,Rehden–Hamburg gas pipeline,Natural gas pipeline,,
Germany,Q183,http://www.wikidata.org/entity/Q2208018,STEGAL,Natural gas pipeline,,
Germany,Q183,http://www.wikidata.org/entity/Q260553,WEDAL,Natural gas pipeline,,
Germany,Q183,http://www.wikidata.org/entity/Q324816,OPAL pipeline,Natural gas pipeline,,
Germany,Q183,http://www.wikidata.org/entity/Q324732,NEL pipeline,Natural gas pipeline,52.6188,8.4963
Germany,Q183,http://www.wikidata.org/entity/Q15851371,Transgas,Natural gas pipeline,,
Germany,Q183,http://www.wikidata.org/entity/Q4578405,Norpipe,Natural gas pipeline,,
Germany,Q183,http://www.wikidata.org/entity/Q612962,Yamal–Europe pipeline,Natural gas pipeline,,
Germany,Q183,http://www.wikidata.org/entity/Q5413741,Europipe II,Natural gas pipeline,,
Germany,Q183,http://www.wikidata.org/entity/Q21644350,Nord Stream 2,Natural gas pipeline,,
Germany,Q183,http://www.wikidata.org/entity/Q22980068,Zeelink,Natural gas pipeline,,
Germany,Q183,http://www.wikidata.org/entity/Q7567353,South German natural gas pipeline,Natural gas pipeline,,
Germany,Q183,http://www.wikidata.org/entity/Q832198,MEGAL pipeline,Natural gas pipeline,,
Germany,Q183,http://www.wikidata.org/entity/Q877540,Europipe I,Natural gas pipeline,,
Germany,Q183,http://www.wikidata.org/entity/Q55084145,Europipe,Natural gas pipeline,,
Germany,Q183,http://www.wikidata.org/entity/Q66817659,EUGAL,Natural gas pipeline,,
Germany,Q183,http://www.wikidata.org/entity/Q106501358,EUGAL,Natural gas pipeline,,
Germany,Q183,http://www.wikidata.org/entity/Q110586381,Nord Stream,Natural gas pipeline,,
Norway,Q20,http://www.wikidata.org/entity/Q84941235,Polarled,Natural gas pipeline,,
Norway,Q20,http://www.wikidata.org/entity/Q1507150,Langeled pipeline,Natural gas pipeline,,
Norway,Q20,http://www.wikidata.org/entity/Q12011664,Åsgard Transport,Natural gas pipeline,,
Norway,Q20,http://www.wikidata.org/entity/Q4578405,Norpipe,Natural gas pipeline,,
Norway,Q20,http://www.wikidata.org/entity/Q4579273,Statpipe,Natural gas pipeline,,
Norway,Q20,http://www.wikidata.org/entity/Q4852713,Baltic Pipe,Natural gas pipeline,,
Norway,Q20,http://www.wikidata.org/entity/Q5413741,Europipe II,Natural gas pipeline,,
Norway,Q20,http://www.wikidata.org/entity/Q5492327,Franpipe,Natural gas pipeline,,
Norway,Q20,http://www.wikidata.org/entity/Q5643606,Haltenpipe,Natural gas pipeline,,
Norway,Q20,http://www.wikidata.org/entity/Q877540,Europipe I,Natural gas pipeline,,
Norway,Q20,http://www.wikidata.org/entity/Q55084145,Europipe,Natural gas pipeline,,
United States,Q30,http://www.wikidata.org/entity/Q97193751,Oneok NGL,Natural gas pipeline,,
United States,Q30,http://www.wikidata.org/entity/Q97196131,EPIC NGL,Natural gas pipeline,,
United States,Q30,http://www.wikidata.org/entity/Q16844759,Horizon Pipeline,Natural gas pipeline,,
United States,Q30,http://www.wikidata.org/entity/Q16981726,Maritimes & Northeast Pipeline,Natural gas pipeline,,
United States,Q30,http://www.wikidata.org/entity/Q4708640,Alaska Gas Pipeline,Natural gas pipeline,,
United States,Q30,http://www.wikidata.org/entity/Q5094595,Cheyenne Plains Gas Pipeline,Natural gas pipeline,,
United States,Q30,http://www.wikidata.org/entity/Q5149702,Columbia Gulf Transmission,Natural gas pipeline,,
United States,Q30,http://www.wikidata.org/entity/Q5265100,Destin Pipeline,Natural gas pipeline,,
United States,Q30,http://www.wikidata.org/entity/Q5329504,East Tennessee Pipeline,Natural gas pipeline,,
United States,Q30,http://www.wikidata.org/entity/Q5461387,Florida Gas Transmission,Natural gas pipeline,,
United States,Q30,http://www.wikidata.org/entity/Q5522187,Garden Banks Pipeline,Natural gas pipeline,,
United States,Q30,http://www.wikidata.org/entity/Q5526314,Gas Transmission Northwest,Natural gas pipeline,,
United States,Q30,http://www.wikidata.org/entity/Q5614069,Guardian Pipeline,Natural gas pipeline,,
United States,Q30,http://www.wikidata.org/entity/Q5617372,Gulfstream Natural Gas Pipeline,Natural gas pipeline,,
United States,Q30,http://www.wikidata.org/entity/Q6073464,Iroquois Pipeline,Natural gas pipeline,,
United States,Q30,http://www.wikidata.org/entity/Q6394152,Kern River Pipeline,Natural gas pipeline,,
United States,Q30,http://www.wikidata.org/entity/Q6843464,Midwestern Gas Transmission,Natural gas pipeline,,
United States,Q30,http://www.wikidata.org/entity/Q6879082,Mississippi Canyon Pipeline,Natural gas pipeline,,
United States,Q30,http://www.wikidata.org/entity/Q6895008,Mojave Pipeline,Natural gas pipeline,,
United States,Q30,http://www.wikidata.org/entity/Q25004732,Sabal Trail Transmission Pipeline,Natural gas pipeline,,
United States,Q30,http://www.wikidata.org/entity/Q6981524,Nautilus Pipeline,Natural gas pipeline,,
United States,Q30,http://www.wikidata.org/entity/Q7054046,North Baja Pipeline,Natural gas pipeline,,
United States,Q30,http://www.wikidata.org/entity/Q7058165,Northern Border Pipeline,Natural gas pipeline,,
United States,Q30,http://www.wikidata.org/entity/Q7060164,Northwest Pipeline,Natural gas pipeline,,
United States,Q30,http://www.wikidata.org/entity/Q7355306,Rockies Express Pipeline,Natural gas pipeline,,
United States,Q30,http://www.wikidata.org/entity/Q7376368,Ruby Pipeline,Natural gas pipeline,,
United States,Q30,http://www.wikidata.org/entity/Q7439983,Sea Robin Pipeline,Natural gas pipeline,,
United States,Q30,http://www.wikidata.org/entity/Q7570165,Southern Natural Pipeline,Natural gas pipeline,,
United States,Q30,http://www.wikidata.org/entity/Q7570556,Southern Trails Pipeline,Natural gas pipeline,,
United States,Q30,http://www.wikidata.org/entity/Q7617430,Stingray Pipeline,Natural gas pipeline,,
United States,Q30,http://www.wikidata.org/entity/Q7700085,Tennessee Gas Pipeline,Natural gas pipeline,,
United States,Q30,http://www.wikidata.org/entity/Q7707653,Texas Eastern Transmission Pipeline,Natural gas pipeline,,
United States,Q30,http://www.wikidata.org/entity/Q7832777,Trailblazer Pipeline,Natural gas pipeline,,
United States,Q30,http://www.wikidata.org/entity/Q7833611,TransColorado Pipeline,Natural gas pipeline,,
United States,Q30,http://www.wikidata.org/entity/Q7835461,Transwestern Pipeline,Natural gas pipeline,,
United States,Q30,http://www.wikidata.org/entity/Q7847989,Trunkline Pipeline,Natural gas pipeline,,
United States,Q30,http://www.wikidata.org/entity/Q7856699,Tuscarora Gas Pipeline,Natural gas pipeline,,
United States,Q30,http://www.wikidata.org/entity/Q7917811,Vector Pipeline,Natural gas pipeline,,
United States,Q30,http://www.wikidata.org/entity/Q8022141,Williston Basin Pipeline,Natural gas pipeline,,
United States,Q30,http://www.wikidata.org/entity/Q30591003,Atlantic Coast Pipeline,Natural gas pipeline,,
United States,Q30,http://www.wikidata.org/entity/Q30675289,Rover pipeline,Natural gas pipeline,,
United States,Q30,http://www.wikidata.org/entity/Q7058760,Northern Natural Gas,Natural gas pipeline,,
United States,Q30,http://www.wikidata.org/entity/Q16858649,Enable Gas Transmission,Natural gas pipeline,,
United States,Q30,http://www.wikidata.org/entity/Q55315953,Mountain Valley Pipeline,Natural gas pipeline,,
United States,Q30,http://www.wikidata.org/entity/Q30973000,Southeast Supply Header,Natural gas pipeline,,
United Kingdom,Q145,http://www.wikidata.org/entity/Q7568769,South Wales Gas Pipeline,Natural gas pipeline,51.717222222,-5.072222222
United Kingdom,Q145,http://www.wikidata.org/entity/Q1507150,Langeled pipeline,Natural gas pipeline,,
United Kingdom,Q145,http://www.wikidata.org/entity/Q30974673,Q30974673,Natural gas pipeline,,
United Kingdom,Q145,http://www.wikidata.org/entity/Q470360,Interconnector,Natural gas pipeline,,
United Kingdom,Q145,http://www.wikidata.org/entity/Q18162179,Scotland-Northern Ireland pipeline,Natural gas pipeline,,
United Kingdom,Q145,http://www.wikidata.org/entity/Q4578405,Norpipe,Natural gas pipeline,,
United Kingdom,Q145,http://www.wikidata.org/entity/Q5426508,FLAGS,Natural gas pipeline,,
United Kingdom,Q145,http://www.wikidata.org/entity/Q5508354,Fulmar Gas Line,Natural gas pipeline,,
United Kingdom,Q145,http://www.wikidata.org/entity/Q7987078,West of Shetland pipeline,Natural gas pipeline,,
Canada,Q16,http://www.wikidata.org/entity/Q85753148,Coastal GasLink Pipeline,Natural gas pipeline,,
Canada,Q16,http://www.wikidata.org/entity/Q16981726,Maritimes & Northeast Pipeline,Natural gas pipeline,,
Canada,Q16,http://www.wikidata.org/entity/Q4979525,Brunswick Pipeline,Natural gas pipeline,,
Canada,Q16,http://www.wikidata.org/entity/Q5526314,Gas Transmission Northwest,Natural gas pipeline,,
Canada,Q16,http://www.wikidata.org/entity/Q6073464,Iroquois Pipeline,Natural gas pipeline,,
Canada,Q16,http://www.wikidata.org/entity/Q7058165,Northern Border Pipeline,Natural gas pipeline,,
Canada,Q16,http://www.wikidata.org/entity/Q7060164,Northwest Pipeline,Natural gas pipeline,,
Canada,Q16,http://www.wikidata.org/entity/Q7917811,Vector Pipeline,Natural gas pipeline,,
Canada,Q16,http://www.wikidata.org/entity/Q7987284,Westcoast Pipeline,Natural gas pipeline,,
Turkey,Q43,http://www.wikidata.org/entity/Q2302730,Arab Gas Pipeline,Natural gas pipeline,,
Turkey,Q43,http://www.wikidata.org/entity/Q2645428,Trans-Anatolian Gas Pipeline,Natural gas pipeline,,
Turkey,Q43,http://www.wikidata.org/entity/Q519472,Blue Stream,Natural gas pipeline,,
Turkey,Q43,http://www.wikidata.org/entity/Q572699,South Caucasus Pipeline,Natural gas pipeline,,
Turkey,Q43,http://www.wikidata.org/entity/Q18810087,TurkStream,Natural gas pipeline,,
Turkey,Q43,http://www.wikidata.org/entity/Q902039,Tabriz–Ankara pipeline,Natural gas pipeline,,
Turkey,Q43,http://www.wikidata.org/entity/Q48816335,Balkan Stream,Natural gas pipeline,,
Turkey,Q43,http://www.wikidata.org/entity/Q104841012,Trans-Balkan pipeline,Natural gas pipeline,,
Austria,Q40,http://www.wikidata.org/entity/Q1308233,Q1308233,Natural gas pipeline,,
Austria,Q40,http://www.wikidata.org/entity/Q1566249,Q1566249,Natural gas pipeline,,
Austria,Q40,http://www.wikidata.org/entity/Q2396815,Q2396815,Natural gas pipeline,,
Austria,Q40,http://www.wikidata.org/entity/Q666347,South Stream,Natural gas pipeline,,
Austria,Q40,http://www.wikidata.org/entity/Q498908,Nabucco pipeline,Natural gas pipeline,,
Austria,Q40,http://www.wikidata.org/entity/Q15851371,Transgas,Natural gas pipeline,,
Austria,Q40,http://www.wikidata.org/entity/Q872297,Trans Austria Gas Pipeline,Natural gas pipeline,,
Brazil,Q155,http://www.wikidata.org/entity/Q30972078,Q30972078,Natural gas pipeline,,
Brazil,Q155,http://www.wikidata.org/entity/Q5512891,GASUN,Natural gas pipeline,,
Brazil,Q155,http://www.wikidata.org/entity/Q5512888,GASBOL,Natural gas pipeline,,
Brazil,Q155,http://www.wikidata.org/entity/Q5512889,GASENE,Natural gas pipeline,,
Brazil,Q155,http://www.wikidata.org/entity/Q5594007,Gran Gasoducto del Sur,Natural gas pipeline,,
Brazil,Q155,http://www.wikidata.org/entity/Q7135586,Paraná–Uruguaiana pipeline,Natural gas pipeline,,
People's Republic of China,Q148,http://www.wikidata.org/entity/Q250141,Central Asia–China gas pipeline,Natural gas pipeline,,
People's Republic of China,Q148,http://www.wikidata.org/entity/Q2898164,Power of Siberia,Natural gas pipeline,,
People's Republic of China,Q148,http://www.wikidata.org/entity/Q7459947,Shaan–Jing pipeline,Natural gas pipeline,,
People's Republic of China,Q148,http://www.wikidata.org/entity/Q7507454,Sichuan–Shanghai gas pipeline,Natural gas pipeline,,
People's Republic of China,Q148,http://www.wikidata.org/entity/Q868758,West–East Gas Pipeline,Natural gas pipeline,,
People's Republic of China,Q148,http://www.wikidata.org/entity/Q8070977,Zhongxian–Wuhan Pipeline,Natural gas pipeline,,
Argentina,Q414,http://www.wikidata.org/entity/Q5190326,Cruz del Sur pipeline,Natural gas pipeline,,
Argentina,Q414,http://www.wikidata.org/entity/Q5594007,Gran Gasoducto del Sur,Natural gas pipeline,,
Argentina,Q414,http://www.wikidata.org/entity/Q7135586,Paraná–Uruguaiana pipeline,Natural gas pipeline,,
Argentina,Q414,http://www.wikidata.org/entity/Q8046382,Yabog pipeline,Natural gas pipeline,,
Argentina,Q414,http://www.wikidata.org/entity/Q112259848,Q112259848,Natural gas pipeline,,
Argentina,Q414,http://www.wikidata.org/entity/Q118928293,Q118928293,Natural gas pipeline,,
Italy,Q38,http://www.wikidata.org/entity/Q666347,South Stream,Natural gas pipeline,,
Italy,Q38,http://www.wikidata.org/entity/Q192380,Greenstream pipeline,Natural gas pipeline,,
Italy,Q38,http://www.wikidata.org/entity/Q12071287,ITGI,Natural gas pipeline,,
Italy,Q38,http://www.wikidata.org/entity/Q505615,Trans Adriatic Pipeline,Natural gas pipeline,,
Italy,Q38,http://www.wikidata.org/entity/Q746588,Greece–Italy pipeline,Natural gas pipeline,,
Italy,Q38,http://www.wikidata.org/entity/Q839374,GALSI,Natural gas pipeline,,
Italy,Q38,http://www.wikidata.org/entity/Q1933027,Trans-Mediterranean Pipeline,Natural gas pipeline,44.607999,11.500422
Ukraine,Q212,http://www.wikidata.org/entity/Q12093901,Q12093901,Natural gas pipeline,,
Ukraine,Q212,http://www.wikidata.org/entity/Q24933882,Q24933882,Natural gas pipeline,,
Ukraine,Q212,http://www.wikidata.org/entity/Q2426237,Urengoy–Pomary–Uzhhorod pipeline,Natural gas pipeline,,
Ukraine,Q212,http://www.wikidata.org/entity/Q15851371,Transgas,Natural gas pipeline,,
Ukraine,Q212,http://www.wikidata.org/entity/Q4430444,Soyuz Gas Pipeline,Natural gas pipeline,,
Turkmenistan,Q874,http://www.wikidata.org/entity/Q1759549,Trans-Afghanistan Pipeline,Natural gas pipeline,,
Turkmenistan,Q874,http://www.wikidata.org/entity/Q250141,Central Asia–China gas pipeline,Natural gas pipeline,,
Turkmenistan,Q874,http://www.wikidata.org/entity/Q3548122,Dauletabad–Sarakhs–Khangiran pipeline,Natural gas pipeline,,
Turkmenistan,Q874,http://www.wikidata.org/entity/Q727880,Central Asia–Center gas pipeline system,Natural gas pipeline,,
Turkmenistan,Q874,http://www.wikidata.org/entity/Q6432610,Korpeje–Kordkuy pipeline,Natural gas pipeline,,
Kazakhstan,Q232,http://www.wikidata.org/entity/Q250141,Central Asia–China gas pipeline,Natural gas pipeline,,
Kazakhstan,Q232,http://www.wikidata.org/entity/Q4430444,Soyuz Gas Pipeline,Natural gas pipeline,,
Kazakhstan,Q232,http://www.wikidata.org/entity/Q727880,Central Asia–Center gas pipeline system,Natural gas pipeline,,
Kazakhstan,Q232,http://www.wikidata.org/entity/Q851622,Bukhara–Tashkent–Bishkek–Almaty pipeline,Natural gas pipeline,,
Algeria,Q262,http://www.wikidata.org/entity/Q286680,Medgaz,Natural gas pipeline,,
Algeria,Q262,http://www.wikidata.org/entity/Q734096,Maghreb–Europe Gas Pipeline,Natural gas pipeline,,
Algeria,Q262,http://www.wikidata.org/entity/Q839374,GALSI,Natural gas pipeline,,
Algeria,Q262,http://www.wikidata.org/entity/Q1933027,Trans-Mediterranean Pipeline,Natural gas pipeline,44.607999,11.500422
Libya,Q1016,http://www.wikidata.org/entity/Q192380,Greenstream pipeline,Natural gas pipeline,,
Libya,Q1016,http://www.wikidata.org/entity/Q56373391,Q56373391,Natural gas pipeline,,
Libya,Q1016,http://www.wikidata.org/entity/Q56373429,Q56373429,Natural gas pipeline,,
Libya,Q1016,http://www.wikidata.org/entity/Q56373471,Q56373471,Natural gas pipeline,,
Libya,Q1016,http://www.wikidata.org/entity/Q133043209,Abu-Attifel-Zuwetina gas pipeline,Natural gas pipeline,,
Iran,Q794,http://www.wikidata.org/entity/Q1314727,Iran–Armenia gas pipeline,Natural gas pipeline,,
Iran,Q794,http://www.wikidata.org/entity/Q3522807,Iran–Pakistan gas pipeline,Natural gas pipeline,,
Iran,Q794,http://www.wikidata.org/entity/Q3548122,Dauletabad–Sarakhs–Khangiran pipeline,Natural gas pipeline,,
Iran,Q794,http://www.wikidata.org/entity/Q6432610,Korpeje–Kordkuy pipeline,Natural gas pipeline,,
Iran,Q794,http://www.wikidata.org/entity/Q902039,Tabriz–Ankara pipeline,Natural gas pipeline,,
Uzbekistan,Q265,http://www.wikidata.org/entity/Q250141,Central Asia–China gas pipeline,Natural gas pipeline,,
Uzbekistan,Q265,http://www.wikidata.org/entity/Q727880,Central Asia–Center gas pipeline system,Natural gas pipeline,,
Uzbekistan,Q265,http://www.wikidata.org/entity/Q851622,Bukhara–Tashkent–Bishkek–Almaty pipeline,Natural gas pipeline,,
Greece,Q41,http://www.wikidata.org/entity/Q12071287,ITGI,Natural gas pipeline,,
Greece,Q41,http://www.wikidata.org/entity/Q505615,Trans Adriatic Pipeline,Natural gas pipeline,,
Greece,Q41,http://www.wikidata.org/entity/Q5526300,Gas Interconnector Greece-Bulgaria,Natural gas pipeline,,
Greece,Q41,http://www.wikidata.org/entity/Q746588,Greece–Italy pipeline,Natural gas pipeline,,
Bulgaria,Q219,http://www.wikidata.org/entity/Q666347,South Stream,Natural gas pipeline,,
Bulgaria,Q219,http://www.wikidata.org/entity/Q5526300,Gas Interconnector Greece-Bulgaria,Natural gas pipeline,,
Bulgaria,Q219,http://www.wikidata.org/entity/Q48816335,Balkan Stream,Natural gas pipeline,,
Bulgaria,Q219,http://www.wikidata.org/entity/Q104841012,Trans-Balkan pipeline,Natural gas pipeline,,
Spain,Q29,http://www.wikidata.org/entity/Q286680,Medgaz,Natural gas pipeline,,
Spain,Q29,http://www.wikidata.org/entity/Q734096,Maghreb–Europe Gas Pipeline,Natural gas pipeline,,
Spain,Q29,http://www.wikidata.org/entity/Q113840477,Q113840477,Natural gas pipeline,,
Nigeria,Q1033,http://www.wikidata.org/entity/Q25053421,Escravos–Lagos Pipeline System,Natural gas pipeline,,
Nigeria,Q1033,http://www.wikidata.org/entity/Q7984259,West African Gas Pipeline,Natural gas pipeline,,
Nigeria,Q1033,http://www.wikidata.org/entity/Q85740281,Ajaokuta–Kaduna–Kano Natural Gas Pipeline,Natural gas pipeline,,
Japan,Q17,http://www.wikidata.org/entity/Q11528328,Q11528328,Natural gas pipeline,,
Japan,Q17,http://www.wikidata.org/entity/Q55522986,Q55522986,Natural gas pipeline,,
Japan,Q17,http://www.wikidata.org/entity/Q86743772,Q86743772,Natural gas pipeline,,
Hungary,Q28,http://www.wikidata.org/entity/Q666347,South Stream,Natural gas pipeline,,
Hungary,Q28,http://www.wikidata.org/entity/Q7944191,Városföld–Slobodnica pipeline,Natural gas pipeline,,
Hungary,Q28,http://www.wikidata.org/entity/Q48816335,Balkan Stream,Natural gas pipeline,,
Hungary,Q28,http://www.wikidata.org/entity/Q104841012,Trans-Balkan pipeline,Natural gas pipeline,,
Azerbaijan,Q227,http://www.wikidata.org/entity/Q1105317,Trans-Caspian Gas Pipeline,Natural gas pipeline,,
Azerbaijan,Q227,http://www.wikidata.org/entity/Q2645428,Trans-Anatolian Gas Pipeline,Natural gas pipeline,,
India,Q668,http://www.wikidata.org/entity/Q17051217,Dabhol-Bangalore Natural Gas Pipeline,Natural gas pipeline,,
India,Q668,http://www.wikidata.org/entity/Q17055595,HVJ Gas Pipeline,Natural gas pipeline,,
India,Q668,http://www.wikidata.org/entity/Q17067365,East West Gas Pipeline,Natural gas pipeline,,
Poland,Q36,http://www.wikidata.org/entity/Q612962,Yamal–Europe pipeline,Natural gas pipeline,,
Poland,Q36,http://www.wikidata.org/entity/Q4852713,Baltic Pipe,Natural gas pipeline,,
Peru,Q419,http://www.wikidata.org/entity/Q20013719,Q20013719,Natural gas pipeline,,
Peru,Q419,http://www.wikidata.org/entity/Q20015218,Q20015218,Natural gas pipeline,,
Peru,Q419,http://www.wikidata.org/entity/Q20015217,Q20015217,Natural gas pipeline,,
Serbia,Q403,http://www.wikidata.org/entity/Q666347,South Stream,Natural gas pipeline,,
Serbia,Q403,http://www.wikidata.org/entity/Q48816335,Balkan Stream,Natural gas pipeline,,
Malaysia,Q833,http://www.wikidata.org/entity/Q2209371,Sabah–Sarawak Gas Pipeline,Natural gas pipeline,,
Malaysia,Q833,http://www.wikidata.org/entity/Q7833691,Trans Thailand–Malaysia Gas Pipeline,Natural gas pipeline,,
Denmark,Q35,http://www.wikidata.org/entity/Q4852713,Baltic Pipe,Natural gas pipeline,,
Denmark,Q35,http://www.wikidata.org/entity/Q7861423,Tyra West – F3 pipeline,Natural gas pipeline,,
Czech Republic,Q213,http://www.wikidata.org/entity/Q3182206,Gazela Pipeline,Natural gas pipeline,,
Czech Republic,Q213,http://www.wikidata.org/entity/Q15851371,Transgas,Natural gas pipeline,,
France,Q142,http://www.wikidata.org/entity/Q5492327,Franpipe,Natural gas pipeline,,
France,Q142,http://www.wikidata.org/entity/Q113840477,Q113840477,Natural gas pipeline,,
Bolivia,Q750,http://www.wikidata.org/entity/Q5512888,GASBOL,Natural gas pipeline,,
Bolivia,Q750,http://www.wikidata.org/entity/Q8046382,Yabog pipeline,Natural gas pipeline,,
Uruguay,Q77,http://www.wikidata.org/entity/Q5190326,Cruz del Sur pipeline,Natural gas pipeline,,
Uruguay,Q77,http://www.wikidata.org/entity/Q124043862,Q124043862,Natural gas pipeline,,
Mexico,Q96,http://www.wikidata.org/entity/Q7054046,North Baja Pipeline,Natural gas pipeline,,
Mexico,Q96,http://www.wikidata.org/entity/Q30974646,Chiapas–Guadalajara pipeline,Natural gas pipeline,,
Belarus,Q184,http://www.wikidata.org/entity/Q612962,Yamal–Europe pipeline,Natural gas pipeline,,
Kyrgyzstan,Q813,http://www.wikidata.org/entity/Q851622,Bukhara–Tashkent–Bishkek–Almaty pipeline,Natural gas pipeline,,
Belgium,Q31,http://www.wikidata.org/entity/Q470360,Interconnector,Natural gas pipeline,,
Slovenia,Q215,http://www.wikidata.org/entity/Q666347,South Stream,Natural gas pipeline,,
Albania,Q222,http://www.wikidata.org/entity/Q505615,Trans Adriatic Pipeline,Natural gas pipeline,,
Romania,Q218,http://www.wikidata.org/entity/Q48815426,BRUA pipeline,Natural gas pipeline,,
Romania,Q218,http://www.wikidata.org/entity/Q104841012,Trans-Balkan pipeline,Natural gas pipeline,,
Morocco,Q1028,http://www.wikidata.org/entity/Q734096,Maghreb–Europe Gas Pipeline,Natural gas pipeline,,
Armenia,Q399,http://www.wikidata.org/entity/Q1314727,Iran–Armenia gas pipeline,Natural gas pipeline,,
Georgia,Q230,http://www.wikidata.org/entity/Q2645428,Trans-Anatolian Gas Pipeline,Natural gas pipeline,,
Sweden,Q34,http://www.wikidata.org/entity/Q3438512,Skanled,Natural gas pipeline,,
Pakistan,Q843,http://www.wikidata.org/entity/Q3522807,Iran–Pakistan gas pipeline,Natural gas pipeline,,
Estonia,Q191,http://www.wikidata.org/entity/Q4852746,Balticconnector,Natural gas pipeline,,
Tunisia,Q948,http://www.wikidata.org/entity/Q1933027,Trans-Mediterranean Pipeline,Natural gas pipeline,44.607999,11.500422
Switzerland,Q39,http://www.wikidata.org/entity/Q7834386,Transitgas Pipeline,Natural gas pipeline,,
Finland,Q33,http://www.wikidata.org/entity/Q4852746,Balticconnector,Natural gas pipeline,,
Venezuela,Q717,http://www.wikidata.org/entity/Q5594007,Gran Gasoducto del Sur,Natural gas pipeline,,
Netherlands,Q55,http://www.wikidata.org/entity/Q7861423,Tyra West – F3 pipeline,Natural gas pipeline,,
Thailand,Q869,http://www.wikidata.org/entity/Q7833691,Trans Thailand–Malaysia Gas Pipeline,Natural gas pipeline,,
Tanzania,Q924,http://www.wikidata.org/entity/Q28447646,Mtwara–Dar es Salaam Natural Gas Pipeline,Natural gas pipeline,,
Croatia,Q224,http://www.wikidata.org/entity/Q7944191,Városföld–Slobodnica pipeline,Natural gas pipeline,,
Slovakia,Q214,http://www.wikidata.org/entity/Q15851371,Transgas,Natural gas pipeline,,
