country_name,country_qid,entity,label,type,latitude,longitude
United Kingdom,Q145,http://www.wikidata.org/entity/Q11972431,Q11972431,Gas-fired power station,,
United Kingdom,Q145,http://www.wikidata.org/entity/Q11998416,Q11998416,Gas-fired power station,,
United Kingdom,Q145,http://www.wikidata.org/entity/Q17762809,Q17762809,Gas-fired power station,,
United Kingdom,Q145,http://www.wikidata.org/entity/Q132860987,Hirwaun Power Station,Gas-fired power station,,
United Kingdom,Q145,http://www.wikidata.org/entity/Q132861010,Millbrook Power,Gas-fired power station,,
United Kingdom,Q145,http://www.wikidata.org/entity/Q132861016,Progress Power,Gas-fired power station,,
United Kingdom,Q145,http://www.wikidata.org/entity/Q117262064,Bispham Flexible Generation,Gas-fired power station,,
United Kingdom,Q145,http://www.wikidata.org/entity/Q116861425,Grangemouth CHP,Gas-fired power station,,
United Kingdom,Q145,http://www.wikidata.org/entity/Q116861380,Severn Power Station,Gas-fired power station,,
United Kingdom,Q145,http://www.wikidata.org/entity/Q116861411,West Burton B Power Station,Gas-fired power station,,
United Kingdom,Q145,http://www.wikidata.org/entity/Q116863673,Fellside Power Station,Gas-fired power station,,
United Kingdom,Q145,http://www.wikidata.org/entity/Q116875442,Fawley Cogen Power Station,Gas-fired power station,,
United Kingdom,Q145,http://www.wikidata.org/entity/Q116884110,Redfield Road Gas Generation Plant,Gas-fired power station,,
United Kingdom,Q145,http://www.wikidata.org/entity/Q116886641,Lester Way Power Plant,Gas-fired power station,,
United Kingdom,Q145,http://www.wikidata.org/entity/Q116886710,Red Scar Peaking Plant,Gas-fired power station,,
United Kingdom,Q145,http://www.wikidata.org/entity/Q116886687,The Drove Power Plant,Gas-fired power station,,
United Kingdom,Q145,http://www.wikidata.org/entity/Q116899982,Derby Gas Power Station,Gas-fired power station,,
United Kingdom,Q145,http://www.wikidata.org/entity/Q116900565,Exeter Gas Power Station,Gas-fired power station,,
United Kingdom,Q145,http://www.wikidata.org/entity/Q116901037,Heartlands Power Station,Gas-fired power station,,
United Kingdom,Q145,http://www.wikidata.org/entity/Q116904528,Trafalgar Park Gas Peaking Plant,Gas-fired power station,,
United Kingdom,Q145,http://www.wikidata.org/entity/Q116907489,Chickerell Power Station,Gas-fired power station,,
United Kingdom,Q145,http://www.wikidata.org/entity/Q116910963,Burghfield Power Station,Gas-fired power station,,
United Kingdom,Q145,http://www.wikidata.org/entity/Q116912418,Keadby Three Power Station,Gas-fired power station,,
United Kingdom,Q145,http://www.wikidata.org/entity/Q117036082,Goose House Lane Power Station,Gas-fired power station,,
United Kingdom,Q145,http://www.wikidata.org/entity/Q117036012,Moorfield Drive Power Station,Gas-fired power station,,
United Kingdom,Q145,http://www.wikidata.org/entity/Q117035975,Solutia District Energy,Gas-fired power station,,
United Kingdom,Q145,http://www.wikidata.org/entity/Q117035982,Sevington District Energy,Gas-fired power station,,
United Kingdom,Q145,http://www.wikidata.org/entity/Q117035993,Sudmeadow Road Power Station,Gas-fired power station,,
United Kingdom,Q145,http://www.wikidata.org/entity/Q117036041,Rake Lane Power Station,Gas-fired power station,,
United Kingdom,Q145,http://www.wikidata.org/entity/Q117036789,Bridgwater Power Station,Gas-fired power station,,
United Kingdom,Q145,http://www.wikidata.org/entity/Q117037261,Chatterley Power Station,Gas-fired power station,,
United Kingdom,Q145,http://www.wikidata.org/entity/Q117423985,Gowerton East Power Station,Gas-fired power station,,
Australia,Q408,http://www.wikidata.org/entity/Q125688488,WEST KALGOORLIE GT3,Gas-fired power station,,
Australia,Q408,http://www.wikidata.org/entity/Q96397927,Owen Springs Power Station,Gas-fired power station,,
Australia,Q408,http://www.wikidata.org/entity/Q110639880,Katherine Power Station,Gas-fired power station,,
Germany,Q183,http://www.wikidata.org/entity/Q11975147,Q11975147,Gas-fired power station,,
Germany,Q183,http://www.wikidata.org/entity/Q11987879,Q11987879,Gas-fired power station,,
Germany,Q183,http://www.wikidata.org/entity/Q12010473,Q12010473,Gas-fired power station,,
Germany,Q183,http://www.wikidata.org/entity/Q17781992,Q17781992,Gas-fired power station,,
Germany,Q183,http://www.wikidata.org/entity/Q19398629,Q19398629,Gas-fired power station,,
Germany,Q183,http://www.wikidata.org/entity/Q105453404,Q105453404,Gas-fired power station,,
India,Q668,http://www.wikidata.org/entity/Q17750345,Q17750345,Gas-fired power station,,
India,Q668,http://www.wikidata.org/entity/Q97186310,Agartala GT CCPP,Gas-fired power station,,
India,Q668,http://www.wikidata.org/entity/Q97187723,Tripura Gas based CCPP,Gas-fired power station,,
India,Q668,http://www.wikidata.org/entity/Q15991692,Maithon Gas Turbine Station,Gas-fired power station,,
India,Q668,http://www.wikidata.org/entity/Q15991744,Kasba Thermal Power Station,Gas-fired power station,,
India,Q668,http://www.wikidata.org/entity/Q16894638,Essar Bhander Power Plant,Gas-fired power station,,
India,Q668,http://www.wikidata.org/entity/Q17088295,Sakthan Thampuran Bio-Waste Treatment Plant,Gas-fired power station,,
Iran,Q794,http://www.wikidata.org/entity/Q11960119,Q11960119,Gas-fired power station,,
Iran,Q794,http://www.wikidata.org/entity/Q12000125,Q12000125,Gas-fired power station,,
Iran,Q794,http://www.wikidata.org/entity/Q12000228,Q12000228,Gas-fired power station,,
Iran,Q794,http://www.wikidata.org/entity/Q17994525,Q17994525,Gas-fired power station,,
Iran,Q794,http://www.wikidata.org/entity/Q20111253,Q20111253,Gas-fired power station,,
Iran,Q794,http://www.wikidata.org/entity/Q16053560,South Ahvaz power plant,Gas-fired power station,,
Iran,Q794,http://www.wikidata.org/entity/Q16053727,West Mazandaran combined cycle power plant,Gas-fired power station,,
Japan,Q17,http://www.wikidata.org/entity/Q11980452,Q11980452,Gas-fired power station,,
Japan,Q17,http://www.wikidata.org/entity/Q11225731,JFE Chiba Clean Power Station,Gas-fired power station,,
Japan,Q17,http://www.wikidata.org/entity/Q11225732,JFE Chiba Nishi Power Station,Gas-fired power station,,
Japan,Q17,http://www.wikidata.org/entity/Q11305139,Summit Mihama Power,Gas-fired power station,,
Japan,Q17,http://www.wikidata.org/entity/Q11336773,Zero Watt Power Ichihara Power Station,Gas-fired power station,,
Japan,Q17,http://www.wikidata.org/entity/Q11364080,Funamachi Power Plant,Gas-fired power station,,
Japan,Q17,http://www.wikidata.org/entity/Q11449450,Uji Energy Center,Gas-fired power station,,
Japan,Q17,http://www.wikidata.org/entity/Q11480021,Ichihara Power,Gas-fired power station,,
Japan,Q17,http://www.wikidata.org/entity/Q11496836,Ohgishima Power,Gas-fired power station,,
Japan,Q17,http://www.wikidata.org/entity/Q11498545,Settsu Energy Center,Gas-fired power station,,
Japan,Q17,http://www.wikidata.org/entity/Q11506612,Japan Techno Sodegaura Green Power,Gas-fired power station,,
Japan,Q17,http://www.wikidata.org/entity/Q11543510,Yokosuka Power Station,Gas-fired power station,,
Japan,Q17,http://www.wikidata.org/entity/Q11554736,Senboku Natural Gas Power Generation,Gas-fired power station,,
Japan,Q17,http://www.wikidata.org/entity/Q11609172,Zero Watt Power Mihama Power Station,Gas-fired power station,,
Japan,Q17,http://www.wikidata.org/entity/Q11643941,Torishima Energy Center,Gas-fired power station,,
Japan,Q17,http://www.wikidata.org/entity/Q11677103,South Kashima Power Plant,Gas-fired power station,,
Italy,Q38,http://www.wikidata.org/entity/Q11963002,Q11963002,Gas-fired power station,,
Italy,Q38,http://www.wikidata.org/entity/Q19381523,Q19381523,Gas-fired power station,,
Bangladesh,Q902,http://www.wikidata.org/entity/Q11963570,Q11963570,Gas-fired power station,,
Bangladesh,Q902,http://www.wikidata.org/entity/Q21447946,Q21447946,Gas-fired power station,,
Bangladesh,Q902,http://www.wikidata.org/entity/Q25426589,Q25426589,Gas-fired power station,,
Turkey,Q43,http://www.wikidata.org/entity/Q97613566,Afyon Şeker power station,Gas-fired power station,,
Turkey,Q43,http://www.wikidata.org/entity/Q11980527,Kentsa power plant,Gas-fired power station,,
Turkey,Q43,http://www.wikidata.org/entity/Q106673460,Bilgin Samsun gas power station,Gas-fired power station,,
Turkey,Q43,http://www.wikidata.org/entity/Q106674849,Lüleburgaz Cogeneration Power Plant,Gas-fired power station,,
Turkey,Q43,http://www.wikidata.org/entity/Q106675759,Samsun Natural Gas Combined Cycle Power Plant,Gas-fired power station,,
Turkey,Q43,http://www.wikidata.org/entity/Q106692442,Denizli CCGT power plant,Gas-fired power station,,
Turkey,Q43,http://www.wikidata.org/entity/Q106696131,Mersin Cogeneration plant,Gas-fired power station,,
Turkey,Q43,http://www.wikidata.org/entity/Q106697259,ODAS I gas power plant,Gas-fired power station,,
Turkey,Q43,http://www.wikidata.org/entity/Q106697380,Taha gas power plant,Gas-fired power station,,
Turkey,Q43,http://www.wikidata.org/entity/Q106697757,Çorlu gas power station,Gas-fired power station,,
Turkey,Q43,http://www.wikidata.org/entity/Q106697785,Tekirdağ power plant,Gas-fired power station,,
Turkey,Q43,http://www.wikidata.org/entity/Q106727813,Gebze-Dilovası power plant,Gas-fired power station,,
Turkey,Q43,http://www.wikidata.org/entity/Q106765254,AGE gas power plant I,Gas-fired power station,,
Turkey,Q43,http://www.wikidata.org/entity/Q106769871,Karadeniz Ereğli-Zonguldak power plant,Gas-fired power station,,
Turkey,Q43,http://www.wikidata.org/entity/Q106782066,Çolakoğlu-1 power plant,Gas-fired power station,,
Turkey,Q43,http://www.wikidata.org/entity/Q106782044,İzmit-Köseköy power plant,Gas-fired power station,,
Thailand,Q869,http://www.wikidata.org/entity/Q11960134,Q11960134,Gas-fired power station,,
Thailand,Q869,http://www.wikidata.org/entity/Q11991653,Q11991653,Gas-fired power station,,
Thailand,Q869,http://www.wikidata.org/entity/Q19391790,Q19391790,Gas-fired power station,,
Canada,Q16,http://www.wikidata.org/entity/Q11962274,Q11962274,Gas-fired power station,,
Canada,Q16,http://www.wikidata.org/entity/Q11962601,Q11962601,Gas-fired power station,,
Canada,Q16,http://www.wikidata.org/entity/Q11963004,Q11963004,Gas-fired power station,,
Canada,Q16,http://www.wikidata.org/entity/Q11977591,Q11977591,Gas-fired power station,,
Canada,Q16,http://www.wikidata.org/entity/Q17776622,Q17776622,Gas-fired power station,,
Canada,Q16,http://www.wikidata.org/entity/Q28233488,Fort Saskatchewan Cogeneration Plant,Gas-fired power station,,
Spain,Q29,http://www.wikidata.org/entity/Q12005252,Q12005252,Gas-fired power station,,
Spain,Q29,http://www.wikidata.org/entity/Q17748179,Q17748179,Gas-fired power station,,
Spain,Q29,http://www.wikidata.org/entity/Q17748180,Q17748180,Gas-fired power station,,
Spain,Q29,http://www.wikidata.org/entity/Q17748399,Q17748399,Gas-fired power station,,
Russia,Q159,http://www.wikidata.org/entity/Q66488879,Q66488879,Gas-fired power station,,
Russia,Q159,http://www.wikidata.org/entity/Q86663084,Q86663084,Gas-fired power station,,
Russia,Q159,http://www.wikidata.org/entity/Q86663188,Q86663188,Gas-fired power station,,
Russia,Q159,http://www.wikidata.org/entity/Q86666646,Q86666646,Gas-fired power station,,
Russia,Q159,http://www.wikidata.org/entity/Q86667203,Q86667203,Gas-fired power station,,
Russia,Q159,http://www.wikidata.org/entity/Q86667773,Q86667773,Gas-fired power station,,
Russia,Q159,http://www.wikidata.org/entity/Q86669078,Q86669078,Gas-fired power station,,
Russia,Q159,http://www.wikidata.org/entity/Q109358900,Q109358900,Gas-fired power station,,
Russia,Q159,http://www.wikidata.org/entity/Q110259606,Q110259606,Gas-fired power station,,
Russia,Q159,http://www.wikidata.org/entity/Q110259609,Q110259609,Gas-fired power station,,
Russia,Q159,http://www.wikidata.org/entity/Q11990778,Q11990778,Gas-fired power station,,
Russia,Q159,http://www.wikidata.org/entity/Q11991598,Q11991598,Gas-fired power station,,
Russia,Q159,http://www.wikidata.org/entity/Q11995116,Q11995116,Gas-fired power station,,
Russia,Q159,http://www.wikidata.org/entity/Q19376057,Q19376057,Gas-fired power station,,
Russia,Q159,http://www.wikidata.org/entity/Q19381906,Q19381906,Gas-fired power station,,
Russia,Q159,http://www.wikidata.org/entity/Q19384738,Q19384738,Gas-fired power station,,
Russia,Q159,http://www.wikidata.org/entity/Q25426949,Q25426949,Gas-fired power station,,
Russia,Q159,http://www.wikidata.org/entity/Q86669012,Q86669012,Gas-fired power station,,
People's Republic of China,Q148,http://www.wikidata.org/entity/Q11960439,Q11960439,Gas-fired power station,,
People's Republic of China,Q148,http://www.wikidata.org/entity/Q11963087,Q11963087,Gas-fired power station,,
People's Republic of China,Q148,http://www.wikidata.org/entity/Q11963421,Q11963421,Gas-fired power station,,
People's Republic of China,Q148,http://www.wikidata.org/entity/Q11971555,Q11971555,Gas-fired power station,,
People's Republic of China,Q148,http://www.wikidata.org/entity/Q11973906,Q11973906,Gas-fired power station,,
People's Republic of China,Q148,http://www.wikidata.org/entity/Q11975304,Q11975304,Gas-fired power station,,
People's Republic of China,Q148,http://www.wikidata.org/entity/Q11978563,Q11978563,Gas-fired power station,,
People's Republic of China,Q148,http://www.wikidata.org/entity/Q11990797,Q11990797,Gas-fired power station,,
People's Republic of China,Q148,http://www.wikidata.org/entity/Q12000204,Q12000204,Gas-fired power station,,
People's Republic of China,Q148,http://www.wikidata.org/entity/Q12010399,Q12010399,Gas-fired power station,,
People's Republic of China,Q148,http://www.wikidata.org/entity/Q12010894,Q12010894,Gas-fired power station,,
People's Republic of China,Q148,http://www.wikidata.org/entity/Q12010938,Q12010938,Gas-fired power station,,
People's Republic of China,Q148,http://www.wikidata.org/entity/Q19373548,Q19373548,Gas-fired power station,,
People's Republic of China,Q148,http://www.wikidata.org/entity/Q19378972,Q19378972,Gas-fired power station,,
People's Republic of China,Q148,http://www.wikidata.org/entity/Q19388353,Q19388353,Gas-fired power station,,
People's Republic of China,Q148,http://www.wikidata.org/entity/Q19391190,Q19391190,Gas-fired power station,,
People's Republic of China,Q148,http://www.wikidata.org/entity/Q19398754,Q19398754,Gas-fired power station,,
People's Republic of China,Q148,http://www.wikidata.org/entity/Q19398803,Q19398803,Gas-fired power station,,
People's Republic of China,Q148,http://www.wikidata.org/entity/Q104876655,Golmud Gas-fire Power Station,Gas-fired power station,,
People's Republic of China,Q148,http://www.wikidata.org/entity/Q104876685,Wenchang Natural Gas Power Station,Gas-fired power station,,
United States,Q30,http://www.wikidata.org/entity/Q11959573,Quantum Auburndale Power Plant,Gas-fired power station,,
United States,Q30,http://www.wikidata.org/entity/Q11963000,Caledonia Power Facility,Gas-fired power station,,
United States,Q30,http://www.wikidata.org/entity/Q11997782,Q11997782,Gas-fired power station,,
United States,Q30,http://www.wikidata.org/entity/Q11991251,New Albany Energy Facility,Gas-fired power station,,
United States,Q30,http://www.wikidata.org/entity/Q11994826,Quantum Pasco Power Plant,Gas-fired power station,,
United States,Q30,http://www.wikidata.org/entity/Q11999024,SRW Cogen,Gas-fired power station,,
United States,Q30,http://www.wikidata.org/entity/Q19378744,Quantum Lake Power Plant,Gas-fired power station,,
United States,Q30,http://www.wikidata.org/entity/Q19385380,Pittsburg Power Plant,Gas-fired power station,,
United States,Q30,http://www.wikidata.org/entity/Q19393035,Trimble County Power Plant,Gas-fired power station,,
United States,Q30,http://www.wikidata.org/entity/Q19398630,Werner Power Plant,Gas-fired power station,,
United States,Q30,http://www.wikidata.org/entity/Q116697798,Connecticut College,Gas-fired power station,,
United States,Q30,http://www.wikidata.org/entity/Q116697797,CoreSite - Somerville,Gas-fired power station,,
United States,Q30,http://www.wikidata.org/entity/Q116697796,Equinix - Elmsford,Gas-fired power station,,
United States,Q30,http://www.wikidata.org/entity/Q116697790,Kaiser - Harbor City,Gas-fired power station,,
United States,Q30,http://www.wikidata.org/entity/Q116697794,Kaiser - LA,Gas-fired power station,,
United States,Q30,http://www.wikidata.org/entity/Q116697795,Kaiser - Woodland Hills,Gas-fired power station,,
United States,Q30,http://www.wikidata.org/entity/Q116697793,Life Technologies - Fremont,Gas-fired power station,,
United States,Q30,http://www.wikidata.org/entity/Q116697791,San Diego Community College,Gas-fired power station,,
United States,Q30,http://www.wikidata.org/entity/Q11957058,Q11957058,Gas-fired power station,,
United States,Q30,http://www.wikidata.org/entity/Q17761601,Q17761601,Gas-fired power station,,
Mexico,Q96,http://www.wikidata.org/entity/Q11999227,Q11999227,Gas-fired power station,,
Mexico,Q96,http://www.wikidata.org/entity/Q12007948,Q12007948,Gas-fired power station,,
Mexico,Q96,http://www.wikidata.org/entity/Q131832366,Dos Bocas power station,Gas-fired power station,,
Mexico,Q96,http://www.wikidata.org/entity/Q134315886,Q134315886,Gas-fired power station,,
Mexico,Q96,http://www.wikidata.org/entity/Q134383724,Q134383724,Gas-fired power station,,
South Korea,Q884,http://www.wikidata.org/entity/Q11973451,Q11973451,Gas-fired power station,,
South Korea,Q884,http://www.wikidata.org/entity/Q11977023,Q11977023,Gas-fired power station,,
South Korea,Q884,http://www.wikidata.org/entity/Q17764358,Q17764358,Gas-fired power station,,
South Korea,Q884,http://www.wikidata.org/entity/Q19376686,Q19376686,Gas-fired power station,,
South Korea,Q884,http://www.wikidata.org/entity/Q19398896,Q19398896,Gas-fired power station,,
Taiwan,Q865,http://www.wikidata.org/entity/Q28415560,Q28415560,Gas-fired power station,,
Taiwan,Q865,http://www.wikidata.org/entity/Q117771871,Chung Chia Power Plant,Gas-fired power station,,
Ukraine,Q212,http://www.wikidata.org/entity/Q12086812,Q12086812,Gas-fired power station,,
Ukraine,Q212,http://www.wikidata.org/entity/Q12107862,Q12107862,Gas-fired power station,,
Ukraine,Q212,http://www.wikidata.org/entity/Q12119090,Q12119090,Gas-fired power station,,
Ukraine,Q212,http://www.wikidata.org/entity/Q12158666,Q12158666,Gas-fired power station,,
Ukraine,Q212,http://www.wikidata.org/entity/Q23769548,Q23769548,Gas-fired power station,,
Ukraine,Q212,http://www.wikidata.org/entity/Q11982929,Ladyzhyn power plant,Gas-fired power station,,
Ukraine,Q212,http://www.wikidata.org/entity/Q12099561,Darnytska TEC,Gas-fired power station,,
Ukraine,Q212,http://www.wikidata.org/entity/Q12114491,Kremenchuk thermal power station,Gas-fired power station,,
Ukraine,Q212,http://www.wikidata.org/entity/Q12135205,Odesa heat and power plant,Gas-fired power station,,
Saudi Arabia,Q851,http://www.wikidata.org/entity/Q11957203,Q11957203,Gas-fired power station,,
United Arab Emirates,Q878,http://www.wikidata.org/entity/Q11966161,Q11966161,Gas-fired power station,,
France,Q142,http://www.wikidata.org/entity/Q60847995,Q60847995,Gas-fired power station,,
Indonesia,Q252,http://www.wikidata.org/entity/Q19376786,Q19376786,Gas-fired power station,,
Indonesia,Q252,http://www.wikidata.org/entity/Q25476679,Q25476679,Gas-fired power station,,
Ireland,Q27,http://www.wikidata.org/entity/Q19393617,Q19393617,Gas-fired power station,,
Argentina,Q414,http://www.wikidata.org/entity/Q4736821,Alto Valle thermal power plant,Gas-fired power station,,
Greece,Q41,http://www.wikidata.org/entity/Q19379098,Q19379098,Gas-fired power station,,
Greece,Q41,http://www.wikidata.org/entity/Q19379096,Q19379096,Gas-fired power station,,
Denmark,Q35,http://www.wikidata.org/entity/Q11997920,Q11997920,Gas-fired power station,,
Denmark,Q35,http://www.wikidata.org/entity/Q19374485,Q19374485,Gas-fired power station,,
Norway,Q20,http://www.wikidata.org/entity/Q11998788,Q11998788,Gas-fired power station,,
Norway,Q20,http://www.wikidata.org/entity/Q19377645,Q19377645,Gas-fired power station,,
Norway,Q20,http://www.wikidata.org/entity/Q106465475,Q106465475,Gas-fired power station,,
Belgium,Q31,http://www.wikidata.org/entity/Q19397749,Q19397749,Gas-fired power station,,
Finland,Q33,http://www.wikidata.org/entity/Q11991638,Q11991638,Gas-fired power station,,
Finland,Q33,http://www.wikidata.org/entity/Q11991954,Q11991954,Gas-fired power station,,
Nigeria,Q1033,http://www.wikidata.org/entity/Q11965055,Q11965055,Gas-fired power station,,
Nigeria,Q1033,http://www.wikidata.org/entity/Q17748240,Q17748240,Gas-fired power station,,
Nigeria,Q1033,http://www.wikidata.org/entity/Q19377650,Q19377650,Gas-fired power station,,
Venezuela,Q717,http://www.wikidata.org/entity/Q11963105,Q11963105,Gas-fired power station,,
Venezuela,Q717,http://www.wikidata.org/entity/Q11963269,Q11963269,Gas-fired power station,,
Venezuela,Q717,http://www.wikidata.org/entity/Q11995800,Q11995800,Gas-fired power station,,
Venezuela,Q717,http://www.wikidata.org/entity/Q11997754,Q11997754,Gas-fired power station,,
Venezuela,Q717,http://www.wikidata.org/entity/Q12005585,Q12005585,Gas-fired power station,,
Portugal,Q45,http://www.wikidata.org/entity/Q11983224,Q11983224,Gas-fired power station,,
Portugal,Q45,http://www.wikidata.org/entity/Q11997744,Q11997744,Gas-fired power station,,
Portugal,Q45,http://www.wikidata.org/entity/Q17761900,Q17761900,Gas-fired power station,,
Romania,Q218,http://www.wikidata.org/entity/Q6699066,Q6699066,Gas-fired power station,,
Romania,Q218,http://www.wikidata.org/entity/Q5511443,Fântânele Power Station,Gas-fired power station,,
Kazakhstan,Q232,http://www.wikidata.org/entity/Q19380573,Q19380573,Gas-fired power station,,
Czech Republic,Q213,http://www.wikidata.org/entity/Q19398385,Q19398385,Gas-fired power station,,
Iraq,Q796,http://www.wikidata.org/entity/Q11990174,Q11990174,Gas-fired power station,,
Iraq,Q796,http://www.wikidata.org/entity/Q12011121,Q12011121,Gas-fired power station,,
Iraq,Q796,http://www.wikidata.org/entity/Q17749787,Q17749787,Gas-fired power station,,
Trinidad and Tobago,Q754,http://www.wikidata.org/entity/Q19375657,Q19375657,Gas-fired power station,,
Trinidad and Tobago,Q754,http://www.wikidata.org/entity/Q19385446,Q19385446,Gas-fired power station,,
Trinidad and Tobago,Q754,http://www.wikidata.org/entity/Q11996068,Port of Spain Power Plant,Gas-fired power station,,
Croatia,Q224,http://www.wikidata.org/entity/Q12011138,Q12011138,Gas-fired power station,,
Croatia,Q224,http://www.wikidata.org/entity/Q19388555,Q19388555,Gas-fired power station,,
Ecuador,Q736,http://www.wikidata.org/entity/Q19380795,Q19380795,Gas-fired power station,,
Ecuador,Q736,http://www.wikidata.org/entity/Q11967597,Enrique García Power Plant,Gas-fired power station,,
Ecuador,Q736,http://www.wikidata.org/entity/Q12007454,Trinitaria Power Plant,Gas-fired power station,,
Chile,Q298,http://www.wikidata.org/entity/Q6987923,Nehuenco II Power Plant,Gas-fired power station,,
Uzbekistan,Q265,http://www.wikidata.org/entity/Q12005260,Q12005260,Gas-fired power station,,
Philippines,Q928,http://www.wikidata.org/entity/Q11984065,Q11984065,Gas-fired power station,,
State of Palestine,Q219060,http://www.wikidata.org/entity/Q11992752,Q11992752,Gas-fired power station,,
Switzerland,Q39,http://www.wikidata.org/entity/Q120790836,Neuchâtel gas turbine,Gas-fired power station,,
Niger,Q1032,http://www.wikidata.org/entity/Q125813946,Soraz Thermal Power Station,Gas-fired power station,,
